ID,ADDRESS,CITY,STATE,ZIP
0,3763 EVANS AVENUE,FORT MYERS,FL,33901
1,1870 Colonial Blvd,Ft. Myers,FL,33907
2,10915 Bonita Beach Road Suite 1122,Bonita Springs,FL,34135
3,12550 NEW BRITTANY BLVD STE 201,FORT MYERS,FL,33907
4,6313 Corporate Court 130,Fort Myers,FL,33919
5,14131 Metropolis Ave Suite 103,naples,FL,34119
6,535 Pine Island Road,North Fort Myers,FL,33903
7,5445 Park Central Court,Naples,FL,34109
8,6075 BATHEY LN BLDG C,NAPLES,FL,34116
9,"720 North Goodlette Road, Suite 500",Naples,FL,34102
10,"1101 Tamiami Trail South, Suite 108",Venice,FL,34285
11,3000 NW 101ST LN STE 101,CORAL SPRINGS,FL,33065
12,"7880 North University Drive, Suite 303",Tamarac,FL,33321
13,"9970 Central Park Boulevard, Suite 207",Boca Raton,FL,33428
14,4300 N University Dr 207,Sunrise,FL,33351
15,2960 N STATE ROAD 7,MARGATE,FL,33063
16,3593 SW Corporate Pkwy,Palm City,FL,34990
17,"7251 West Palmetto Park Road, Suite 204",Boca Raton,FL,33433
18,21301 S. Powerline Rd. 311,Boca Raton,FL,33433
19,14000 SOUTH MILITARY TRAIL,DELRAY BEACH,FL,33484
20,1420 SW Saint Lucie W Blvd. Suite 106,Port St. Lucie,FL,34986
21,2499 GLADES RD. STE 110,BOCA RATON,FL,33431
22,2901 W. Cypress Creek Blvd Suite 123,Ft. Lauderdale,FL,33309
23,"4121 NW 5th Street, Suite 206",Plantation,FL,33317
24,3153 Canada Ct.,Lake Worth,FL,33461
25,"580 Village Boulevard, Suite 210",West Palm Beach,FL,33409
26,"4101 North Hosptial Drive, Suite 211",Plantation,FL,33317
27,3085 WEST 80TH ST,HIALEAH,FL,33018
28,1131 SE Indian St.,Stuart,FL,34997
29,"1501 Presidential Way, 5",West Palm Beach,FL,33401
30,616 SE Central Pkwy,Stuart,FL,34994
31,150 SW 12th Ave. 480,Pompano Beach,FL,33069
32,1300 Hibiscus Dr.,Pembroke Pines,FL,33025
33,450 W Hillsboro Blvd,Deerfield Beach,FL,33441
34,7357 WILSON RD,WEST PALM BEACH,FL,33413
35,150 E. Sample Rd. Suite 320,Pompano Beach,FL,33064
36,1700 Old Okeechobee Road,West Palm Beach,FL,33409
37,2801 SE Martin Square Corporate Pkwy,Stuart,FL,34994
38,1685 NW FEDERAL HWY,JENSEN BEACH,FL,34957
39,3652 Seacreat Blvd.,Boynton Beach,FL,33435
40,971 S DIXIE HWY,POMPANO BEACH,FL,33060
41,236 SE 23rd Ave,Boynton Beach,FL,33435
42,403 SE 1ST ST,DELRAY BEACH,FL,33483
43,1130 Elizabeth Avenue,West Palm Beach,FL,33401
44,1680 SE Lyngate Drive Suite 204,Port St. Lucie,FL,34952
45,7940 N. Federal Hwy.,Boca Raton,FL,33487
46,3330 N. Federal Hwy.,Boynton Beach,FL,33435
47,4800 N Federal Hwy Suite E 102,Boca Raton,FL,33431
48,4837 N Dixie Hwy,Ft. Lauderdale,FL,33334
49,"4837 N. Dixie Hwy, Suite A",Ft. Lauderdale,FL,33334
50,660 South Dixie Highway,Lantana,FL,33462
51,810 Andrews Avenue,Delray Beach,FL,33483
52,3773 N. Federal Hwy,Pompano Beach,FL,33060
53,"210 Jupiter Lakes Blvd. Bldg 3000, Ste 102",Jupiter,FL,33458
54,"2962 SW 26th Terrace, Suite 203",Fort Lauderdale,FL,33312
55,314 10th Street,West Palm Beach,FL,33401
56,1700 N. Dixie Hwy,West Palm Beach,FL,33407
57,"11900 Southeast Federal HW, Suite 212",Hobe Sound,FL,33455
58,741 US 1,North Palm Beach,FL,33408
59,2550 S.E. Walton Road,Port Saint Lucie,FL,34952
60,1475 NE JENSEN BEACH BLVD,JENSEN BEACH,FL,34957
61,3293 Fruitville Rd Unit 108,Sarasota,FL,34237
62,208 SE 8th St.,Ft. Lauderdale,FL,33316
63,"2650 Bahia Vista Street, Suite 207",Sarasota,FL,34239
64,2626 Lake Drive,Rivera Beach,FL,33404
65,13321 US Highway 1,Juno Beach,FL,33408
66,3670 NE Indian River Dr.,Jensen Beach,FL,34957
67,325 SW 28th St.,Fort Lauderdale,FL,33315
68,1219 S. East Avenue,Sarasota,FL,34239
69,1700 S. Tamiami Trail,Sarasota,FL,34239
70,"915 Middle River Drive, Suite 114",Ft. Lauderdale,FL,33304
71,4001 N OCEAN DR STE 304,FORT LAUDERDALE,FL,33308
72,2632 Hollywood Blvd. Suite 305,Hollywood,FL,33020
73,16565 NE 4th Ave.,Miami,FL,33162
74,5040 NW 7th St,Miami,FL,33126
75,1545 Northeast 123rd Street,North Miami,FL,33161
76,1469 NW 36th St.,MIAMI,FL,33142
77,800 Northwest 28th Street,Miami,FL,33127
78,100 NE 38TH ST STE 5,MIAMI,FL,33137
79,13370 sw 131 st,Coral Gables,FL,33134
80,400 W 41st St. Ste 402A,Miami Beach,FL,33140
81,22790 Southwest 112th Avenue,Miami,FL,33170
82,348 West Highland Drive,Lakeland,FL,33803
83,12012 Boyette Road,Riverview,FL,33569
84,1801 Crystal Lake Dr.,Lakeland,FL,33801
85,510 Vonderburg Drive Suite 301,Brandon,FL,33511
86,1835 GILMORE AVE,LAKELAND,FL,33805
87,205 W MORGAN ST,BRANDON,FL,33510
88,"1663 Georgia Street Northeast, Suite 500",Palm Bay,FL,32907
89,2011 North Wheeler Street,Plant City,FL,33563
90,"5205 Babcock Street Northeast, Suite 3",Palm Bay,FL,32905
91,1910 ORIENT RD,TAMPA,FL,33619
92,"3012 N US Highway 301, Ste 1000",Tampa,FL,33619
93,3177 4th Street North,St. Petersburg,FL,33704
94,3115 Innovation Drive,St. Cloud,FL,34769
95,4422 East Columbus Drive,Tampa,FL,33605
96,1304 S. Desoto Ave. Suite 304,Tampa,FL,33606
97,"1001 S. MacDill Ave., Suite 400",Tampa,FL,33629
98,2522 West Kennedy Boulevard,Tampa,FL,33609
99,7217 Gulf Blvd Suite 2,St. Pete Beach,FL,33706
100,300 76th Ave St,St Pete Beach,FL,33706
101,3800 5th Street,Saint Cloud,FL,34769
102,3601 West Azeele,Tampa,FL,33609
103,100 South Harbor City Blvd.,Melbourne,FL,32901
104,7001 Central Ave,St. Petersburg,FL,33710
105,2214 East Henry Ave,Tampa,FL,33610
106,4004 N. Riverside Drive,Tampa,FL,33603
107,2727 W. Dr. Martin Luther King Jr. Blvd Suite 640,Tampa,FL,33607
108,151 107th Ave 13,Treasure Island,FL,33706
109,825 East Oak Street,Kissimmee,FL,34744
110,206 PARK PLACE BLVD,KISSIMMEE,FL,34741
111,2311 North Orange Blossom Trail,Kissimmee,FL,34744
112,825 West Linebaugh Avenue,Tampa,FL,33612
113,4300 Duhme Road,Madeira Beach,FL,33708
114,14522 University Point Place,Tampa,FL,33613
115,14437 University Cove Place,Tampa,FL,33613
116,5919 Webb Road,Tampa,FL,33615
117,508 West Fletcher Ave,Tampa,FL,33612
118,6227 Sheldon Rd,Tampa,FL,33615
119,"6150 150th Avenue North, Suite 1",Clearwater,FL,33760
120,"6150 150th Avenue North, Suite 2",Clearwater,FL,33760
121,"9555 Seminole Blvd, Suite 100",Seminole,FL,33772
122,10500 Ulmerton Rd. STE 360,Largo,FL,33771
123,"1811 South Orlando Avenue, Suite A",Cocoa Beach,FL,32931
124,818 Chestnut St,Clearwater,FL,33775
125,8615 Commodity Circle STE 12,Orlando,FL,32819
126,1650 SANDLAKE RD STE 112A,ORLANDO,FL,32809
127,2345 Sand Lake Road,Orlando,FL,32809
128,2430 Estancia Blvd Ste 104,Clearwater,FL,33761
129,28465 US 19 N,Clearwater,FL,33761
130,803 North Fiske Boulevard,Cocoa,FL,32922
131,"6900 Turkey Lake Road, Suite 1-2",Orlando,FL,32819
132,6000 Lake Ellanor Drive,Orlando,FL,32809
133,101 E MILLER ST,ORLANDO,FL,32806
134,3575 Old Keystone Rd.,Tarpon Springs,FL,34688
135,100 W COLUMBIA ST,ORLANDO,FL,32806
136,601 South Semoran Blvd,Orlando,FL,32807
137,1400 E Robinson St.,Orlando,FL,32801
138,"1033 North Pine Hills Road, Suite 300",Orlando,FL,32808
139,1800 MERCY DR,ORLANDO,FL,32808
140,1850 N Alafaya Trail Suite A,Orlando,FL,32826-4745
141,"6388 Silver Star Road, Suite 1-D",Orlando,FL,32818
142,"2000 North Alafaya Trail, Suite 200",Orlando,FL,32826
143,120 Benmore Drive,Winter Park,FL,32792
144,"1801 Lee Road, Suite 225",Winter Park,FL,32789
145,5319 Grand Blvd,New Port Richey,FL,34652
146,8002 KING HELIE BOULEVARD,NEW PORT RICHEY,FL,34653
147,406 Lake Howell Road,Maitland,FL,32751
148,"2450 Maitland Center Parkway, Suite 202",Lake Mary,FL,32751
149,"1111 12th St, Suite 212",key west,FL,33040
150,237 FERNWOOD BLVD,FERN PARK,FL,32730
151,"499 North State Road 434, Suite 1073",Altamonte Springs,FL,32714
152,"17222 Hospital Boulevard, Suite 226",Brooksville,FL,34601
153,8213 Cessna Dr,Spring Hill,FL,34606
154,4106 W. Lake Mary Blvd.,Lake Mary,FL,32746
155,766 Sun Drive,Lake Mary,FL,32746
156,5105 N Mccoll Rd,Mcallen,TX,78504
157,520 Everhart Road,Corpus Christi,TX,78411
158,3131 W HOLCOMBE BLVD,Houston,TX,77025
159,900 Lovett Blvd,Houston,TX,77006
160,5586 WESLAYAN,Houston,TX,77005
161,2225 Louisiana,Houston,TX,77002
162,"6565 West Loop South, Suite 525",Bellaire,TX,77401
163,5130 BELLAIRE BLVD,Bellaire,TX,77401
164,4800 WEST BELLFORT,Houston,TX,77035
165,6550 Mapleridge Street Ste. 210,Houston,TX,77081
166,5161 SAN FELIPE,Houston,TX,77056
167,1917 Ashland Street Suite 100,Houston,TX,77008
168,"2040 North Loop West, Suite 330",Houston,TX,77018
169,6311 Fulton Street,Houston,TX,77022
170,9660 WESTHEIMER RD,Houston,TX,77063
171,513 THORNTON RD,HOUSTON,TX,77018
172,9432 Katy Freeway Ste 400,Houston,TX,77055
173,10228 BROADWAY,Pearland,TX,77584
174,"12850 MEMORIAL DR, STE 1000",Houston,TX,77024
175,1140 Business Center Drive Ste 580,Houston,TX,77043
176,3525 East Broadway Street,Pearland,TX,77581
177,3043 N Gessner Rd,Houston,TX,77080
178,14610 MEMORIAL DR,Houston,TX,77079
179,3346 Highway 6 South,Sugar Land,TX,77478
180,"1441 Highway 6, Suite 200",Sugar Land,TX,77478
181,11500 Space Center Boulevard,Houston,TX,77059
182,18322 Clay Road,Houston,TX,77084
183,525 SOUTH FRY RD,Katy,TX,77450
184,5219 FM 1960 WEST,Houston,TX,77069
185,14340 Torrey Chase Blvd Suite 160,Houston,TX,77014
186,1890 FM 359,Richmond,TX,77406
187,"17115 Red Oak Drive, Suite 109",Houston,TX,77090
188,"20333 State Highway 249, Suite 200",HOUSTON,TX,77070
189,2951 Marina Bay Dr.,League City,TX,77573
190,2802 Garth Road STE 109,Baytown,TX,77521
191,719 SAWDUST RD STE 207,SPRING,TX,77380
192,635 Rayford Road,Spring,TX,77386
193,1820 East County Road 36,Angleton,TX,77515
194,2931 CENTRAL CITY AVE,Galveston,TX,77551
195,"3560 Delaware Street, Suite 207",Beaumont,TX,77706
196,1651 Rock Prarie Rd,College Station,TX,77845
197,2750 Country Club Rd,Lake Charles,LA,70605
198,710 W. Prien Road. Suite 206,Lake Charles,LA,70601
199,"4060 Ryan Street, South",Lake Charles,LA,70605
200,2802 HODGES ST,LAKE CHARLES,LA,70601
201,314 E Highland Mall Blvd Ste 305,Austin,TX,78752
202,2051 Gattis School Road,Round Rock,TX,78664
203,503 W 41ST ST,AUSTIN,TX,78751
204,"630 West 34th Street, Suite 301",Austin,TX,78705
205,5419 S CONGRESS AVE,AUSTIN,TX,78745
206,1500 W. 35th Street,Austin,TX,78703
207,2025 W. Ben White Blvd.,Austin,TX,78704
208,5311 Balcones Drive,Austin,TX,78731
209,8040 Mesa Drive,Austin,TX,78731
210,10900- D Research Blvd.,Austin,TX,78759
211,"3300 Bee Caves Road, Suite 500",West Lake Hills,TX,78746
212,3238 S LECANTO HWY,LECANTO,FL,34461
213,131 W Main Street,Tavares,FL,32778
214,"4820 N HIGHWAY 19A, SUITE 2",MOUNT DORA,FL,32757
215,633 Umatilla Boulevard,Umatilla,FL,32784
216,5664 SW 60TH AVE BLDG 2,OCALA,FL,34474
217,3130 Southwest 27th Avenue,Ocala,FL,34471
218,919 E 2ND ST,SANFORD,FL,32771
219,2583 S VOLUSIA AVE STE 200,ORANGE CITY,FL,32763
220,103 NE 1st St.,Chiefland,FL,32626
221,502 Palmetto Street,New Smyrna Beach,FL,32168
222,"724 South Beach Street, Suite 3",Daytona Beach,FL,32114
223,1890 LPGA Blvd Suite 160,Daytona Beach,FL,32117
224,208 Booth Road,Ormond Beach,FL,32174
225,1125 N SUMMIT ST,CRESCENT CITY,FL,32112
226,"4721 East Moody Boulevard, Suite 107",Bunnell,FL,32110
227,"145 Cypress Point Parkway, Suite 105",Palm Coast,FL,32164
228,8042 Wurzbach Rd Ste 150,San Antonio,TX,78229
229,3050 Eisenhauer Road,San Antonio,TX,78209
230,3320 Oakwell Ct Suite 103,San Antonio,TX,78218
231,9911 BRODIE LANE,Austin,TX,78748
232,6600 MOPAC EXPWY SOUTH,Austin,TX,78749
233,2301 Ranch Road 620 South,Lakeway,TX,78734
234,5145 N Fm 620 Suite A,Austin,TX,78732
235,1400 Cypress Creek Road,Cedar Park,TX,78613
236,3441 N. Lakeline Blvd.,Leander,TX,78641
237,"1130 Cottonwood Creek Trail, Suite B-1",Austin,TX,73301
238,4316 SW 13TH ST,GAINESVILLE,FL,32608
239,3930 US 1 South,St. Augustine,FL,32086
240,"3574 US 1 South, Suite 111",St. Augustine,FL,32086
241,1305 N. Orange Ave Ste 115,Green Cove Springs,FL,32043
242,439 SW MICHIGAN ST,LAKE CITY,FL,32025
243,1301 S. Plantation Island Drive Suite 201B,St. Augustine,FL,32080
244,304 Kingsley Lake Dr STE 601,ST AUGUSTINE,FL,32092
245,"1543 Kingsley Avenue, Building 14",Orange Park,FL,32073
246,"462 Kingsley Avenue, Suite 102",Orange Park,FL,32073
247,"1677 Wells Road, Suite A",Orange Park,FL,32073
248,"6100 Greenland Rd, Suite 201",Jacksonville,FL,32258
249,6100 Greenland Rd Ste 202,Jacksonville,FL,22258
250,3685 Crown Point Court,Jacksonville,FL,32257
251,"8130 Baymeadows Circle West, Suite 308",Jacksonville,FL,32250
252,"9141 Cypress Green Drive, Suite 1",Jacksonville,FL,32256
253,4190 BELFORT RD Suite 140,JACKSONVILLE,FL,32216
254,3947 Salisbury Rd,Jacksonville,FL,32216
255,6817 SOUTHPOINT PARKWAY SUITE 1404,JACKSONVILLE,FL,32216
256,"6817 Southpoint Parkway, Suite 2402",Jacksonville,FL,32216
257,1597 The Greens Way,Jacksonville,FL,32250
258,390 16TH AVENUE SOUTH,Jacksonville,FL,32250
259,1909 Beach Blvd. suit.201,Jacksonville Beach,FL,32250
260,3636 University Blvd S Suite B-2,Jacksonville,FL,32216
261,340-16th Avenue North,Jacksonville Beach,FL,32250
262,1900 CORPORATE SQUARE BOULEVARD,JACKSONVILLE,FL,32216
263,2624 Atlantic Blvd. Suite 1,Jacksonville,FL,32207
264,40 Acme Street,Jacksonville,FL,32211
265,"320 3rd Street, Suite B",Neptune Beach,FL,32266
266,555 STOCKTON STREET,JACKSONVILLE,FL,32204
267,1128 North Laura Street,Jacksonville,FL,32206
268,5721 Williams Drive,Georgetown,TX,78633
269,3450 Dunn Ave 201,Jacksonville,FL,32218
270,463142 State Road 200,Yulee,FL,32097
271,111 N. Patterson St.,Valdosta,GA,31601
272,2704 N. Oak Street B-1,Valdosta,GA,31602
273,"1965 Capital Circle Northeast, Suite 102",Tallahassee,FL,32308
274,"1000 West Tharpe Street, Suite 2",Tallahassee,FL,32303
275,1102 Smith Avenue,Thosmasville,GA,31792
276,525 Cassidy Road,Thomasville,GA,31792
277,7 St. Andrews CT.,BRUNSWICK,GA,31520
278,104 S Park Dr,Brownwood,TX,76801
279,1314 North Lafitte,Abbeville,LA,70510
280,2615 NORTH DRIVE,ABBEVILLE,LA,70510
281,4400 AMBASSADOR CAFFERY PKWY,Lafayette,LA,70508
282,111 Liberty Avenue,Lafayette,LA,70508
283,1304 Bertrand Dr. Ste. E4,Lafayette,LA,70506
284,2678 Johnston Street,Lafayette,LA,70503
285,1210 Albertson Parkway,Broussard,LA,70518
286,1500 Lee Street,Alexandria,LA,71301
287,500 Roderick Street,Morgan City,LA,70380
288,2950 COLLEGE DRIVE,Baton Rouge,LA,70808
289,3955 Government Street Suite 2,Baton Rouge,LA,70806
290,"4615 Government Street, Building 2",Baton Rouge,LA,70806
291,5344 Brittany Dr.,Baton Rouge,LA,70808
292,2455 Wooddale Boulevard,Baton Rouge,LA,70805
293,9431 Common Street,Baton Rouge,LA,70809
294,9650 AIRLINE HIGHWAY,Baton Rouge,LA,70815
295,15128 AIRLINE HWY,Baton Rouge,LA,70817
296,827 Bayou Gardens Boulevard,Houma,LA,70364
297,5599 LA-311,Houma,LA,70360
298,235 Civic Center Blvd,HOUMA,LA,70360
299,3750 Hwy 1,Raceland,LA,70394
300,157 TWIN OAKS DRIVE,RACELAND,LA,70394
301,1809 West Airline Highway,Laplace,LA,70068
302,15825 Professional Plaza Suite C,Hammond,LA,70403
303,"3801 Houma Boulevard, Suite 100",Metairie,LA,70006
304,2321 N Hullen Street Suite B,Metairie,LA,70001
305,8708 Oak Street,New Orleans,LA,70118
306,4322 Canal Street,New Orleans,LA,70119
307,2221 Philip Street,New Orleans,LA,70113
308,1125 N TONTI ST,NEW ORLEANS,LA,70119
309,2703 General DeGaulle Dr,New Orleans,LA,70114
310,111 N Causeway Blvd Suite 222,Mandeville,LA,70448
311,4408 LA-22,Mandeville,LA,70471
312,1116 W. 21st Ave,Covington,LA,70433
313,5620 READ BLVD FL 5,NEW ORLEANS,LA,70127
314,9970 Lake Forest Blvd.,New Orleans,LA,70127
315,23515 Highway 190 Ward B,Mandeville,LA,70448
316,2331 Carey Street,Slidell,LA,70458
317,115 Christian Lane,Slidell,LA,70458
318,2106 Avenue F,Bogalusa,LA,70427
319,15094 County Bard Road,Gulfport,MS,39503
320,3091 Bienville Boulevard,Ocean Springs,MS,39564
321,1 Lincoln Parkway Suite 202,Hattiesburg,MS,39402
322,1000 Hillcrest Road Suite 304,Mobile,AL,36695
323,6431 N W St,Pensacola,FL,32505
324,431 East Government Street,Pensacola,FL,32502
325,4400 Bayou Blvd,Pensacola,FL,32503
326,710 Underwood Ave,Pensacola,FL,32504
327,350 Pensacola Beach Blvd,Pensacola,FL,32561
328,4453 US Highway 90,Pace,FL,32571
329,4400 Hickory Shore Blvd.,Gulf Breeze,FL,32563
330,7552 Navarre Pkwy,Navarre,FL,32566
331,525 East 15th Street,Panama City,FL,32405
332,277 Forest Park Circle,Panama City,FL,32405
333,1212 West 19th St,Panama City beach,FL,32405
334,16900 West Front Beach Road,Panama City Beach,FL,32413
335,22219 Panama City Beach Parkway,Panama City,FL,32413
336,137 HOSPITAL DR,FORT WALTON BEACH,FL,32548
337,348 Miracle Strip Pkwy SW,Fort Walton Beach,FL,32548
338,299 W Rail Road Ave,Crestview,FL,32536
339,2068 Healthcare Dr,Navarre,FL,32566
340,8734 Ortega park drive,Navarre,FL,32566
341,126 Hospital Ave,Ozark,AL,36360
342,1712-B E BROAD AVE,ALBANY,GA,31705
343,315 Commercial Dr,Savannah,GA,31406
344,"308 Commercial Drive, Suite 100",Savannah,GA,31406
345,3028 Trawood Dr Suite D,El Paso,TX,79936
346,7022 N. MESA ST,El Paso,TX,79912
347,1100 W REYNOSA AVE,DE LEON,TX,76444
348,225 E Spring St,Weatherford,TX,76086
349,980 Hwy North 287,Mansfield,TX,76063
350,6960 DICK PRICE ROAD,MANSFIELD,TX,76063
351,3525 Sycamore School Rd,Fort Worth,TX,76133
352,7229 Hawkins View Drive,Fort Worth,TX,76132
353,5950 South Cooper St,Arlington,TX,76017
354,210 EAST PLEASANT RUN ROAD,Desoto,TX,75115
355,301 Sw Plaza Shopping Ctr,Arlington,TX,76016
356,3000 S. HULEN,Ft. Worth,TX,76109
357,6377 CAMP BOWIE,Ft. Worth,TX,76116
358,633 WHEATLAND RD,Duncanville,TX,75116
359,4215 South Carrier,Grand Prairie,TX,75052
360,"1615 West Oleander Street, Suite A",Ft. Worth,TX,76104
361,2611 WEST PARK ROW,Arlington,TX,76013
362,2400 W 7th St.,Fort Worth,TX,31058
363,"1006 North Bowen, Suite 126",Arlington,TX,76012
364,2912 KRAFT ST STE 30,ARLINGTON,TX,76010
365,850 E Loop 820,Fort Worth,TX,76112
366,6308 Lake Worth Blvd,Lake Worth,TX,76135
367,2755 North Collins St.,Arlington,TX,76006
368,315 SOUTH HAMPTON,Dallas,TX,75208
369,1300 AIRPORT FREEWAY,Bedford,TX,76022
370,1813 Harwood Ct,Hurst,TX,76054
371,612 GRAPEVINE HWY,Hurst,TX,76054
372,2380 N Field St,Dallas,TX,75201
373,480 Northwest Pkwy,Azle,TX,76020
374,1501 Pioneer Road,Mesquite,TX,75149
375,2828 Motley Drive,Mesquite,TX,75150
376,320 Casa Linda Plaza,Dallas,TX,75218
377,5710 Broadway Blvd,Garland,TX,75043
378,"7610 North Stemmons Freeway, Suite 360",Dallas,TX,75247
379,6333 E Mockingbird Ln,Dallas,TX,75214
380,925 Northwest Highway,Garland,TX,75041
381,7117 Inwood Road,Dallas,TX,75209
382,5809 East Lovers Ln.,Dallas,TX,75206
383,7700 W Northwest Hwy,Dallas,TX,75225
384,6240 GREENWOOD RD,SHREVEPORT,LA,71119
385,910 Pierremont Rd. Suite 300,Shreveport,LA,71106
386,1303 Line Avenue Suite 600,Shreveport,LA,71101
387,1310 N Hearne Ave.,Shreveport,LA,71107
388,1605 Benton Road Suite D,Bossier City,LA,71111
389,1514 DOCTORS DR,BOSSIER CITY,LA,71111
390,502 Nella Street,Minden,LA,71055
391,1416 Natchitoches Street,West Monroe,LA,71292
392,1910 Ruffin Drive,Monroe,LA,71202
393,1209 N 18th Ave,Monroe,LA,71201
394,"3001 Armand Street, Suite A",Monroe,LA,71201
395,2321 HIGHWAY 80 E,Monroe,LA,71203
396,215 North Park Drive,Monroe,LA,71203
397,109 Elm St.,Delhi,LA,71232
398,2869 New Monroe Rd,Bastrop,LA,71220
399,1200 N. State Street Suite 450,Jackson,MS,39202
400,1935 Lakeland Drive Suite 900,Jackson,MS,39216
401,805 FRIENDSHIP RD,TALLASSEE,AL,36078
402,80 Herren Hill Rd,Tallassee,AL,36078
403,2000 10th Ave Ste 380,COLUMBUS,GA,31901
404,"1200 Brookstone Centre Parkway, Suite 120",Columbus,GA,31904
405,215 N Coleman Street,Swainsboro,GA,30401
406,2200 Main Street,Hilton Head Island,SC,29926
407,60 MAIN ST STE H,HILTON HEAD ISLAND,SC,29926
408,260 W Continental,Green Valley,AZ,85614
409,1305 W. DUVAL MINE ROAD,Green Valley,AZ,85614
410,2940 W. VALENCIA ROAD,Tucson,AZ,85746
411,1501 WEST COMMERCE COURT,TUCSON,AZ,85746
412,1551 W ST MARYS RD,Tucson,AZ,85745
413,2140 W. GRANT ROAD,Tucson,AZ,85745
414,1940 EAST BROADWAY ROAD,Tucson,AZ,85719
415,9050 E. Valencia Road,Tucson,AZ,85747
416,13380 E Mary Ann Cleveland Way,Vail,AZ,85641
417,6360 E. GOLF LINKS RD,Tucson,AZ,85730
418,2101 East Grant Road,TUCSON,AZ,85719
419,1604 N. Country Club Rd.,Tucson,AZ,85716
420,924 N Alvernon Way,Tucson,AZ,85711
421,5055 E BROADWAY BLDG A SUITE 200,Tucson,AZ,85711
422,3956 East Pima Street,Tucson,AZ,85712
423,5401 EAST 5TH STREET,TUCSON,AZ,85712
424,8050 EAST LAKESIDE PARKWAY,TUCSON,AZ,85730
425,3615 N Prince Village Place 121,Tucson,AZ,85719
426,5840 NORTH LA CHOLLA BOULEVARD,TUCSON,AZ,85741
427,258 E RIVER RD,TUCSON,AZ,85704
428,9100 N SILVERBELL,Tucson (marana),AZ,85743
429,9460 E. Golf Links Road,Tucson,AZ,85730
430,7110 N ORACLE RD.,Tucson,AZ,85704
431,10380 EAST BROADWAY BLVD,Tucson,AZ,85748
432,12122 N. RANCHO VISTOSO BLVD.,Oro Valley,AZ,85755
433,2273 E Wilcox Drive,Sierra Vista,AZ,85635
434,599 WEST 4TH STREET,Benson,AZ,85602
435,500 North Florence St,Casa Grande,AZ,85122
436,1637 N TREKELL RD,Casa Grande,AZ,85122
437,1449 N. ARIZONA BLVD,Coolidge,AZ,85128
438,3325 NORTH HUNT HIGHWAY,Florence,AZ,85132
439,650 N BISBEE AVENUE,Willcox,AZ,85643
440,36375 N Gantel Rd Suite 101,SAN TAN VALLEY,AZ,85140
441,4970 South Alma School Road,Chandler,AZ,85248
442,18495 E Queen Creek Road,Queen Creek,AZ,85142
443,3145 S ALMA SCHOOL ROAD,Chandler,AZ,85248
444,1159 W. CHANDLER BLVD.,Chandler,AZ,85224
445,"16515 South 40th Street, Suite 119",Phoenix,AZ,85048
446,1060 East Ray Road,Chandler,AZ,85225
447,4316 S. SIGNAL BUTTE RD.,MESA,AZ,85212
448,4005 East Chandler Blvd.,Phoenix,AZ,85048
449,4060 W. RAY RD,Chandler,AZ,85226
450,1334 East Chandler Boulevard,Phoenix,AZ,85048
451,90 South Val Vista Drive,Gilbert,AZ,85296
452,"2450 East Guadalupe Road, Suite 103",Gilbert,AZ,85234
453,1515 E. Elliot Road,Tempe,AZ,85284
454,1225 West Guadalupe,Mesa,AZ,85202
455,4747 East Elliot Road,Phoenix,AZ,85044
456,5137 East Baseline Road,Gilbert,AZ,85234
457,4001 E BASELINE RD. SUITE 104,GILBERT,AZ,85234
458,2451 East Baseline Road,Gilbert,AZ,85234
459,3622 E. Southern Avenue,Mesa,AZ,85206
460,1111 South Stapley Street,Mesa,AZ,85204
461,5151 E. Broadway Suite 105,Mesa,AZ,85206
462,926 East Broadway,Tempe,AZ,85282
463,1960 WEST MAIN STREET,Mesa,AZ,85201
464,6202 S. 16TH STREET,Phoenix,AZ,85042
465,455 N. Mesa Drive Ste. 6,Mesa,AZ,85201
466,"6328 East Brown Road, Suite 106",Mesa,AZ,85205
467,5035 W. Baseline Road,Phoenix,AZ,85339
468,1855 N. Power Road,Mesa,AZ,85207
469,1501 E Washington St,Phoenix,AZ,85034
470,"7565 East Eagle Crest Drive, Suite 201-B",Mesa,AZ,85207
471,9890 S. Estrella Parkway,Goodyear,AZ,85338
472,4909 East McDowell Road,Phoenix,AZ,85008
473,7281 E. Earll Drive,Scottsdale,AZ,85251
474,"1300 North 12th Street, Suite 608",Phoenix,AZ,85006
475,"5656 East Orange Blossom Lane, Suite 5",Phoenix,AZ,85018
476,340 E. MCDOWELL ROAD,Phoenix,AZ,85004
477,2125 N HIGHWAY 70,Thatcher,AZ,85552
478,7920 E. Chaparral,Scottsdale,AZ,85250
479,520 WEST OSBORN ROAD,Phoenix,AZ,85013
480,4122 N 17TH ST,PHOENIX,AZ,85016
481,3864 N. 27th Ave,Phoenix,AZ,85017
482,3132 E CAMELBACK RD,Phoenix,AZ,85016
483,651 W. Coolidge,Phoenix,AZ,85013
484,6965 N HAYDEN ROAD,Scottsdale,AZ,85250
485,4136 N. 75th Ave.Ste. 116,Phoenix,AZ,85033
486,440 North Estrella Parkway,Goodyear,AZ,85338
487,14441 W. McDowell Rd. B-102,Goodyear,AZ,85395
488,5104 N. 67th Ave.,Glendale,AZ,85301
489,810 E. GLENDALE AVENUE,Phoenix,AZ,85020
490,4811 N 83RD AVE,Phoenix,AZ,85033
491,"9188 East San Salvador Drive, Suite 201",Scottsdale,AZ,85258
492,14175 W Indian School Rd,Goodyear,AZ,85395
493,10446 North 74th Street Suite 150,Scottsdale,AZ,85258
494,"11390 East Via Linda, Suite 103",Scottsdale,AZ,85259
495,13733 North Fountain Hills Blvd,Fountain Hills,AZ,85268
496,14362 N. Frank Lloyd Wright Blvd.,Scottsdale,AZ,85260
497,6153 West Olive Avenue,Glendale,AZ,85302
498,14696 N. Frank Lloyd Wright Bv,Scottsdale,AZ,85260
499,6501 E Greenway Parkway Bldg 4,Scottsdale,AZ,85254
500,1539 E. Eugie Avenue,Phoenix,AZ,85022
501,10641 W. OLIVE AVENUE,Peoria,AZ,85345
502,4747 East Greenway Road,Phoenix,AZ,85254
503,"15255 North 40th Street, Building 5, Suite 135",Phoenix,AZ,85032
504,16433 N. 68th Place,Scottsdale,AZ,85254
505,5040 WEST CACTUS RD,Glendale,AZ,85324
506,8541 E Anderson Dr Ste 105,Scottsdale,AZ,85255
507,20 E. WHITE MOUNTAIN RD.,Lakeside,AZ,85929
508,1570 W Picacho Ave Suite 2,Las Cruces,NM,88005
509,999 W. Amador Ave,Las Cruces,NM,88005
510,"205 West Boutz, Building 8, Suite 1",Las Cruces,NM,88005
511,250 S MAIN ST,LAS CRUCES,NM,88001
512,1285 S. EL PASEO RD,Las Cruces,NM,88001
513,900 W. DEUCE OF CLUBS,Showlow,AZ,85901
514,1161 MALL DR STE C,LAS CRUCES,NM,88011
515,1401 S DON ROSER DR STE F1,LAS CRUCES,NM,88011
516,2801 Missouri Ave Suite 9,Las Cruces,NM,88011
517,"9557 North Beach Street, Suite 121",Fort Worth,TX,76244
518,1000 Keller Parkway,Keller,TX,76248
519,4000 Glade Rd,Colleyville,TX,76034
520,"4016 Gateway Drive, Suite 120",Colleyville,TX,76034
521,4000 William D Tate Ave,Grapevine,TX,76051
522,100 W. Southlake Blvd Ste 200,Southlake,TX,76092
523,101 Trophy Lake Drive,Trophy Club,TX,76262
524,302 South Park Blvd.,Grapevine,TX,76051
525,4010 North Macarthur Blvd. Suite 100,Irving,TX,75038
526,4301 Cross Timbers Road,Flower Mound,TX,75022
527,106 N. Denton-tap Road,Coppell,TX,75019
528,1075 W Fm 3040,Lewisville,TX,75067
529,745 Cross Timbers,Flower Mound,TX,75028
530,2301 Justin Rd.,Flower Mound,TX,75028
531,1850 Lakepointe Drive 400,Lewisville,TX,75057
532,3757 Forest Ln.,Dallas,TX,75234
533,14280 Marsh Lane,Addison,TX,75001
534,2150 N Josey Lane,Carrollton,TX,75006
535,"2601 Scripture Street, Suite 102",Denton,TX,76201
536,11920 Preston Rd.,Dallas,TX,75230
537,10455 North Central Expwy.,Dallas,TX,75231
538,2321 West University Drive,Denton,TX,76201
539,4112 N Josey Ln,Carrollton,TX,75007
540,"8604 Greenville Avenue, Suite 201",Dallas,TX,75243
541,14999 Preston Rd.,Dallas,TX,75240
542,8698 Skillman St.,Dallas,TX,75243
543,819 W Arapaho Rd,Richardson,TX,75080
544,2165 E Buckingham Dr,Richardson,TX,75081
545,1380 W.campbell Rd.,Richardson,TX,75080
546,18212 Preston,Dallas,TX,75252
547,"375 Municipal Drive, Suite 240",Richardson,TX,75080
548,2645 Arapaho,Garland,TX,75044
549,2535 Firewheel Parkway,Garland,TX,75040
550,3411 Custer Pkwy,Richardson,TX,75080
551,5968 West Parker,Plano,TX,75093
552,8805 Lakeview,Rowlett,TX,75089
553,6839 Communications Parkway,Plano,TX,75024
554,3100 Independence Pkwy.,Plano,TX,75075
555,3945 Legacy Dr.,Plano,TX,75023
556,5550 FM 423,Frisco,TX,75036
557,4268 Legacy Drive,Frisco,TX,75034
558,921 Westgate Way,Wylie,TX,75098
559,7801 Alma Dr.,Plano,TX,75025
560,4848 Preston Rd,Frisco,TX,75034
561,3070 N Goliad,Rockwall,TX,75087
562,4280 Main St 300,Frisco,TX,75033
563,900 W. Mcdermott Drive,Allen,TX,75013
564,11330 Legacy Drive,Frisco,TX,75033
565,3001 Hardin Rd,McKinney,TX,75070
566,4801 Medical Center Drive,Mckinney,TX,75069
567,6800 W. Virginia Parkway,McKinney,TX,75069
568,3080 Sam Rayburn Highway,Melissa,TX,75454
569,206 North Grand Ave.,Gainesville,TX,76240
570,100 East Taylor Street,Sherman,TX,75090
571,"600 East Taylor Street, Suite 4001",Sherman,TX,75090
572,2895 Lewis Lane,Paris,TX,75460
573,790 Roberts Dr,Monticello,AR,71657
574,915 22nd Ave,Tuscaloosa,AL,35401
575,"109 Foothills Parkway, Suite 113",Chelsea,AL,35043
576,300 CENTURY PARK S STE 100,BIRMINGHAM,AL,35226
577,1310 ALFORD AVE STE 201,HOOVER,AL,35226
578,1830 Montclair rd,Birmingham,AL,35213
579,1990 W Lukken Industrial Drive Suite C,LAGRANGE,GA,30240
580,67 North Lee Street,Forsyth,GA,31029
581,16 Eastbrook Bend,Peachtree City,GA,30269
582,100 Governors Trace Suite 110,Peachtree City,GA,30269
583,1600 Milstead RD NE,Conyers,GA,30114
584,398 Highway 11,Monroe,GA,30655
585,461 Spruce Street,Walterboro,SC,29488
586,1000 Clyburn Place,Aiken,SC,29801
587,1616 ASHLEY RIVER RD,CHARLESTON,SC,29407
588,5 CHARLESTON CENTER DR,CHARLESTON,SC,29401
589,1124 Sam Rittenberg Blvd,Charleston,SC,29407
590,"2301 Cosgrove Avenue, Suite F",North Charleston,SC,29405
591,1470 Ben Sawyer Boulevard,Mount Pleasant,SC,29464
592,1435 Stuart Engels Blvd Suite 101,Mount Pleasant,SC,29464
593,775 Saint James Avenue,Goose Creek,SC,29445
594,306 Airport Drive,Moncks Corner,SC,29461
595,910 Cook Road,Orangeburg,SC,29118
596,750 NORTH IMPERIAL AVENUE,El Centro,CA,92243
597,475 WEST MAIN STREET,Brawley,CA,92227
598,17049 West Bell Road,Surprise,AZ,85374
599,1999 W WICKENBURG WAY,Wickenburg,AZ,85390
600,13828 W Waddell Rd,Surprise,AZ,85379
601,13503 Camino Del Sol,Sun City West,AZ,85375
602,10926 West Bell Road,Sun City,AZ,85373
603,8950 W. BELL ROAD,Peoria,AZ,85382
604,2845 N. Vistancia Blvd.,Peoria,AZ,85383
605,6677 W. Thunderbird Rd. Ste. I-164,Glendale,AZ,85306
606,"18301 North 79th Avenue, Suite G-190",Glendale,AZ,85308
607,7747 W. Deer Valley Rd. Suite 250,Peoria,AZ,85382
608,20205 North 67th Ave.,Glendale,AZ,85308
609,3800 WEST 44TH AVENUE,Glendale,AZ,85310
610,1650 MCCULLOCH BLVD.,Lake Havasu,AZ,86403
611,19401 N. Cave Creek Rd Ste. 18,Phoenix,AZ,85024
612,"16620 North 40th Street, Suite I5",Phoenix,AZ,85032
613,29834 N. Cave Creek Road,Cave Creek,AZ,85331
614,7320 E. Deer Valley Rd Ste. 100,Scottsdale,AZ,85255
615,"7320 E Deer Valley Road, Ste 100",Scottsdale,AZ,85255
616,23565 North Scottsdale Road,Scottsdale,AZ,85255
617,20901 N. Pima Road,Scottsdale,AZ,85255
618,32551 N. Scottsdale Road,Scottsdale,AZ,85266
619,401 EAST HIGHWAY260,Payson,AZ,85541
620,2910 Juan Tabo Blvd NE,Albuquerque,NM,87112
621,1110 Pennsylvania Suite B,Albuquerque,NM,87107
622,3900 Eubank Blvd NE Suite 18,Albuquerque,NM,87110
623,"9201 Montgomery Boulevard, Suite 5",Albuquerque,NM,87111
624,4201 Central Ave NW,Albuquerque,NM,87105
625,4100 Barbara Loop SE,Rio Rancho,NM,87124
626,4101 Barbara Loop SE Suite B,Rio Rancho,NM,87124
627,1101 Golf Course Rd SE Suite 201,Rio Rancho,NM,87124
628,117 Camino De Vida Suite 300,Santa Rosa,NM,88435
629,2145 Caja Del Oro Grant Rd,Santa Fe,NM,87507
630,1035 Alto Street,Santa Fe,NM,87501
631,1900 Hot Springs Blvd,Las Vegas,NM,87701
632,200 West Crawford Street,Denison,TX,75020
633,1615 MLK Boulevard,Malvern,AR,72104
634,125 Don's Way,HOT SPRINGS,AR,71913
635,801 Newman Drive,Helena,AR,72342
636,499 Gloster Creek Village Suite D-1,Tupelo,MS,38801
637,297 County Road 244,Etta,MS,38627
638,1810 3rd Ave South,Jasper,AL,35501
639,1189 Albritton Rd,Warrior,AL,35180
640,1 INDEPENDENT DR,RAINBOW CITY,AL,35906
641,5730 US HWY 431,Albertville,AL,35950
642,1600 Main St East,Hartselle,AL,35640
643,8954 Hospital Dr,DOUGLASVILLE,GA,30134
644,"920 Dannon View, Suite 3103",Atlanta,GA,30331
645,"4760 Austell Road, Suite 1 & 3",Austell,GA,30106
646,5390 Floyd Road,Mableton,GA,30126
647,"2615 East-West Connector, Suite 106",Austell,GA,30106
648,13280 County Rd 51,Collinsville,AL,35961
649,3875 Austell Road,Austell,GA,30106
650,"3634 Highlands Parkway, SE",Smyrna,GA,30082
651,"3020 Highlands Pkwy, Suite G",Smyrna,GA,30082
652,3995 S COBB DR SE,SMYRNA,GA,30080
653,3880 Due West Road,Marietta,GA,30064
654,"139 Renaissance Parkway, NE",Atlanta,GA,30308
655,1314 Concord Rd SE,Smyrna,GA,30080
656,3109 E Shadowlawn Ave NE,Atlanta,GA,30305
657,1480 Roswell Road,Marietta,GA,30062
658,"12 Executive Park Drive NW, Suite 220",Atlanta,GA,30329
659,465 WINN WAY STE 221,DECATUR,GA,30030
660,2724 Clairmont Road,Atlanta,GA,30329
661,"4255 Wade Green Road, NW",Kennesaw,GA,30144
662,6065 LAKE FOREST DRIVE SUITE 170,SANDY SPRINGS,GA,30328
663,1000 Johnson Ferry Rd Ste B-245,Marietta,GA,30068
664,2815 CLEARVIEW PLACE,ATLANTA,GA,30340
665,1742 Mt. Vernon Rd. Suite 100,Dunwoody,GA,30338
666,"4343 Shallowford Road, Suite B7B",Marietta,GA,30062
667,8612 Main Street,Woodstock,GA,30188
668,114 Sloan Street,Roswell,GA,30075
669,5750 Brook Hollow Parkway Suite 202-203,Norcross,GA,30071
670,3020 Holcomb Bridge Rd. Suite C,Norcross,GA,30071
671,"760 Old Roswell Rd., Ste 211",ROSWELL,GA,30076
672,3422 Sixes Road,Canton,GA,30114
673,311 GWINNETT DR,LAWRENCEVILLE,GA,30046
674,"1250 Upper Hembree Road, Suite B",Roswell,GA,30076
675,1090 CAMBRIDGE SQ,ALPHARETTA,GA,30009
676,2450 Atlanta Hwy Suite 803,Cumming,GA,30040
677,2205 Riverstone Blvd.,Canton,GA,30114
678,206 E BROAD ST,WINDER,GA,30680
679,"7316 Spout Springs Road, Suite 202",Flowery Branch,GA,30542
680,101 East Clayton Street,Athens,GA,30601
681,3626 Old Oakwood Road,Oakwood,GA,30566
682,8002 HWY 53,Dawsonville,GA,30534
683,247 Columbia Ave,Lexington,SC,29072
684,2989 Sunset Blvd,West Columbia,SC,29169
685,"1911 Gadsden Street, Suite 101",Columbia,SC,29201
686,"1620 Lady Street, Suite E",Columbia,SC,29201
687,74 POLO RD,COLUMBIA,SC,29223
688,1278 North Lafayette Drive,Sumter,SC,29150
689,9699 Ocean Highway,Pawleys Island,SC,29585
690,1501 5TH AVE STE 100,SAN DIEGO,CA,92101
691,1501 5th Avenue Suite 100,San Diego,CA,92101
692,158 C Avenue,Coronado,CA,92118
693,549 Orange Ave,Coronado,CA,92118
694,515 WEST WASHINGTON ST.,San Diego,CA,92103
695,4145 30TH STREET,San Diego,CA,92104
696,"2495 Truxton Road, Suite 100",San Diego,CA,92106
697,2810 Camino del Rio South Ste 106,San Diego,CA,92108
698,3645 MIDWAY DRIVE,San Diego,CA,92110
699,3610 ADAMS AVENUE,San Diego,CA,92116
700,4157 Fairmount Avenue,San Diego,CA,92105
701,10016 SCRIPPS RANCH BOULEVARD,San Diego,CA,92131
702,610 Euclid Avenue,National City,CA,91950
703,Mobile Unit,Chula Vista,CA,91910
704,6155 EL CAJON BOULEVARD,San Diego,CA,92115
705,3550 MURPHY CANYON ROAD,San Diego,CA,92123
706,8011 UNIVERSITY AVE,La Mesa,CA,91941
707,5555 GROSSMONT CENTER DR,LA MESA,CA,91942
708,7788 REGENTS ROAD,San Diego,CA,92122
709,7544 GIRARD AVENUE,La Jolla,CA,92037
710,620 DENNERY ROAD,San Diego,CA,92154
711,2250 OTAY LAKES ROAD,Chula Vista,CA,91915
712,"5935 Cornerstone Court West., Suite 125",San Diego,CA,92121
713,1201 AVOCADO AVENUE,El Cajon,CA,92020
714,9643 MISSION GORGE ROAD,Santee,CA,92071
715,1745 Eastlake Pkwy,Chula Vista,CA,91915
716,4627 CARMEL MOUNTAIN ROAD,San Diego,CA,92130
717,10675 Scrpps Poway Parkway,San Diego,CA,92131
718,3850 VALLEY CENTRE DRIVE,San Diego,CA,92130
719,13255 BLACK MOUNTAIN ROAD,San Diego,CA,92129
720,14099 Sky Mountain Trail,Poway,CA,92064
721,931 Lomas Santa Fe Dr,Solana Beach,CA,92075
722,11986 Bernardo Plaza Dr,San Diego,CA,92128
723,351 SANTA FE DRIVE SUITE 101,ENCINITAS,CA,92024
724,262 N. El Camino Real,Encinitas,CA,92024
725,3439 Via Montebello,Carlsbad,CA,92009
726,351 W. Felicita Ave,Escondido,CA,92025
727,6951 El Camino Real,Carlsbad,CA,92009
728,160 Noth Date Street,Escondido,CA,92025
729,1929 W SAN MARCOS BLVD,SAN MARCOS,CA,92078
730,125 West Mission Avenue,Escondido,CA,92026
731,727 San Marcos Blvd Ste 113,San Marcos,CA,92078
732,150 Valpreda Rd,San Marcos,CA,92029
733,2345 EAST VALLEY PARKWAY,Escondido,CA,92027
734,1000 W. El Norte Parkway,Escondido,CA,92026
735,2892 Jefferson Street,Carlsbad,CA,92008
736,3450 MARRON RD,Oceanside,CA,92056
737,550 West Vista Way,Vista,CA,92083
738,315 N. Clementine Street,Oceanside,CA,92054
739,845 COLLEGE BOULEVARD,Oceanside,CA,92057
740,3875 Peony Dr,Fallbrook,CA,92028
741,31960 TEMECULA PKWY,Temecula,CA,92592
742,29530 RANCHO CALIFORNIA ROAD,Temecula,CA,92591
743,"29645 Rancho California Road, Suite 109",Temecula,CA,92591
744,"27699 Jefferson Ave, Suite 101",Temecula,CA,92590
745,38995 Sky Canyon Drive,Murietta,CA,92563
746,41000 CALIFORNIA OAKS RD,Murrieta,CA,92562
747,33601 DEL OBISPO,Dana Point,CA,92629
748,32401 Camino Capistrano,San Juan Capistrano,CA,92675
749,32301 CAMINO CAPISTRANO,SAN JUAN CAPISTRANO,CA,92675
750,31473 RANCHO VIEJO RD. Suite 103,SAN JUAN CAPISTRANO,CA,92675
751,26022 MARGUERITE PARKWAY,Mission Viejo,CA,92692
752,27320 ALICIA PKWY,Laguna Nigel,CA,92656
753,"29798 Haun Road, Suite 207",Menifee,CA,92584
754,"312 Broadway Street, Suite 202",Laguna Beach,CA,92651
755,25226 Cabot Road,Laguna Hills,CA,92653
756,600 NORTH COAST HWY,Laguna Beach,CA,92651
757,30901 RIVERSIDE DR,Lake Elsinore,CA,92530
758,22451 Antonio Parkway,Rancho S Margarita,CA,92688
759,27220 Sun City Blvd,Sun City,CA,92586
760,"24902 Moulton Parkway, Suite 200",Laguna Woods,CA,92637
761,"28400 McCall Boulevard, Suite B110",Sun Ciy,CA,92586
762,21181 NEWPORT COAST DRIVE,Newport Coast,CA,92657
763,11800 De Palma Rd,Corona,CA,92883
764,4541 CAMPUS DR,Irvine,CA,92612
765,3991 MacArthur Blvd STE 200,Newport Beach,CA,92660
766,"1419 Superior Avenue, Suite 1",Newport Beach,CA,92663
767,"1601 Dove Street, Suite170",Newport Beach,CA,92660
768,1525 SUPERIOR AVE STE 214,NEWPORT BEACH,CA,92663
769,"19200 Von Karman, Suite 600",Irvine,CA,92612
770,3650 SOUTH BRISTOL STREET,Santa Ana,CA,92704
771,1545 Nutmeg Place,Costa Mesa,CA,92660
772,13270 NEWPORT AVE,Tustin,CA,92780
773,1224 E. McFadden ave,Santa Ana,CA,92705
774,"19126 Magnolia Street, Suite 101",Huntington Beach,CA,92646
775,369 Magnolia Avenue,Corona,CA,92879
776,"18672 Florida Street, Suite 100",Huntington Beach,CA,92648
777,4733 E. Palm Canyon Drive,Palm Springs,CA,92264
778,1010 W. LaVeta Suite 130,Orange,CA,92868
779,"1307 West 6th Street, Suite 105",Corona,CA,92882
780,16450 BEACH BLVD,Westminster,CA,92683
781,851 East 6th Suite B-4,Beaumont,CA,92223
782,40101 MONTEREY AVE,Rancho Mirage,CA,92270
783,78271 Highway 111,La Quinta,CA,92253
784,1940 W Orangewood Ave Suite 205,Orange,CA,92868
785,1100 N Palm CYN 109,Palm Springs,CA,92262
786,2095 N INDIAN CANYON DR,PALM SPRINGS,CA,92262
787,"5700 Division Street, Suite 200-A",Riverside,CA,92506
788,1751 N SUNRISE WAY 1,Palm Springs,CA,92262
789,6896 Magnolia Avenue,Riverside,CA,92506
790,2684 N. Tustin St,Orange,CA,92865
791,8010 EAST SANTA ANA CANYON RD,Anaheim Hills,CA,92808
792,3520 Riverside Plaza,Riverside,CA,92506
793,8856 ARLINGTON AVE,RIVERSIDE,CA,92503
794,5887 Brockton Avenue,Riverside,CA,92506
795,20445 YORBA LINDA BLVD,Yorba Linda,CA,92886
796,2743 Orange Street,Riverside,CA,92501
797,6170 Hamner Avenue,Eastvale,CA,91752
798,33644 Yucaipa Blvd,Yucaipa,CA,92399
799,"5199 East Pacific Coast Highway, Suite 330N",Long Beach,CA,90804
800,522 N. Orange St,Redlands,CA,92374
801,14200 Palm Drive,Desert Hot Sprg,CA,92240
802,5949 E. Spring St,Long Beach,CA,90808
803,600 E. Broadway,Long Beach,CA,90802
804,4226 Woodruff Avenue,Lakewood,CA,90713
805,5500 WOODRUFF AVE,Lakewood,CA,90713
806,1221 Gaffey St,San Pedro,CA,90732
807,15740 Laforge Street,Whittier,CA,90603
808,3650 South Street,Lakewood,CA,90712
809,4550 Atlantic Ave,Long Beach,CA,90807
810,9220 Haven Ave STE. 230,Rancho Cucamunga,CA,91730
811,5153 Holt Blvd,Montclair,CA,91763
812,350 North Lemon Ave,Walnut,CA,91789
813,7390 Cherry Avenue,Fontana,CA,92336
814,"820 N Mountain Ave, Suite 215",Upland,CA,91786
815,81 West Foothill Blvd,Upland,CA,91786
816,10210 Orr and Day Road,Santa Fe Springs,CA,90670
817,24325 Crenshaw Blvd,Torrance,CA,90503
818,1490 N Claremont Blvd Suite 203,Claremont,CA,91711
819,7 Peninsula Center,Rolling Hills,CA,90274
820,550 E. Baseline Rd,Claremont,CA,91711
821,1600 Foothill Blvd,La Verne,CA,91750
822,1042 E. Belmont Abbey Ln,Claremont,CA,91711
823,510 S.SECOND AVENUE SUITE 7,COVINA,CA,91723
824,508 S. 2ND AVENUE 6,COVINA,CA,91723
825,Mobile Unit,Palos Verdes,CA,90274
826,1260 W Redondo Beach Blvd.,Gardena,CA,90247
827,17727 E CYPRESS ST,COVINA,CA,91722
828,234 S PCH 202,Redondo Beach,CA,90277
829,3430 COGSWELL RD,EL MONTE,CA,91732
830,26166 Circle Dr.,Lake Arrowhead,CA,92352
831,"7281 Dumosa Avenue, Suite 2",Yucca Valley,CA,92284
832,3131 SANTA ANITA AVENUE SUITE 112B,EL MONTE,CA,91733
833,435 W Foothill Blvd,Glendora,CA,91740
834,57590 29 Palms Hys,Yucca Valley,CA,92284
835,4001 Inglewood Avenue,Redondo Beach,CA,90278
836,1230 Rosecrans Ave,Manhattan Beach,CA,90266
837,453 S. Indiana Street,Los Angeles,CA,90063
838,500 E. Manchester Blvd,Inglewood,CA,90301
839,745 W. Naomi Ave,Arcadia,CA,91006
840,130 W. Foothill Blvd,Monrovia,CA,91016
841,23701 E. FORK ROAD,AZUSA,CA,91702
842,1213 Fair Oaks Avenue,South Pasadena,CA,91030
843,2355 E. Colorado Blvd.,Pasadena,CA,91107
844,360 SOUTH WESTLAKE AVENUE,LOS ANGELES,CA,90057
845,1719 E WALNUT STREET,PASADENA,CA,91106
846,11030 West Jefferson Blvd,Culver City,CA,90230
847,155 WEST CALIFORNIA BLVD,Pasadena,CA,91105
848,3461 WEST THIRD STREET,Los Angeles,CA,90005
849,155 S. BIMINI PLACE,LOS ANGELES,CA,90004
850,347 S Normandie Avenue,Los Angeles,CA,90020
851,7311 N Figueroa St,Los Angeles,CA,90041
852,4445 BURNS AVENUE,LOS ANGELES,CA,90029
853,830 N MARIPOSA AVENUE,LOS ANGELES,CA,90029
854,1377 NORTH FAIR OAKS AVENUE,PASADENA,CA,91103
855,727 N. Vine Street,Los Angeles,CA,90038
856,8750 W Pico Blvd,Los Angeles,CA,90035
857,311 Los Feliz Rd,Glendale,CA,91204
858,8484 WILSHIRE BLVD STE 200,BEVERLY HILLS,CA,90211
859,3101 OCEAN PARK BLVD SUITE 309,SANTA MONICA BLVD,CA,90405
860,"8631 West 3rd Street, Suite 920E",Los Angeles,CA,90048
861,9171 WILSHIRE BLVD SUITE B,BEVERLY HILLS,CA,90210
862,"10700 Santa Monica Boulevard, Suite 310",Los Angeles,CA,90025
863,8969 SANTA MONICA BLVD,West Hollywood,CA,90069
864,1920 Colorado Avenue,Santa Monica,CA,90404
865,710 Broadway,Santa Monica,CA,90401
866,2001 Santa Monica Blvd Suite 1265W,Santa Monica,CA,90404
867,"1301 20th Street, Suite 540",Santa Monica,CA,90404
868,2730 Wilshire Blvd. Suite 350,Santa Monica,CA,90403
869,2121 Wilshire Blvd,Santa Monica,CA,90403
870,"10921 Wilshire Boulevard, Suite 412",Los Angeles,CA,90024
871,1110 Alameda Avenue,Burbank,CA,91506
872,"2211 West Magnolia Boulevard, Suite 230",Burbank,CA,91506
873,12199 Hesperia Rd,Victorville,CA,92395
874,"17383 W Sunset Blvd, Suite B280",Pacific Palisades,CA,90272
875,"12402 Industrial Boulevard, Suite B-6",Victorville,CA,92395
876,3233 Foothill Blvd,La Crescenta,CA,91214
877,12660 Riverside Dr. Suite 110,Valley Village,CA,91607
878,4312 WOODMAN AVE STE 101,SHERMAN OAKS,CA,91423
879,14390 Civic Dr.,Victorville,CA,92392
880,14390 Civic Dr,Hesperia,CA,92345
881,"15250 Ventura Boulevard, Suite 1100",Sherman Oaks,CA,91403
882,7789 Foothill Blvd,Tujunga,CA,91042
883,14407 HAMLIN STREET UNIT A,VAN NUYS,CA,91401
884,23661 PACIFIC COAST HWY,MALIBU,CA,90265
885,5195 Lindsey Avenue,Tarzana,CA,91356
886,18663 VENTURA BLVD SUITE 300,TARZANA,CA,91356
887,18646 Oxnard Street,Tarzana,CA,91356
888,22900 Ventura Blvd. Suite 340,Woodland Hills,CA,91364
889,20905 SHERMAN WAY,CANOGA PARK,CA,91303
890,6918 Owensmouth Avenue,Canoga Park,CA,91303
891,16830 San Fernando Mission Bvd,Granada Hills,CA,91344
892,"29525 Canwood Street, Suite 306",Agoura Hills,CA,91301
893,"5655 Lindero Canyon Road, Suite 202",Westlake Village,CA,91362
894,2945 Townsgate Road Suite 200,Thousand Oaks,CA,91361
895,1135 Lindero Canyon Rd,Thousand Oaks,CA,91362
896,16550 W. Soledad Canyon Rd,Santa Clarita,CA,91387
897,24160 Lyons Ave,Newhall,CA,91321
898,2938 Tapo Canyon Road,Simi Valley,CA,93063
899,25850 N. The Old Road,Valencia,CA,91355
900,166 N Moorpark Rd,Thousand Oaks,CA,91360
901,2048 E Avenida De Los Arboles,Thousand Oaks,CA,91360
902,1790 North Moorpark Road,Thousand Oaks,CA,91360
903,1855 E. Cochran St,Simi Valley,CA,93065
904,3027 Rancho Vista Blvd,Palmdale,CA,93551
905,893 PATRIOT DRIVE SUITE A,MOORPARK,CA,93021
906,35 Los Angeles Ave,MOORPARK,CA,93021
907,4033 West Avenue L,Lancaster,CA,93536
908,1652 West Avenue J,Lancaster,CA,93534
909,4823 SOUTH HIGHWAY 95,Ft Mohave,AZ,86426
910,Mobile Unit,Escondido,CA,92027
911,1751 HIGHWAY 95,Bullhead City,AZ,86442
912,3970 STOCKTON HILL ROAD,Kingman,AZ,86409
913,Mobile Unit,Chula Vista,CA,91914
914,450 White Spar Road,Prescott,AZ,86303
915,1044 Willow Creek Road,Prescott,AZ,86301
916,919 12th Pl Ste 13,Prescott,AZ,86305
917,7720 East Highway 69,Prescott Valley,AZ,86314
918,1031 NORTH HIGHWAY 89,Chino Valley,AZ,86323
919,1635 E Cottonwood Street,Cottonwood,AZ,86326
920,2300 West Highway 89a,Sedona,AZ,86336
921,637 W ROUTE 66,Williams,AZ,86046
922,1201 SOUTH PLAZA WAY,Flagstaff,AZ,86001
923,1601 NORTH PARK DRIVE,Winslow,AZ,86047
924,702 WEST HOPI DRIVE,Holbrook,AZ,86025
925,1500 E CEDAR AVENUE,Flagstaff,AZ,86004
926,4910 N HIGHWAY 89,Flagstaff,AZ,86004
927,980 N US HWY 491,Gallup,NM,87301
928,13654 S. Western Ave,Oklahoma City,OK,73170
929,2203 N. Reynolds Road,Bryant,AR,72022
930,11219 Financial Center Parkway,Little Rock,AR,72211
931,3111 S 70TH ST,FORT SMITH,AR,72903
932,3600 Cantrell Road Suite 303,Little Rock,AR,72202
933,"625 N 1st Street, Suite C",Jacksonville,AR,72076
934,2796 S 2nd St Suite E,Cabot,AR,72023
935,490 Broadmoor Dr,Brinkley,AR,72021
936,444 Atkins Road,Marianna,AR,72360
937,111 West Booth Road,Searcy,AR,72143
938,4451 Washington St,Forrest City,AR,72335
939,904 E Race Ave,Searcy,AR,72143
940,565 North Robinson Street,Senatobia,MS,38668
941,623 N 9th Street,Augusta,AR,72006
942,"7075 Golden Oaks Loop W., 13",Southaven,MS,38671
943,905 N 7TH ST,WEST MEMPHIS,AR,72301
944,1200 Peabody,Memphis,TN,38104
945,6630 Summer Knolls Circle Suite 101,Memphis,TN,38314
946,"1950 Madison Avenue, Building 1",Memphis,TN,38104
947,6401 POPLAR AVENUE SUITE 500,MEMPHIS,TN,38119
948,4918 William Arnold Rd,Memphis,TN,38117
949,661 Addison Blvd.,Wynne,AR,72396
950,6326 Stage Road,Memphis,TN,38134
951,702 South Main Street,Middleton,TN,38052
952,3809 Sullivan St STE. 4,Madison,AL,35758
953,1600 BROWNS FERRY RD,MADISON,AL,35758
954,765 Florence Road,Savannah,TN,38372
955,8045 Highway 72 West,Madison,AL,35758
956,2010 SOUTHPOINT PARK CIRCLE,HUNTSVILLE,AL,35801
957,529 West Commerce Street,Lewisburg,TN,37091
958,554 2nd Avenue North,Lewisburg,TN,37091
959,1107 Memorial Dr. Suite 300,DALTON,GA,30720
960,601 CUMBERLAND STREET,CHATTANOOGA,TN,37404
961,420 WEST BELL AVENUE,CHATTANOOGA,TN,37405
962,7429 Shallowford Rd,Chattanooga,TN,37421
963,1420 Fritz St,Cleveland,TN,37323
964,330 Mt Sinai Drive,Dahlonega,GA,30533
965,310 BLACK BEAR RIDGE,SAUTEE,GA,30571
966,940 South Ocoee Street,Cleveland,TN,37311
967,4160 N OCOEE STREET SUITE 8,CLEVELAND,TN,37312
968,6784 Hwy 411,Benton,TN,37307
969,300 FLEETWOOD DR,EASLEY,SC,29640
970,103 Clair Dr. Suite C,Piedmont,SC,29673
971,206 Wall St.,Piedmont,SC,29673
972,114 B HOSPITAL DR,SIMPSONVILLE,SC,29681
973,117 Commons Way,Greenville,SC,29611
974,1400 Cleveland Street,Greenville,SC,29602
975,81 Pointe Circle Ste. A,Greenville,SC,29615
976,52 Parkway Commons Way,Greer,SC,29650
977,460 Langdon Street,Spartanburg,SC,29302
978,1451 East Main Street Suite 2A,Spartanburg,SC,29307
979,101 Catawba Street,Lancaster,SC,29720
980,"2315 ASHEVILLE HWY, SUITE 50",HENDERSONVILLE,NC,28791
981,199 South Herlong Avenue,Rock Hill,SC,29732
982,251 W PALMETTO ST,FLORENCE,SC,29501
983,600 East Palmetto Street,Florence,SC,29506
984,737 S MAIN ST,SOCIETY HILL,SC,29593
985,7940 Williams Pond Lane Suite 250,Charlotte,NC,28277
986,7825 BALLANTYNE COMMONS PKWY STE 110,CHARLOTTE,NC,28277
987,1301 Dove Street,Monroe,NC,28112
988,1643 CAMPUS PARK DR STE C,MONROE,NC,28112
989,1190 W. Roosevelt Blvd,Monroe,NC,28110
990,10348 Park Road,Charlotte,NC,28210
991,12117 Ocean Hwy,Pawleys Island,SC,29585
992,"7615 Colony Road, Suite 115",Charlotte,NC,28226
993,3800 Arco Corporate Dr,Charlotte,NC,28273
994,122 Latimer Street,Latta,SC,29565
995,10801 MONROE RD STE A,MATTHEWS,NC,28105
996,2700 Coltsgate Road Suite 106,Charlotte,NC,28211
997,1700 ABBEY PLACE SUITE 200,CHARLOTTE,NC,28209
998,"330 Billingsley Road, Suite 203",Charlotte,NC,28211
999,"1530 Union Road, Suite A",Gastonia,NC,28054
1000,3101 Latrobe Drive,Charlotte,NC,28211
1001,1723 Armstrong Park Drive,Gastonia,NC,28054
1002,200 Queens Rd Suite 101,Charlotte,NC,28204
1003,2001 VAIL AVE,CHARLOTTE,NC,28207
1004,1111 The Plaza,Charlotte,NC,28205
1005,"543 Cox Road, Suite D2",Gastonia,NC,28054
1006,640 Summit Crossing Place,Gastonia,NC,28054
1007,615 South Dekalb Street,Shelby,NC,28150
1008,830 Summit Crossing Place,Gastonia,NC,28054
1009,1089 X RAY DR,GASTONIA,NC,28054
1010,2404 Wise Rd.,Conway,SC,29526
1011,3471 Belle Terre Blvd. Suite A1,Myrtle Beach,SC,29579
1012,416 McCullough Dr Suite 100,Charlotte,NC,28262
1013,630 Chestnut Road,Myrtle Beach,SC,29572
1014,4748 Main Street,Shallotte,NC,28470
1015,"20 Medical Campus Drive, Suite 203",Supply,NC,28462
1016,3115 Boone Trail,Fayetteville,NC,28306
1017,518 OWEN DRIVE,FAYETTEVILLE,NC,28304
1018,"4315 Physicians Boulevard, Suite 202",Harrisburg,NC,28075
1019,2577 Ravenhill Dr.,Fayetteville,NC,28303
1020,"8300 Health Park, Suite 201 & Suite 133",Raleigh,NC,27615
1021,201 N. Front St. Suite LL102,Wilmington,NC,28401
1022,2201 Delaney Ave,Wilmington,NC,28403
1023,1291 S Victoria Blvd,Oxnard,CA,93030
1024,2433 Harbor Blvd,Ventura,CA,93001
1025,450 South Ventura Road,Oxnard,CA,93030
1026,5688 Telephone Road,Ventura,CA,93003
1027,6040 Telegraph Rd.,Ventura,CA,93003
1028,2101 N. Rose Ave,Oxnard,CA,93036
1029,1046 Coast Village Rd Suite B,Montecito,CA,93108
1030,1601 Carmen Dr 106,Camarillo,CA,93010
1031,Mobile Unit,Malibu,CA,90263
1032,Mobile Unit,Santa Monica,CA,90402
1033,729 NORTH H STREET,Lompoc,CA,93436
1034,520 WEST TEFFT STREET,Nipomo,CA,93444
1035,9000 Ming Avenue,Bakersfield,CA,93311
1036,107 Nelson Street,Arroyo Grande,CA,93420
1037,1758 GRAND AVENUE,Grover Beach,CA,93433
1038,592 S 13th St,Grover Beach,CA,93433
1039,"391 Front Street, Suite F",Grover Beach,CA,93433
1040,"7910 Downing Avenue, Suite 100",Bakersfield,CA,93308
1041,4500 Coffee Rd,Bakersfield,CA,93308
1042,"575 Price Street, Suite 101",Pismo Beach,CA,93449
1043,2145 NILES ST,BAKERSFIELD,CA,93305
1044,125 El Tejon,Bakersfield,CA,93308
1045,1677 Shell Beach Rd Suite 101,shell beach,CA,93449
1046,3900 BROAD STREET,San Luis Obispo,CA,93401
1047,4251 South Higuera Suite 300,San Luis Obispo,CA,93401
1048,2180 Johnson Ave,San Luis Obispo,CA,93401
1049,1223 Higuera Street Suite 101,San Luis Obispo,CA,93401
1050,1050 Las Tablas Rd Suite 16,Templeton,CA,93465
1051,Mobile Unit,Beverly Hills,CA,90035
1052,Mobile Unit,Los Angeles,CA,90067
1053,Mobile Unit,San Bernardino,CA,92354
1054,Mobile Unit,Downtown City West,CA,90017
1055,1008 NEVADA HWY,BOULDER CITY,NV,89005
1056,2910 BICENTENNIAL PARKWAY,Henderson,NV,89044
1057,2511 Anthem Village Drive,Henderson,NV,89052
1058,45 E Horizon Ridge Parkway,Henderson,NV,89002
1059,201 SOUTH STEPHANIE STREET,Henderson,NV,89012
1060,2667 WINDMILL PKWY,HENDERSON,NV,89074
1061,475 E. Windmill Lane,Las Vegas,NV,89123
1062,7975 BLUE DIAMOND RD,Las Vegas,NV,89178
1063,5500 BOULDER HIGHWAY,Las Vegas,NV,89122
1064,5412 BOULDER HIGHWAY,LAS VEGAS,NV,89122
1065,7405 So. Durango Drive,Las Vegas,NV,89113
1066,"4560 SOUTH EASTERN AVENUE, SUITE 14",LAS VEGAS,NV,89119
1067,"1771 E Flamingo Road, Suite 112B",Las Vegas,NV,89119
1068,1155 E. Twain Avenue,Las Vegas,NV,89169
1069,2885 EAST DESERT INN,Las Vegas,NV,89121
1070,"3050 East Desert Inn Road, Suite 116",Las Vegas,NV,89121
1071,4445 S Jones Blvd Suite 3,Las Vegas,NV,89103
1072,5881 E. CHARLESTON BLVD.,Las Vegas,NV,89142
1073,1830 E. Sahara Ave. Suite 201,Las Vegas,NV,89104
1074,4055 SOUTH DURANGO DRIVE,Las Vegas,NV,89147
1075,2995 South Jones Blvd Suite D,Las Vegas,NV,89146
1076,8540 West Desert Inn Road,Las Vegas,NV,89117
1077,"6465 W Sahara, Ste 103",Las Vegas,NV,89146
1078,"1137 SOUTH RANCHO DRIVE, SUITE 110",LAS VEGAS,NV,89102
1079,10250 WEST CHARLESTON BLVD.,Las Vegas,NV,89135
1080,7020 Smoke Ranch Road,Las Vegas,NV,89128
1081,3470 W Cheyenne Ave Suite 400,North Las Vegas,NV,89032
1082,"5252 North Meridian Avenue, Suite 105",Oklahoma City,OK,73112
1083,2301 W. I-35 Frontage Road Suite 170,Edmond,OK,73013
1084,2832 E. 101st. St.,Tulsa,OK,74137
1085,110 N 1st Street,Broken Arrow,OK,74012
1086,6333 E. Skelly Dr. Suite B,Tulsa,OK,74135
1087,2263 Hwy 65N,Marshall,AR,72645
1088,1955 TRUCKERS DRIVE,FAYETTEVILLE,AR,72704
1089,1650 White Drive,Batesville,AR,72501
1090,1507 North Pecan Street,Newport,AR,72112
1091,807 W. Main Suite A & B,Truman,AR,72472
1092,2707 BROWNS LN,JONESBORO,AR,72401
1093,589 E Main Street,Melbourne,AR,72556
1094,102 SW Larkspur Ln,Walnut Ridge,AR,72476
1095,28 SOUTHPOINTE DR,PARAGOULD,AR,72455
1096,209 S. Lockard St,Blytheville,AR,72315
1097,541 West Park Place,Hederson,TN,38340
1098,238 SUMMAR DR,JACKSON,TN,38301
1099,"37 Sandstone Circle, Suite 92",Jackson,TN,38305
1100,9458 HWY 100,Scotts Hill,TN,38374
1101,2103 East Main Street,Humboldt,TN,38343
1102,2718 SQUIRREL HOLLOW DR,LINDEN,TN,37096
1103,1445 Parr Ave,Dyersburg,TN,38024
1104,501 Park Avenue South,Hohenwald,TN,38462
1105,110 Kittrell Street,Hohenwald,TN,38462
1106,118 Kittrell Street,Hohenwald,TN,38462
1107,118 US-70 Unit 2,DICKSON,TN,37055
1108,482 Interstate Drive Suite D,Manchester,TN,37355
1109,1915 COLUMBIA AVE,FRANKLIN,TN,37064
1110,2126 N THOMPSON LN,MURFREESBORO,TN,37129
1111,5080 Florence Road,Murfreesboro,TN,37129
1112,999 Girl Scout Road,Burns,TN,37029
1113,5935 Edmondson Pike,Nashville,TN,37211
1114,602 West Iris Drive,Nashville,TN,37204
1115,4230 Harding Road Suite 707,Nashville,TN,37205
1116,"2323 21st Avenue South, Suite 300",Nashville,TN,37212
1117,2603 Westwood Drive,Nashville,TN,37204
1118,404 DR DB TODD JR BLVD STE 200,NASHVILLE,TN,37203
1119,1005 Dr. D.B. Todd Jr. Boulevard,Nashville,TN,37208
1120,319 South 4th Street,Nashville,TN,37206
1121,220 Athens Way Suite 104,Nashville,TN,37228
1122,275 CUMBERLAND BEND,NASHVILLE,TN,37228
1123,3939 Central Pike,Hermitage,TN,37076
1124,7200 RHEA COUNTY HWY,DAYTON,TN,37321
1125,17619 ST HWY 58 N,DECATUR,TN,37322
1126,580 S CONGRESS PKWY,ATHENS,TN,37303
1127,1805 INGLESIDE AVE,ATHENS,TN,37303
1128,414 East Broad St.,Smithville,TN,37166
1129,"520 Cook Street, Suite 1",Madisonville,TN,37354
1130,42 Dooley Street,Crossville,TN,38555
1131,4325 US Highway 127 N,Crossville,TN,38571
1132,1200 South Willow Avenue,Cookeville,TN,38506
1133,1200 S Willow Ave,Cookeville,TN,38506
1134,319 Broad Street,Baxter,TN,38544
1135,126 Jmz Drive,Gordonsville,TN,38563
1136,1101 NEAL ST STE 101,COOKEVILLE,TN,38501
1137,315 N. Washington Ave Suite 265,Cookeville,TN,38501
1138,220 ASSOCIATES BLVD,ALCOA,TN,37701
1139,2541 E. Broadway,Maryville,TN,37804
1140,401 Devonia St,Harriman,TN,37748
1141,"116 Concord Road, Suite 100",Knoxville,TN,37934
1142,4726 Airport Hwy,Alcoa,TN,37777
1143,"9051 Executive Park Drive, Suite 202",Knoxville,TN,37923
1144,930 ADELL REE PARK LANE,KNOXVILLE,TN,37909
1145,515 ROCK BRIDGE RD,OLIVER SPRINGS,TN,37840
1146,7035 Middlebrook Pike,Knoxville,TN,37909
1147,4206 Chapman Highway,Knoxville,TN,37920
1148,417 HOLLY STREET,KNOXVILLE,TN,37917
1149,"117 Legacy View Way, Suite 117",Knoxville,TN,37918
1150,816 Middle Creek,Sevierville,TN,37862
1151,5908 Washington Pike Ste. 102,Knoxville,TN,37917
1152,"1278 HENDERSONVILLE ROAD, SUITE B",ASHEVILLE,NC,28803
1153,900 Hendersonville Road Suite 203,Asheville,NC,28803
1154,417 Biltmore Avenue,Asheville,NC,28801
1155,"20 Battery Park Avenue, Suite 504",ASHEVILLE,NC,28801
1156,25 ORANGE ST,ASHEVILLE,NC,28801
1157,119 Tunnel Rd. Suite F,ASHEVILLE,NC,28805
1158,119 TUNNEL ROAD,ASHEVILLE,NC,28805
1159,"9 Old Burnsville Hill Road, Suite 7",Asheville,NC,28804
1160,2298 US Hwy 70 Unit A,Swannanoa,NC,28778
1161,2946 Winfield Dunn Parkway Suite 107,Kodak,TN,37764
1162,13 S MAIN ST,MARSHALL,NC,28753
1163,127 W. Meeting Street,Dandridge,TN,37725
1164,2837 WEST ANDREW JOHNSON HIGHWAY,MORRISTOWN,TN,37814
1165,712 Jamestown Rd,Morganton,NC,28655
1166,"329 Sanford Dr. , Suite B",Morganton,NC,28655
1167,304 South Green Street,Morganton,NC,28655
1168,425 7th Ave. SW,Hickory,NC,28602
1169,1073 13th Street SE,Hickory,NC,28602
1170,"16325 North Cross Drive, Suite F",Huntersville,NC,28078
1171,1224 Commerce St. SW,Conover,NC,28613
1172,19485 OLD JETTON RD,CORNELIUS,NC,28031
1173,146 MEDICAL PARK RD STE 106,MOORESVILLE,NC,28117
1174,131 Welton Way,Mooresville,NC,28117
1175,401 HOLSTON DRIVE,GREENEVILLE,TN,37743
1176,"284 Executive Park Drive, Suite 100",Concord,NC,28025
1177,529 West Innes St.,Salisbury,NC,28145
1178,1450 Fern Creek Drive,Statesville,NC,28625
1179,518 Signal Hill Dr. EXT,Statesville,NC,28625
1180,536 Signal Hill Drive Extension,Statesville,NC,28625
1181,31 E Main Ave,Taylorsville,NC,28681
1182,3121 Wrightsville Ave,Wilmington,NC,28403
1183,5013 Wrightsville Avenue,Wilmington,NC,28403
1184,755 Highland Oaks Dr 105,Winston Salem,NC,27103
1185,"1255 Creekshire Way, Suite 270",Winston-Salem,NC,27103
1186,2627 Grimsley St,Greensboro,NC,27403
1187,603 DOLLEY MADISON ST STE 100,GREENSBORO,NC,27401
1188,2000 Regency Parkway Suite 280,Cary,NC,27518
1189,1000 Darrington drive Ste 204,Cary,NC,27513
1190,"510 West Main Street, Suite 100",Clayton,NC,27520
1191,111 Airport Rd,Kinston,NC,28501
1192,"502 McKnight Drive, Suite 100",Knightdale,NC,27545
1193,"3900 Barrett Drive, Suite 100",Raleigh,NC,27609
1194,3610 Bush Street Raleigh,RALEIGH,NC,27609
1195,5509 Creedmore Road,Raleigh,NC,27612
1196,8304 Creedmoor Road,Raleigh,NC,27613
1197,7850 Brier Creek Pkwy Ste 102,Raleigh,NC,27617
1198,"3308 Durham Chapel Hill Blvd., Ste. 131",Durham,NC,27707
1199,2519-C Airport Blvd NW,Wilson,NC,27896
1200,12740 Spruce Tree Way Suite 102,Raleigh,NC,27614
1201,3904 Airport Dr,Wilson,NC,27896
1202,2261 Nash Street NW,Wilson,NC,27896
1203,701 Morreene Road,Durham,NC,27705
1204,4612 Nash St N,Wilson,NC,27896
1205,"2609 North Duke Street, Suite 403",Durham,NC,27704
1206,3106 Arendell Street,Moorehead City,NC,28557
1207,"104 North Main Street, Suite 200",Louisburg,NC,27549
1208,502-A Red Banks Road,Greenville,NC,27858
1209,2602 Courtier Drive,Greenville,NC,27834
1210,109 Jolly St,Louisburg,NC,27549
1211,1379 Cowell Farm Rd,Washington,NC,27889
1212,162 NC HWY 33 East,Princeville,NC,27886
1213,Mobile Unit,Van Nuys,CA,91406
1214,5638 E. Kings Canyon,Fresno,CA,93727
1215,3795 E Shields Ave,Fresno,CA,93726
1216,3100 Fowler Avenue,Clovis,CA,93611
1217,1180 E. Shaw Ave Suite 101,Fresno,CA,93710
1218,6210 N First St,Fresno,CA,93710
1219,1650 Herndon Avenue,Clovis,CA,93611
1220,2121 Herndon Ave,Clovis,CA,93611
1221,"3585 West Beechwood Avenue, Suite 102",Fresno,CA,93711
1222,8949 N. Cedar Ave,Fresno,CA,93720
1223,Mobile Unit,San Bernardino,CA,92407
1224,1940 VILLAGE CENTER CIRCLE,Las Vegas,NV,89134
1225,6730 N HUALAPAI WAY,LAS VEGAS,NV,89149
1226,7151 WEST CRAIG ROAD,Las Vegas,NV,89129
1227,6450 Sky Pointe Drive,Las Vegas,NV,89131
1228,4850 WEST CRAIG ROAD,Las Vegas,NV,89130
1229,Mobile Unit,San Bernardino,CA,92346
1230,3540 E MAIN STREET,Farmington,NM,87401
1231,415 N Main Avenue,Aztec,NM,87410
1232,US Highway 84 County Road 0324 14,Tierra Amarilla,NM,87575
1233,504 NORTH KANSAS AVENUE SUITE B,LIBERAL,KS,67901
1234,2400 S 48TH ST,SPRINGDALE,AR,72762
1235,2200 Southeast J Street,Bentonville,AR,72712
1236,2508 SE. 20th ST.,Bentonville,AR,72712
1237,642 N. Main,Salem,AR,72576
1238,35 Choctaw Center,Cherokee village,AR,72513
1239,1015 Lanton Rd,West Plains,MO,65775
1240,2560 Old County Road,Pocahontas,AR,72455
1241,602 David Street,Corning,AR,72422
1242,935 HIGHWAY V V,KENNETT,MO,63857
1243,501 Highway J North; PO BOX 441,Hayti,MO,63851
1244,4747 Old Dublin Road,Mayfield,KY,42066
1245,318 South 7th Street,Mayfield,KY,42066
1246,1302 Donelson Pkwy.,Dover,TN,37058
1247,717 Cumberland Drive,Clarksville,TN,37040
1248,1820 Haynes St,Clarksville,TN,37043
1249,105 Oak Valley Drive,Nashville,TN,37207
1250,223 Madison st suite 103,Madison,TN,37115
1251,913 Conference Drive Suite 103,Goodlettsville,TN,37072
1252,216 Shivel Dr.,Hendersonville,TN,37075
1253,133 Indian Lake Road,Hendersonville,TN,37075
1254,"174 Saundersville Road, Suite 404",Hendersonville,TN,37075
1255,1404 WINTER DR,LEBANON,TN,37087
1256,179 Hancock Street Suite 301,Gallatin,TN,37066
1257,885 Highway 231 South,Castalian Springs,TN,37031
1258,510 East Main St,Gallatin,TN,37066
1259,105 East Market Street,Portland,TN,37075
1260,101 BRATTON AVE,LAFAYETTE,TN,37083
1261,944 Searcy Way,Bowling Green,KY,42103
1262,606 North Main Street,Tompkinsville,KY,42167
1263,460 Industrial Lane,O'Neida,TN,37841
1264,2435 Jacksboro Pike Suite 350,Lafollette,TN,37766
1265,1990 Louisville Rd Suite 110 & 111,Bowling Green,KY,42101
1266,2975 Maynardville Hwy,Maynardville,TN,37807
1267,550 Sunset Trail,Jellico,TN,37762
1268,5663 Hwy 90,CLEARFIELD,TN,37715
1269,606 N Broad,New Tazewell,TN,37825
1270,951 North Broad Street,Tazwell,TN,37879
1271,209 Irish Cemetery Rd,Tazewell,TN,37879
1272,402 CUMBERLAND AVE,WILLIAMSBURG,KY,40769
1273,169 Westmoreland Street,Harrogate,TN,37752
1274,1814 Cumberland Avenue,Middlesboro,KY,40965
1275,809 N 19th St,Middlesboro,KY,40965
1276,251 South Pine Street,Pineville,KY,40977
1277,1 TRILLIUM WAY,CORBIN,KY,40701
1278,6470 S Hwy 27,Somerset,KY,42501
1279,121 Bishop St,Corbin,KY,40701
1280,205 S Kentucky St,Corbin,KY,40701
1281,101 LENA DR,ROGERSVILLE,TN,37857
1282,114 Bellamy Ave,Surgoinsville,TN,37873
1283,Frontier Health,KINGSPORT,TN,37664
1284,134 COMPREHENSIVE DRIVE,HARLAN,KY,40831
1285,"120 Professional Lane, Suite 101",Harlan,KY,40831
1286,132 Village Center,Harlan,KY,40831
1287,10755 North US Highway 25 East,Gray,KY,40734
1288,26 Midway St,Bristol,TN,37620
1289,14659 N US HWY 25E,Corbin,KY,40701
1290,406 W MAIN ST Suite 100,ABINGDON,VA,24210
1291,216 Gilmer St.,Lebanon,VA,24266
1292,1620 East Main Street,Cumberland,KY,40823
1293,112 Painter St,Galax,VA,24333
1294,110 West Woodhill Drive,Nags Head,NC,27959
1295,516 INNOVATION DR STE 102,CHESAPEAKE,VA,23320
1296,2005 Old Greenbriar Rd Suite 104,Chesapeake,VA,23320
1297,2700 London Boulevard,Portsmouth,VA,23707
1298,850 Tidewater Drive Suite A,Norfolk,VA,23504
1299,"101 North Lynnhaven Road, Suite 100",Virginia Beach,VA,23452
1300,4509 WHITECHAPEL DRIVE,VIRGINIA BEACH,VA,23455
1301,160 Kingsley Lane Suite 101A,Norfolk,VA,23505
1302,104 Midvalley,Carmel,CA,93923
1303,1516 CONSTITUTION BLVD,Salinas,CA,93906
1304,275 W LAUREL DR STE A,SALINAS,CA,93906
1305,591 TRES PINOS RD.,Hollister,CA,95023
1306,1546 North Main,Salinas,CA,93901
1307,815 Canyon Del Rey,Del Rey Oaks,CA,93940
1308,1212 Forest Ave,Pacific Grove,CA,93950
1309,"1150 Main Street, Suite 3",Watsonville,CA,95076
1310,235 Tennant Station,Morgan Hill,CA,95037
1311,840 E Dunne Ave,Morgan Hill,CA,95037
1312,2720 41ST AVE,Soquel,CA,95073
1313,"1509 Seabright Avenue, Suite B-2",Santa Cruz,CA,95062
1314,2203 Mission St,Santa Cruz,CA,95060
1315,5760 Cottle Rd,San Jose,CA,95123
1316,6477 Almaden Road,San Jose,CA,95120
1317,179 Branham Lane,San Jose,CA,95136
1318,3051 Countryside Drive,Turlock,CA,95380
1319,1663 Branham Lane,San Jose,CA,95118
1320,15549 Union Ave,Los Gatos,CA,95032
1321,40044 HIGHWAY 49 STE D,Oakhurst,CA,93644
1322,470 N. Santa Cruz Ave,Los Gatos,CA,95032
1323,2242 Camden Ave,San Jose,CA,95124
1324,1530 Hamilton Ave.,San Jose,CA,95125
1325,950 W. Hamilton Avenue,Campbell,CA,95008
1326,1300 W San Carlos St,San Jose,CA,95126
1327,2425 Enborg Lane,San Jose,CA,95128
1328,5146 Stevens Creek Blvd,San Jose,CA,95129
1329,20620 Homestead Rd,Cupertino,CA,95014
1330,785 E. El Camino Real,Sunnyvale,CA,94087
1331,3970 Rivermark Plaza,Santa Clara,CA,95054
1332,150 E. El Camino Real,Sunnyvale,CA,94087
1333,555 E Calaveras Blvd,Milpitas,CA,95035
1334,2001 MCHENRY AVENUE,Modesto,CA,95350
1335,2501 McHenry Ave Ste F,Modesto,CA,95350
1336,639 So Bernardo Ave,Sunnyvale,CA,94087
1337,160 1ST ST.,Los Altos,CA,94022
1338,46848 Mission Blvd.,Fremont,CA,94539
1339,645 San Antonio Rd,Mountain View,CA,94043
1340,2811 Middlefield Rd,Palo Alto,CA,94306
1341,3902 Washington Blvd,Fremont,CA,94538
1342,525 EL CAMINO REAL,Menlo Park,CA,94025
1343,1801 WEST 11TH STREET,Tracy,CA,95376
1344,850 WOODSIDE ROAD,Redwood City,CA,94061
1345,1187 S MAIN ST,Manteca,CA,95336
1346,4495 FIRST ST,Livermore,CA,94550
1347,1790 Decoto Rd,Union City,CA,94587
1348,1071 EL CAMINO REAL,Redwood City,CA,94063
1349,"617 VETERANS BOULEVARD, SUITE 101",REDWOOD CITY,CA,94063
1350,6790 BERNAL AVE,Pleasanton,CA,94566
1351,Mobile Unit,Sherman Oaks,CA,91403
1352,1190 N. Main Street,Bishop,CA,93514
1353,481 OLD MAMMOTH RD P.O BOX 142,Mammoth Lakes,CA,93546
1354,Mobile Unit,Glendale,CA,91224
1355,Mobile Unit,San Bernardino,CA,92412
1356,640 East 700 South Suite 3,St. George,UT,84770
1357,198 N. 100 E,St. George,UT,84770
1358,25 N 2000 W,Hurricane,UT,84737
1359,P.O.BOX 1346 / 650 ELM STREET,Page,AZ,86040
1360,1580 E. MAIN STREET,Cortez,CO,81321
1361,233 Main street suite B,San Luis,CO,81152
1362,8745 County Road 9 South,Alamosa,CO,81101
1363,1131 Main Street,Alamosa,CO,81101
1364,1301 MAIN STREET,Alamosa,CO,81101
1365,"106 BLANCA AVE, Suite 300",ALAMOSA,CO,81101
1366,1710 1st St,Alamosa,CO,81101
1367,925 2nd Ave,Alamosa,CO,81144
1368,186 N. Hurt Street,Alamosa,CO,81125
1369,457 W MAIN ST,Trinidad,CO,81082
1370,"1223 North Rock Road, Building G",Wichita,KS,67206
1371,2290 N. Tylor Rd. Ste 300,Wichita,KS,67205
1372,1855 North Webb Road,Wichita,KS,67206
1373,4969 N. Tierra Lakes Parkway,Bel Aire,KS,67226
1374,3259 E. Sunshine St. Suite AA,Springfield,MO,65804
1375,2650 W. Kearney Ste. 116,Springfield,MO,65803
1376,1120 S. Springfield Ave,Bolivar,MO,65613
1377,1112 Linden,Cape Girardeau,MO,63703
1378,20 South Sprigg,Cape Girardeau,MO,63703
1379,1155 CEDAR CT,CARBONDALE,IL,62901
1380,2250 Reed Station Pkwy,Carbondale,IL,62901
1381,1313 North Main Street,Beaver Dam,KY,42320
1382,P.O. BOX 22594,Hartford,KY,42347
1383,1401 US HWY 45 N,Eldorado,IL,62930
1384,819 E. 9th St,Owensboro,KY,42301
1385,7238 West Hwy 80,Nancy,KY,42544
1386,102 Winston Way 5,Campbellsville,KY,42718
1387,200 Belmont Dr,Somerset,KY,42501
1388,350 Hospital Way,Somerset,KY,42503
1389,77 Union St,Somerset,KY,42501
1390,321 Ringgold Rd,Somerset,KY,42503
1391,400 Ring Road Suite 155,Elizabethtown,KY,42701
1392,100 Diecks Drive,Elizabethtown,KY,42701
1393,2413 Ring Road Ste 110,Elizabethtown,KY,42701
1394,"803 Meyers Baker Road, Suite 200",London,KY,40741
1395,1364 South Laurel Road,London,KY,40744
1396,60 Bennett Circle,London,KY,40741
1397,MOBILE UNIT,BOSTON,KY,40107
1398,2645 Laurel Rd,London,KY,40741
1399,116 Progress Dr,Mt Vernon,KY,40456
1400,934 Lancaster St,Stanford,KY,40484
1401,21 Crest View Drive,Manchester,KY,40962
1402,1010 Main St,McKee,KY,40447
1403,96 Highway 80,Hyden,KY,41749
1404,89 Farra Dr,Lancaster,KY,40444
1405,305 Estill St,Berea,KY,40403
1406,104 Legacy Dr,Berea,KY,40403
1407,72 Buckhorn Clinic Road,Buckhorn,KY,41721
1408,2750 Battlefield Memorial Hwy,Berea,KY,40403
1409,826 KY Hwy 11 North,Booneville,KY,41314
1410,464 KY Highway 699,Cornettsville,KY,41731
1411,14 Logan Dr.,Jeff,KY,41754
1412,279 E Main St,HAZARD,KY,41701
1413,305 Morton Boulevard,Hazard,KY,41701
1414,101 Town & Country Ln,Hazard,KY,41701
1415,1012 Center Dr,Richmond,KY,40475
1416,"1054 Center Drive, Suite 2",Richmond,KY,40475
1417,401 High Land Park Dr,Richmond,KY,40475
1418,1018 IVAL JAME BVLD SUITE C,RICHMOND,KY,40475
1419,30 Stacey Ln,Irvine,KY,40336
1420,105 Isom Plaza,Jeremiah,KY,41826
1421,226 MEDICAL PLAZA LN,WHITESBURG,KY,41858
1422,756 HWY 2034,Whitesburg,KY,41858
1423,MOBILE UNIT,BARDSTOWN,KY,40004
1424,157 Dorton Jenkins Hwy,Jenkins,KY,41537
1425,70 Holly Hills Rd,Hindman,KY,41822
1426,3470 West Highway 80,Emmalena,KY,41740
1427,8015 Millard Hwy,Pikeville,KY,41501
1428,219 Mountain Parkway,Campton,KY,41301
1429,255 Church Street,Pikeville,KY,41501
1430,400 Venters Ln Suite 400,Pikeville,KY,41501
1431,226 Clay Drive,Pounding Mill,VA,24637
1432,104 South Front Ave,Prestonsburg,KY,41653
1433,290 East Court Street,Prestonsburg,KY,41653
1434,207 West Court Street,Prestonsburg,KY,41653
1435,321C East College Avenue,Stanton,KY,40380
1436,108 12th St,Clay City,KY,40312
1437,98 River St,Clay City,KY,40312
1438,184 E. 2nd Ave,Williamson,WV,25661
1439,104 Logan St,Williamson,WV,25661
1440,859 Alderson Street,Williamson,WV,25661
1441,174 Lmamh Center Road,Stollings,WV,25646
1442,2955 MARKET STREET SUITE B4,CHRISTIANSBURG,VA,24060
1443,4800 Pleasant Hill Drive Suite 101 and 102,Roanoke,VA,24018
1444,125 Knotbreak Road,Salem,VA,24153
1445,2017 South Jefferson Street,Roanoke,VA,24014
1446,5673 Airport Road,Roanoke,VA,24012
1447,1802 Harper Road,Beckley,WV,25801
1448,28 MALLARD COURT,BECKLEY,WV,25801
1449,"2137 Lakeside Drive, Suite 103",Lynchburg,VA,24501
1450,804 INDUSTRIAL PARK RD,LEWISBURG,WV,24901
1451,350 POPLAR DR,PETERSBURG,VA,23805
1452,25 S. Union Street,Petersburg,VA,23803
1453,"5001 West Village Green Drive, Suite 209",Midlothian,VA,23112
1454,"13821 Village Mill Drive, Suite B",Midlothian,VA,23114
1455,"11745 Jefferson Avenue, Suite 10B",Newport News,VA,23606
1456,"909 Hioaks Road, Suite A",Richmond,VA,23225
1457,101 Cowardin Avenue Suite 202,Richmond,VA,23224
1458,"5000 New Point Road, Suite 3201",Williamsburg,VA,23188
1459,5477 MOORETOWN RD,WILLIAMSBURG,VA,23188
1460,501 North 2nd Street,Richmond,VA,23219
1461,"204 North Hamilton Street, Suite B",Richmond,VA,23221
1462,3908 East Nine Mile Road,Henrico,VA,23223
1463,"2301 North Parham Road, Suite 4",Richmond,VA,23229
1464,"3974 Springfield Road, Suite A",Glen Allen,VA,23060
1465,4212 Park Place Court,Glen Allen,VA,23060
1466,10299 WOODMAN RD,GLEN ALLEN,VA,23060
1467,19056 Greenbush Rd,Parksley,VA,23421
1468,1100 El Camino Real,Belmont,CA,94002
1469,1655 EL CAMINO REAL,San Mateo,CA,94402
1470,1450 HOWARD AVE,Burlingame,CA,94010
1471,1838 El Camino Real Suite 100,Burlingame,CA,94010
1472,"1860 El Camino Real, Suite 301",Burlingame,CA,94010
1473,525 EL CAMINO REAL,Millbrae,CA,94030
1474,22280 FOOTHILL BOULEVARD,Hayward,CA,94541
1475,4440 TASSAJARA ROAD,Dublin,CA,94568
1476,7499 DUBLIN BLVD,Dublin,CA,94568
1477,20629 REDWOOD ROAD,Castro Valley,CA,94546
1478,867 Island Drive,Alameda,CA,94502
1479,11050 Bollinger Canyon Road,San Ramon,CA,94582
1480,"100 Park Place, Suite 120B",San Ramon,CA,94583
1481,2505 SAN RAMON VALLEY BLVD,San Ramon,CA,94583
1482,5601 Norris Canyon Road Suite 330,San Ramon,CA,94583
1483,2227 SOUTH SHORE CENTER,Alameda,CA,94501
1484,3496 CAMINO TASSAJARA ROAD,Danville,CA,94506
1485,4950 MISSION ST,San Francisco,CA,94112
1486,2693 Fruitvale Ave,Oakland,CA,94601
1487,2600 5TH ST.,Alameda,CA,94501
1488,730 TARAVAL STREET,San Francisco,CA,94116
1489,2300 16TH STREET,San Francisco,CA,94103
1490,2020 MARKET STREET,San Francisco,CA,94114
1491,1335 WEBSTER STREET,San Francisco,CA,94115
1492,735 7TH AVENUE,San Francisco,CA,94118
1493,3889 SAN PABLO AVE,Emeryville,CA,94608
1494,15 MARINA BLVD,San Francisco,CA,94123
1495,6310 COLLEGE AVE,Oakland,CA,94618
1496,14840 Highway 4,Discovery Bay,CA,94505
1497,3540 MT. DIABLO BLVD.,Lafayette,CA,94549
1498,1444 SHATTUCK PLACE,Berkeley,CA,94709
1499,3110 BALFOUR AVENUE,Brentwood,CA,94513
1500,2800 Ygnacio Valley Road,Walnut Creek,CA,94598
1501,5431 Clayton Rd,Clayton,CA,94517
1502,1978 Contra Costa Blvd,Pleasant Hill,CA,94523
1503,11450 SAN PABLO AVE,El Cerrito,CA,94530
1504,6688 Alhambra,Martinez,CA,94553
1505,4309 CLAYTON ROAD,Concord,CA,94521
1506,707 Contra Costa Blvd.,Pleasant Hill,CA,94523
1507,2600 WILLOW PASS ROAD,Concord,CA,94519
1508,"655 Redwood Highway, Suite 160",Mill Valley,CA,94941
1509,2481 Pacheco St,Concord,CA,94520
1510,3365 DEER VALLEY ROAD,Antioch,CA,94531
1511,800 REDWOOD HWY FRONTAGE RD. STE 110,Mill Valley,CA,94941
1512,1 CAMINO ALTO,Mill Valley,CA,94941
1513,660 Bailey Road,Pittsburg,CA,94565
1514,2808 COUNTRY CLUB BLVD,Stockton,CA,95204
1515,6445 N PACIFIC AVE,Stockton,CA,95207
1516,350 NORTHGATE ONE,San Rafael,CA,94903
1517,122 Robles Way,Vallejo,CA,94591
1518,5720 NAVE DRIVE,Novato,CA,94949
1519,2449 W KETTLEMAN LANE,Lodi,CA,95242
1520,103 AMERICAN CANYON RD,American Canyon,CA,94503
1521,2401 WATERMAN BLVD,Fairfield,CA,94533
1522,389 S. MCDOWELL BLVD,Petaluma,CA,94954
1523,3375 JEFFERSON STREET,Napa,CA,94558
1524,477 WEST NAPA STREET,Sonoma,CA,95476
1525,2090 HARBISON DRIVE,Vacaville,CA,95687
1526,1291 SANGUNETTI RD,Sonora,CA,95370
1527,5021 LAGUNA BLVD,Elk Grove,CA,95758
1528,1235 STRATFORD AVENUE,Dixon,CA,95620
1529,652 Petaluma Ave.,Sebastopol,CA,95472
1530,406 NORTH MAIN STREET,Sebastopol,CA,95472
1531,12110 INDUSTRY BLVD.,Jackson,CA,95642
1532,3680 CROCKER DRIVE STE. 100,Sacramento,CA,95818
1533,1799 MARLOW ROAD,Santa Rosa,CA,95401
1534,2300 MENDOCINO AVENUE,Santa Rosa,CA,95403
1535,1814 19TH STREET,Sacramento,CA,95811
1536,"5025 J Street, Suite 206",Sacramento,CA,95819
1537,805 University Ave,Sacramento,CA,95825
1538,2100 Capitol Ave,Sacramento,CA,95816
1539,1025 ALHAMBRA BLVD,Sacramento,CA,95816
1540,1820 J Street,Sacramento,CA,95811
1541,2221 Fair Oaks Boulevard,Sacramento,CA,95825
1542,3320 ARDEN WAY,Sacramento,CA,95825
1543,10635 FOLSOM BLVD,Rancho Cordova,CA,95670
1544,2851 DEL PASO ROAD,Sacramento,CA,95835
1545,9080 BROOKS RD S,Windsor,CA,95492
1546,16405 HWY 116,Guerneville,CA,95446
1547,1850 PRAIRIE CITY ROAD,Folsom,CA,95630
1548,5450 Dewey Drive,Fair Oaks,CA,95628
1549,8925 Madison Ave,Fair Oaks,CA,95628
1550,3380 COACH LANE,Cameron Park,CA,95682
1551,3104 Ponte Morino Dr,Cameron Park,CA,95682
1552,2207 FRANCISCO DRIVE,El Dorado Hills,CA,95762
1553,8640 Sierra College Blvd,Roseville,CA,95661
1554,3955 MISSOURI FLAT ROAD,Placerville,CA,95667
1555,1080 Pleasant Grove Blvd.,Roseville,CA,95678
1556,9045 WOODCREEK OAKS BLVD,Roseville,CA,95747
1557,2220 Sunset Blvd,Rocklin,CA,95765
1558,6498 PONY EXPRESS TRAIL,Pollock Pines,CA,95726
1559,67 Lincoln Blvd.,Lincoln,CA,95648
1560,Hwy 95 & Armory Road,Hawthorne,NV,89415
1561,450 W Williams Way,Moab,UT,84532
1562,1329 S. TOWNSEND AVENUE,Montrose,CO,81401
1563,605 E. MIAMI RD,MONTROSE,CO,81401
1564,545 Moffat Way,Moffat,CO,81143
1565,2429 South Prairie Avenue,Pueblo,CO,81005
1566,1231 South Prairie,Pueblo,CO,81005
1567,"509 Colorado Avenue, Suite C",Pueblo,CO,81004
1568,267 South Joe Martinez Blvd,Pueblo West,CO,81007
1569,121 N 6th Street,Canon City,CO,81212
1570,1414 MAIN STREET,Canon City,CO,81212
1571,1017 North Market Plaza,Pueblo,CO,81007
1572,710 Hunter drive,PUEBLO,CO,81003
1573,602 Yale Place,Canon City,CO,81212
1574,1310 Fortino Blvd Suite D,Pueblo,CO,81008
1575,41 MONTEBELLO RD STE 116,PUEBLO,CO,81001
1576,232 G STREET,Salida,CO,81201
1577,903 S. 12st Street,Rocky Ford,CO,81067
1578,1012 Belmont Ave,La Junta,CO,81050
1579,711 BARNES AVENUE,LA JUNTA,CO,81050
1580,315 W 2ND STREET,Lajunta,CO,81050
1581,318 Lacey Avenue,La Junta,CO,81050
1582,319 Main Street,Ordway,CO,81063
1583,245 Vine Ave,Las Animas,CO,81054
1584,906 E. OLIVE STREET,Lamar,CO,81052
1585,2700 E 30th Ave,Hutchinson,KS,67502
1586,1060 S. Bishop Ave,Rolla,MO,65401
1587,"965 Mattox Drive, Building A",Sullivan,MO,63080
1588,100 W. Main Street,Union,MO,63084
1589,4241 State Highway 14 West,Christopher,IL,62865
1590,4191 Crescent Drive Suite A,St. Louis,MO,63129
1591,111 Prospect Ave Suite 201C,Kirkwood,MO,63122
1592,401 HOLLY HILLS AVENUE,SAINT LOUIS,MO,63111
1593,6651 Chippewa Street,Saint Louis,MO,63109
1594,12855 N. Outer 40 Rd. Suite 385,St. Louis,MO,63017
1595,"763 South New Ballas Road, Suite 110",Saint Louis,MO,63141
1596,"763 South New Ballas Road, Suite 130 and 310",Saint Louis,MO,63141
1597,9890 Clayton Road Suite 125,Laude,MO,63124
1598,"555 North New Ballas, Suite 220",St. Louis,MO,63141
1599,11477 OLDE CABIN RD Suite 210,SAINT LOUIS,MO,63141
1600,"711 OLD BALLAS ROAD, SUITE 203",SAINT LOUIS,MO,63141
1601,10420 OLD OLIVE ST RD STE 205,CREVE COEUR,MO,63141
1602,10199 Woodfield Lane,St Louis,MO,63132
1603,1415 E 3RD ST,CENTRALIA,IL,62801
1604,1007 ML King Drive Suite 1,Centralia,IL,62801
1605,315 Mulberry St,Evansville,IN,47713
1606,"4411 Washington Ave, Suite 200",Evansville,IN,47714
1607,1275 HAWTHORN RD,SALEM,IL,62881
1608,"5401 Vogel Road, Suite 740",Evansville,IN,47715
1609,MOBILE UNIT,RADCLIFF,KY,40159
1610,9702 Stonestreet Road,Louisville,KY,40272
1611,9702 Stonestreet Road Suite 120,Louisville,KY,40272
1612,1000 Neighborhood Place,Fairdale,KY,40118
1613,1850 Bluegrass Ave.,Louisville,KY,40215
1614,4100 Taylor Blvd,Louisville,KY,40215
1615,4805 Southside Dr,Louisville,KY,40214
1616,2500 West Market Street,Louisville,KY,40212
1617,2020 NEWBURG RD,LOUISVILLE,KY,40205
1618,834 East Broadway,Louisville,KY,40212
1619,550 S JACKSON ST,LOUISVILLE,KY,40202
1620,4229 Bardstown Rd. Suite 218,Louisville,KY,40218
1621,2215 Portland Avenue,Louisville,KY,40212
1622,3922 B Willis Avenue,Louisville,KY,40207
1623,121 Buntin Street Suite 1,Vincennes,IN,47591
1624,406 North 1st Street,Vincennes,IN,47591
1625,512 Saffell Street,Lawrenceburg,KY,40342
1626,101 Orchard Drive,Nicholasville,KY,40356
1627,649 Chamberlin Ave,Frankfort,KY,40601
1628,1604 Louisville Rd,Frankfort,KY,40601
1629,236 E Reynolds Rd. Suite C2,Lexington,KY,40517
1630,"2628 Wilhite Court, Suite 102",Lexington,KY,40503
1631,"1030 Monarch Street, Suite 200",Lexington,KY,40513
1632,1021 Majestic Drive Suite 100,Lexington,KY,40513
1633,"3439 Buckhorn Drive, Suite 160",Lexington,KY,40515
1634,1736 Alexandria Dr. Suite 225,Lexington,KY,40504
1635,662 E. Main Street,Frankfort,KY,40601
1636,1517 Nicholasville Rd Suite 402,Lexington,KY,40503
1637,1401 Nicholasville Rd,Lexington,KY,40503
1638,351 Burley Ave Suite 100,Lexington,KY,40503
1639,"1306 Versailles Road, Suite 120",Lexington,KY,40504
1640,120 N Eagle Creek Rd Suite 103,Lexington,KY,40509
1641,112 W High St,Lexington,KY,40507
1642,1500 Leestown Rd Suite 110,Lexington,KY,40511
1643,314 S Ferguson St,Henryville,IN,47126
1644,1154 Lexington Rd,Georgetown,KY,40324
1645,"105 WINDSOR PATH 5, 6",GEORGETOWN,KY,40324
1646,103 Boston Sq,Georgetown,KY,40324
1647,225 Hospital Dr. Suite 200A,Winchester,KY,40391
1648,29 N. Maysville St,Mt Sterling,KY,40353
1649,805 Alexa Dr. Suite D,Mt Sterling,KY,40353
1650,125 Foxglove Dr. Suite D,Mt Sterling,KY,40353
1651,129 Stone Trace Drive,Mount Sterling,KY,40353
1652,17 Miller Drive,Owingsville,KY,40360
1653,189 Edgewater Rd,Morehead,KY,40351
1654,521 E High St,Owingsville,KY,40360
1655,274 E Main St,Paris,KY,40361
1656,31 Torchlight Rd,Louisa,KY,41230
1657,2135 Highway 1185,Louisa,KY,41230
1658,758 Stockton Road,Wallingford,KY,41093
1659,60 PROFESSIONAL PARK D,LOUISA,KY,41230
1660,MOBILE UNIT,BLOOMFIELD,KY,40008
1661,1210 Ky Highway 36 East,Cynthiana,KY,41031
1662,1134 KY HWY 27 S Suite 2,Cynthiana,KY,41031
1663,1094 US HW 27 S,Cynthiana,KY,41031
1664,40 Shea Avenue,Chapmanville,WV,25508
1665,10730 Midland Trail Road,Ashland,KY,41102
1666,"5900 US 60 West, Suite B",Ashland,KY,41102
1667,2206 Walnut Street,Catlettsburg,KY,41129
1668,83 2nd St,Vanceburg,KY,41179
1669,"336 29th Street, Suite 203",Ashland,KY,41101
1670,2221 Central Ave.,Ashland,KY,41101
1671,800 20th Street,Huntington,WV,25703
1672,"401 Division Street, Suite 204",Charleston,WV,25309
1673,3715 MacCorkle Ave SE,Charleston,WV,25304
1674,1520 Washington St. East,Charleston,WV,25311
1675,1 STEVENS RD,SUMMERSVILLE,WV,25561
1676,40 Lambert Street Suite 212,Staunton,VA,24401
1677,"233 Hydraulic Ridge Road, Suite 203A",Charlottesville,VA,22901
1678,767 Madison Road Suite 107,Culpeper,VA,22701
1679,309 Southgate Shopping Center,Culpeper,VA,22701
1680,6330 Five Mile Centre Park Suite 400,Fredericksburg,VA,22407
1681,21770 FDR Boulevard,Lexington Park,MD,20653
1682,22196 Three Notch Rd Ste 104,Lexington Park,MD,20653
1683,4215 Cheshire Station Plaza,Dale City,VA,22193
1684,30007 Business Center Drive,Charlotte Hall,MD,20622
1685,"1954 Opitz Boulevard, Suite 7",Woodbridge,VA,22191
1686,"250 Memorial Drive, Suite C",Luray,VA,22835
1687,201 HALL HWY,CRISFIELD,MD,21817
1688,"30519 Prince William Street, Floor 1",Princess Anne,MD,21853
1689,6040 PUBLIC LANDING ROAD,SNOW HILL,MD,21863
1690,975 Solomons Island Road North 1st Floor,Prince Frederick,MD,20678
1691,104-C Williamsport Circle,Salisbury,MD,21804
1692,926 Snow Hill Rd.,Salisbury,MD,21804
1693,811 Eastern Shore Drive,Salisbury,MD,21804
1694,1201 PEMBERTON DR STE 2A,SALISBURY,MD,21801
1695,"540 Riverside Drive, Suite 7",Salisbury,MD,21801
1696,"4550 Crain Highway, Suite 102",White Plains,MD,20695
1697,11100 Billingsley Rd,Waldorf,MD,20602
1698,1325 Mount Hermon Rd Suite 9A,Salisbury,MD,21804
1699,1504 B. Harting Drive,Salisbury,MD,21801
1700,21 Industrial Park Dr Ste 203,Waldorf,MD,20602
1701,11355 Pembrooke Sq Unit 108A,Waldorf,MD,20603
1702,426 DORCHESTER AVE,CAMBRIDGE,MD,21613
1703,1115 VINE ST,Healdsburg,CA,95448
1704,2550 Bell Road,Auburn,CA,95603
1705,1071 11TH STREET,Lakeport,CA,95453
1706,1366 EAST AVE,Chico,CA,95926
1707,653 SOUTH STATE STREET,Ukiah,CA,95482
1708,1020 Johnson Lane,South Lake Tahoe,CA,96150
1709,212 ELKS POINT RD PO BOX 11111,ZEPHYR COVE,NV,89448
1710,7815 N Lake Blvd Po Box 1056,Kings Beach,CA,96143
1711,900 East Long Street Suite 201,Carson City,NV,89701
1712,11290 DONNER PASS ROAD,Truckee,CA,96161
1713,890 W. Williams,Fallon,NV,89406
1714,65 East 100 North,Gunnison,UT,84634
1715,1550 HIGHWAY 92,Delta,CO,81416
1716,2512 BROADWAY,Grand Junction,CO,81507
1717,755 North Ave Suite B,Grand Junction,CO,81501
1718,2698 Patterson Rd,GRAND JUNCTION,CO,81501
1719,2901 F ROAD,Grand Junction,CO,81504
1720,681 HORIZON DRIVE,Grand Junction,CO,81506
1721,707- US HWY 24 north,Buena Vista,CO,81211
1722,6925 Mesa Ridge Parkway,Fountain,CO,80817
1723,6520 S. Academy Blvd.,Colorado Springs,CO,80906
1724,1920 South Nevada Avenue,Colorado Springs,CO,80905
1725,2864 S. Circle Drive Suite 450,Colorado Springs,CO,80906
1726,1318 West Colorado Avenue,Colorado Springs,CO,80904
1727,3275 West Colorado Avenue,Colorado Springs,CO,80904
1728,"3225 International Circle, Suite 100",Colorado Springs,CO,80910
1729,1425 S. Murray Blvd,Colorado Springs,CO,80916
1730,155 PRINTERS PARKWAY SUITE 200,COLORADO SPRINGS,CO,80910
1731,2105 Bijou St,Colorado Springs,CO,80909
1732,1121 N Circle Dr.,Colorado Springs,CO,80909
1733,1304 North Academy Boulevard,Colorado Springs,CO,80909
1734,3720 SINTON RD,COLORADO SPRINGS,CO,80907
1735,1115 ELKTON DR,COLORADO SPRINGS,CO,80907
1736,2890 No Powers,Colorado Springs,CO,80922
1737,840 Village Center Drive,Colorado Springs,CO,80919
1738,1101 E. U.S. Highway 24,Woodland Park,CO,80863
1739,5060 North Academy Boulevard,Colorado Springs,CO,80918
1740,4760 FLINTRIDGE DR STE 250,COLORADO SPRINGS,CO,80918
1741,7655 Mclaughlin Rd.,Falcon,CO,80831
1742,624 Highway 105,Monument,CO,80132
1743,443 Colorado 105,Palmer Lake,CO,80133
1744,1900 N. Poplar St.,Leadville,CO,80461
1745,880 South Perry Street,Castle Rock,CO,80104
1746,753 Maleta Lane,"Castle Rock,",CO,80108
1747,220 Elizabeth St,Elizabeth,CO,80107
1748,8355 N Rampart Range Road,Littleton,CO,80125
1749,"12919 Stroh Ranch Court, Unit G",Parker,CO,80134
1750,11051 S PARKER ROAD,Parker,CO,80134
1751,617 East Elm St.,Salina,KS,67401
1752,1045 E. 23rd St.,Lawrence,KS,66046
1753,8646 Hauser Ct.,Lenexa,KS,66215
1754,7010 West 107th Street,Overland Park,KS,66212
1755,6221 Richards Drive,Shawnee,KS,66216
1756,"5300 West 94th Terrace, Suite 200",Prairie Village,KS,66207
1757,6440 Nieman Road,Shawnee,KS,66203
1758,1010 Carondelet Drive Suite 112,Kansas City,MO,64114
1759,3901 RAINBOW BLVD,KANSAS CITY,KS,66160
1760,6723 State Avenue,Kansas City,KS,66102
1761,1534 Campbell St.,Kansas City,MO,64108
1762,2900 CLAY EDWARDS DRIVE,NORTH KANSAS CITY,MO,64116
1763,500 Limit St.,Leavenworth,KS,66048
1764,"1512 NE 96th Street, Suite A",Liberty,MO,64068
1765,255 Spencer Rd 202,St Peters,MO,63376
1766,1011 EAST CHERRY STREET,TROY,MO,63379
1767,12303 De Paul Dr,Bridgeton,MO,63044
1768,9144 Pershall Road,Hazelwood,MO,63042
1769,50 Northgate Industrial Dr,Granite City,IL,62040
1770,109 East Maple St.,Gillespie,IL,62033
1771,2201 N Willenborg St Suite 1,Effingham,IL,62401
1772,2323 Stevenson Drive,SPRINGFIELD,IL,62703
1773,1300 Lincoln Ave,Jacksonville,IL,62650
1774,120 N 11th St.,Springfield,IL,62703
1775,MOBILE UNIT,MULDRAUGH,KY,40155
1776,2811 Washington Ave,Bedford,IN,47421
1777,25 West Main Street,Austin,IN,47102
1778,3209 W. Fullerton Pike Suite E,Bloomington,IN,47403
1779,421 S Landmark Ave,Bloomimgton,IN,47403
1780,411 W 1st Street,Bloomington,IN,47401
1781,502 W 2nd St,BLOOMINGTON,IN,47403
1782,"1725 East Tipton Street, Suite 200",Seymour,IN,47274
1783,2630 22nd Street,Columbus,IN,47203
1784,3201 Middle Rd,Columbus,IN,47201
1785,1818 N 3rd St,Terre Haute,IN,47804
1786,1035 W Main Street Suite 1,Vevay,IN,47043
1787,19 South Main Street,Dry Ridge,KY,41035
1788,79 Country Club Drive,Butler,KY,41006
1789,8731 BANKERS ST,FLORENCE,KY,41042
1790,210 Thomas More Parkway,Crestview Hills,KY,41017
1791,351 CENTRE VIEW BLVD,CRESTVIEW HILLS,KY,41017
1792,4966 GLENWAY AVE STE 205,CINCINNATI,OH,45238
1793,806 SCOTT BOULEVARD,COVINGTON,KY,41011
1794,1130 JEFFERSON ST STE B,FRANKLIN,IN,46131
1795,446 Morgan Street,Cincinnati,OH,45206
1796,2621 Victory Parkway,CINCINNATI,OH,45206
1797,7715 Beechmont Ave,Cincinnati,OH,45255
1798,6527 Colerain Ave,Cincinnati,OH,45239
1799,MOBILE UNIT,MOUNT EDEN,KY,40046
1800,605 Washington Street,Portsmouth,OH,45662
1801,1100 Hospital Drive,Batavia,OH,45103
1802,313 Chilicothe Avenue,Hillsboro,OH,45133
1803,25 Whitney Dr. 120,Batavia,OH,45150
1804,500 Burlington Rd Suite 240,Jackson,OH,45640
1805,499 Jackson Pike,Gallipolis,OH,45631
1806,1049 Western Avenue,Chillicothe,OH,45601
1807,6570 Sosna Drive,Fairfield,OH,45014
1808,126 E. 2nd Street,Chillicothe,OH,45601
1809,4483 US Route 42,Mason,OH,45040
1810,5108 Sandy Lane,Fairfield,OH,45014
1811,485 West Main St,Wilmington,OH,45177
1812,"777 Columbus Ave, Suite 7D",Lebanon,OH,45036
1813,1430 University Boulevard,Hamilton,OH,45011
1814,820 South Martin Luther King Jr Boulevard,Hamilton,OH,45011
1815,1910 FAIRGROVE AVE STE D,HAMILTON,OH,45011
1816,705 Washington St.,Ravenswood,WV,26164
1817,MOBILE UNIT,RICHMOND DALE,OH,45673
1818,25716 Wilson Street,Coolville,OH,45723
1819,2121 7th St,Parkersburg,WV,26101
1820,1950 Mt. St. Mary Drive,Nelsonville,OH,45764
1821,47 Chamber Circle Rd,Walker,WV,26180
1822,46 Town Center Plaza Suite A,Mill Creek,WV,26280
1823,11 N Locust St,Buckhannon,WV,26201
1824,533 Hackers Creek Rd,Jane Lew,WV,26378
1825,240 Allegheny Highway,Elkins,WV,26241
1826,27750 State Route 7,Marietta,OH,45750
1827,812 3rd Street,Marietta,OH,45750
1828,MOBILE UNIT,MC ARTHUR,OH,45651
1829,527 MEDICAL PARK DR STE 105,BRIDGEPORT,WV,26330
1830,MOBILE UNIT,ONO,PA,17077
1831,3030 Chestnut Street,Lebanon,PA,17042
1832,940 Cumberland Street,Lebanon,PA,17042
1833,618 Cumberland St,Lebanon,PA,17042
1834,618 Cumberland Street,Lebanon,PA,17042
1835,240 S. 8th Street,Lebanon,PA,17042
1836,4701 Devonshire Rd,Harrisburg,PA,17109
1837,"11 Anthra Plaza, 148 State Route 2026",Coal Township,PA,17866
1838,3740 Chambers Hill Rd,Harrisburg,PA,17110
1839,124 E AZALEA DR,HARRISBURG,PA,17110
1840,919 Gibson Blvd,Harrisburg,PA,17113
1841,396 S Centre St,Pottsville,PA,17901
1842,2501 North 3rd Street,Harrisburg,PA,17110
1843,900 N. 6th Street,Harrisburg,PA,17102
1844,502 S Second St. Suite A,St Clair,PA,17970
1845,"207 House Avenue, Suite C",Camp Hill,PA,17011
1846,260 E Washington St,Wernersville,PA,19565
1847,40 West Frack Street,Frackville,PA,17931
1848,3433 Trindle Road,Camp Hill,PA,17011
1849,1170 S STATE ST,EPHRATA,PA,17522
1850,107 E Locust Street,Ephrata,PA,17522
1851,18 E South 7th St,Akron,PA,17501
1852,333 South 7th Street,Ephrata,PA,17501
1853,2141 Oregon Pike,Lancaster,PA,17601
1854,369 Locust St,Columbia,PA,17512
1855,2192 Embassy Dr,Lancaster,PA,17603
1856,55 North West End Avenue,Lancaster,PA,17602
1857,40 Pearl St,Lancaster,PA,17603
1858,1040 Liggett Avenue,Reading,PA,19611
1859,125 S 5th St,Reading,PA,19602
1860,1110 Rockland Street,Reading,PA,19604
1861,838 Penn Street,Reading,PA,19602
1862,"320 Loucks Road, Suite 103",York,PA,17404
1863,850 East Princess Street,York,PA,17403
1864,549 FAIR STREET,BLOOMSBURG,PA,17815
1865,116 South George Street,York,PA,17401
1866,301 West Philadelphia St,York,PA,17401
1867,924 West Market Street,York,PA,17403
1868,480 Hafer Road,Lewisburg,PA,17837
1869,1200 WALNUT BOTTOM ROAD SUITE 301,CARLISLE,PA,17015
1870,22 S. State St.,Millville,PA,17846
1871,32 West Foothills Drive,Drums,PA,18222
1872,2970 Corporate Court,Orefield,PA,18069
1873,360 White Deer Run Road,Allenwood,PA,17810
1874,301 Circle of Progress Drive,Pottstown,PA,19464
1875,227 S. Route 100,Allentown,PA,18106
1876,"351 W. Schuylkill Road, Suite G-15A",Pottstown,PA,19464
1877,137 Montgomery Ave. Suite 203,Boyertown,PA,19512
1878,800 MAHONING ST STE C,LEHIGHTON,PA,18235
1879,404 Ridge St.,Freeland,PA,18224
1880,1230 High Street,Hanover,PA,17331
1881,31 S 10th Ave,Coatesville,PA,19320
1882,120 Penn St,Hanover,PA,17331
1883,1825 East Lincoln Highway,Coatesville,PA,19320
1884,400 SIMPSON DR UNIT A,Chester Springs,PA,19425
1885,300 FREDERICK ST. SUITE 3,Hanover,PA,17331
1886,3628 East Lincoln Highway,Thorndale,PA,19372
1887,"217 Franklin Avenue, Suite 6",Palmerton,PA,18071
1888,217 Franklin Ave,Palmerton,PA,18071
1889,"1605 North Cedar Crest Boulevard, Suite 602",Allentown,PA,18104
1890,1259 South Cedar Crest Blvd suite 308,Allentown,PA,18103
1891,24 N Main St,Lewistown,PA,17043
1892,2015 Hamilton St. Ste. 103,Allentown,PA,18104
1893,1709 W. Hamilton St,Allentown,PA,18104
1894,101 South 17th Street,Allentown,PA,18104
1895,"1275 YORK ROAD, SUITE 17",GETTYSBURG,PA,17325
1896,1130 Walnut St,Allentown,PA,18102
1897,512 West Hamilton Street,Allentown,PA,18101
1898,124 Bridge Street,Catasaqua,PA,18032
1899,4 E Main St,Nanticoke,PA,18634
1900,553 East 3rd Street,Williamsport,PA,17701
1901,1101 East Third Street,Williamsport,PA,17701
1902,471 Hepburn Street,Wiliamsport,PA,17701
1903,825 SPRINGDALE DR,EXTON,PA,19341
1904,601 ROXBURY ROAD,SHIPPENSBURG,PA,17257
1905,2705 North Old Bethlehem Pike,Quakertown,PA,18951
1906,520 Maple Ave Suite 1,West Chester,PA,19380
1907,735 Delaware Avenue,Fountain Hill,PA,18015
1908,"110 Westtown Road, Suite 115",West Chester,PA,19382
1909,770 E Market St,West Chester,PA,19380
1910,681 Harleysville Pike,Harleysville,PA,19438
1911,8 Church St,Wilkes Barre,PA,18765
1912,1330 CENTER ST,Bethlehem,PA,18018
1913,"1450 East Boot Road, Suite 200c",West Chester,PA,19380
1914,250 Old River Road,Wilkes-Barre,PA,18702
1915,920 East Baltimore Pike,Kennett Square,PA,19348
1916,1401 Easton Ave,Bethlehem,PA,18018
1917,1040 South West End Boulevard,Quakertown,PA,18951
1918,3983 West Main St,Belleville,PA,17004
1919,524 West Broad Street,Quakertown,PA,18951
1920,100 Wilkes-Barre Blvd. Ste. 103,Wilkes Barre,PA,18702
1921,"480 Pierce Street, Suite 303",Kingston,PA,18704
1922,807 Lawn Avenue,Sellersville,PA,18960
1923,667 North River Street,Plains,PA,18705
1924,4B North Avenue 302,Bel Air,MD,21014
1925,235 W Lancaster Ave,Devon,PA,19333
1926,4023 Bethlehem Pike,Telford,PA,18969
1927,21 West Courtland Street,Bel Air,MD,21014
1928,983 Old Eagle School Rd. Suite 611,Wayne,PA,19087
1929,120 S Hays St. Suite 300,Bel Air,MD,21014
1930,"2591 Baglyos Circle, Suite C-50",Bethleham,PA,18020
1931,"25 S Street, Suite 102",Nazareth,PA,18064
1932,"520 Upper Chesapeake Drive, Suite 304",Bel Air,MD,21014
1933,1130 Baltimore Blvd,Westminster,MD,21157
1934,166 W. Main St.,Norristown,PA,19401
1935,"14 Rogers RD, Suite 211",North East,MD,21901
1936,1803 Harford Road,Fallston,MD,21047
1937,684 Poole Rd Ste C,Westminster,MD,21157
1938,316 Dekalb St,Norristown,PA,19401
1939,11350 McCormick Rd. EP III Ste 600,Hunt Valley,MD,21031
1940,2021-B Emmorton Road,Bel Air,MD,21015
1941,812 Shoemaker Ave,Wyoming,PA,18644
1942,131 S. Union Avenue Suite A,Havre De Grace,MD,21078
1943,2925 WILLIAM PENN HWY STE 201,EASTON,PA,18045
1944,425 Franklin Farm Lane,Chambersburg,PA,17202
1945,"2014 South Tollgate Road, Suite 208",Bel Air,MD,21015
1946,262 Bethlehem Pike,Colmar,PA,18915
1947,124 Chambers Hill Road,Chambersburg,PA,17201
1948,9701 Keysville Road,Emmitsburg,MD,21727
1949,100 SUBURBAN DRIVE,Newark,DE,19711
1950,2506 North BROAD ST,LANSDALE,PA,19446
1951,"1107 Drummond Plaza Office Park, Building 1",Newark,DE,19711
1952,"5235 West Woodmill Drive, Suite 46",Wilmington,DE,19808
1953,5163 W Woodmill Dr. Ste 13,Wilmington,DE,19808
1954,"1000 Germantown Pike, Suite H-2",Plymouth Meeting,PA,19462
1955,1067 W. BALTIMORE PIKE,Media,PA,19063
1956,241 North 13th St,Easton,PA,18042
1957,241 North 13th Street,Easton,PA,18042
1958,3031-A Walton Rd Suite 300,Plymouth Meeting,PA,19462
1959,3700 Lancaster Pike Ste 305,Wilmington,DE,19805
1960,"111 West High Street, Suite 109",Elkton,MD,21921
1961,910 South Chapel St,Newark,DE,19713
1962,17645 Harbaugh Valley Rd,Sabillasville,MD,21780
1963,105 East Main Street,Elkton,MD,21921
1964,"10 East 6th Avenue, Suite 200",Conshohocken,PA,19426
1965,1600 Rockland Road,Wilmington,DE,19803
1966,4923 Ogletown Stanton Rd Ste 110,Newark,DE,19713
1967,620 STANTON-CHRISTIANA RD STE 305,NEWARK,DE,19713
1968,2500 W. 4th St. Ste 1,Wilmington,DE,19805
1969,"2500 West 4th Street, 2nd Floor Suite 5B",Wilmington,DE,19805
1970,850 West Lancaster Avenue,Bryn Mawr,PA,19010
1971,80 Broad Street,Phillipsburg,NJ,08865
1972,1999 Sproul Road Suite 10,Broomall,PA,19008
1973,824 McAlpine Street,Avoca,PA,18641
1974,3604 Miller Road,Wilmington,DE,19808
1975,604 West 10th Street,Wilmington,DE,19801
1976,600 ABBOTT DR,BROOMALL,PA,19008
1977,824 N Market St Ste 103,Wilmington,DE,19801
1978,355 W. Lancaster Ave,Bldg D 1st Floor,PA,19041
1979,"222 Philadelphia Pike, Suite 4",Wilmington,DE,19809
1980,"1300 York Road, York Green, Building C, Suite 100",Lutherville-Timonium,MD,21093
1981,3301 Green Street,Claymont,DE,19703
1982,626 N GRANT ST,WAYNESBORO,PA,17268
1983,13450 Midvale Rd. Parking Lot,Waynesboro,PA,17268
1984,16 East Woodland Avenue,Springfield,PA,19064
1985,"800 West State Street, Suite 100",Doylestown,PA,18901
1986,3620 North Dupont Highway,New Castle,DE,19720
1987,11 Weldon Drive,Doylestown,PA,18901
1988,146 FOX HUNT DR,BEAR,DE,19701
1989,"2500 Wrangle Hill Road, Suite 205",Bear,DE,19701
1990,390 Commerce Dr,Fort Washington,PA,19034
1991,1640 BETHLEHEM PIKE,Flourtown,PA,19031
1992,40 York Road 201,Towson,MD,21204
1993,"8600 LaSalle Road, Carroll Building, Suite 212",Towson,MD,21286
1994,8501 LaSalle Rd Ste 115,Towson,MD,21286
1995,"3180 Route 611, Suite 19",Bartonsville,PA,18321
1996,7801 York Rd Suite 300,Towson,MD,21204
1997,"7801 York Road, Suite 300",Towson,MD,21204
1998,8615 Ridgelys Choice Dr. Suite 205,Nottingham,MD,21236
1999,7600 Osler Drive Suite 105,Towson,MD,21204
2000,"6525 North Charles Street, Suite 85",Towson,MD,21204
2001,5927-59 RIDGE AVENUE,Philadelphia,PA,19128
2002,124 MORTON AVE,Folsom,PA,19033
2003,6 E. Willow Grove Ave.,PHILADELPHIA,PA,19118
2004,8116 B Harford Rd,Parkville,MD,21234
2005,201 City Ave,Merion,PA,19066
2006,"1151 Pocono Boulevard, Suite 3",Mt. Pocono,PA,18344
2007,"25 Bala Avenue, Suite 202",Bala Cynwyd,PA,19004
2008,121 E CITY LINE AVE,Bala Cynwyd,PA,19004
2009,208 Lifeline Rd.,Stroudsburg,PA,18360
2010,1501 SULGRAVE AVENUE SUITE 200,BALTIMORE,MD,21209
2011,132 Abigail Ln,Port Matilda,PA,16870
2012,17 Warren Rd Ste 20B,Baltimore,MD,21208
2013,6801 BELAIR RD,BALTIMORE,MD,21206
2014,6999 Reisterstown Road Suite 4,Baltimore,MD,21215
2015,"1753 Kendarbren Drive, Suite 612",Jamison,PA,18929
2016,1172 W MAIN ST,STROUDSBURG,PA,18360
2017,"1035 W Bristol Rd, Suite B",Warminster,PA,18974
2018,142 S 52nd St. Suite 201,Philadelphia,PA,19139
2019,5151 A Walnut Street,Philadelphia,PA,19139
2020,"390 North Broadway, Suite 500",Pennsville,NJ,08070
2021,208 North Easton Road,Willow Grove,PA,19090
2022,"2926 E Cold Spring Ln, Suite 3F",Baltimore,MD,21214
2023,3437 Route 715,Henryville,PA,18332
2024,727 Ann Street,Stroudsburg,PA,18360
2025,1141 Moosic Street Suite 3,Scranton,PA,18505
2026,19 Fontana Lane Suite 108,Rosedale,MD,21237
2027,1232 Race Rd. Suite 302,Rosedale,MD,21237
2028,564 Main St.,Stroudsburg,PA,18360
2029,564 Main Street Suite 103,Stroudsburg,PA,18360
2030,1020 W Lackawaanna Ave,Scranton,PA,18504
2031,"505 Old York Road, Unit 7A",Jenkintown,PA,19046
2032,1405 Mulberry St.,Scranton,PA,18510
2033,1585 the fairway,Jenkintown,PA,19046
2034,3 West Olive Street,Scranton,PA,18508
2035,3535 Market Street Suite 500,Philadelphia,PA,19104
2036,451 S. University Ave,Philadelphia,PA,19104
2037,10 Mount Bethel Plaza,Mt. Bethel,PA,18343
2038,3025 N. Broad St,Philadelphia,PA,19132
2039,1721 North Main Avenue,Scranton,PA,18508
2040,1501 N Broad St,Philadelphia,PA,19122
2041,1825 Woodlawn Drive Suite 104,Woodlawn,MD,21207
2042,1128 Meade Street,Dunmore,PA,18512
2043,1528 Walnut St,Philadelphia,PA,19102
2044,100 S. Broad St. Suite 2230,Philadelphia,PA,19110
2045,118 Monahan Avenue,Dunmore,PA,18512
2046,725 Fallsway,Baltimore,MD,21202
2047,1208 O'Neill Highway,Dunmore,PA,18512
2048,100 East Lehigh Avenue Tower Bld. 6th FL.,Philadelphia,PA,19125
2049,2258 N Front St.,Philadelphia,PA,19133
2050,"407 South 10th Street, 2nd Floor",Philadelphia,PA,19147
2051,3110 N Rolling Rd,Windsor Mill,MD,21244
2052,424 E Allegheny Ave.,Philadelphia,PA,19134
2053,13 East Hamilton Street,Baltimore,MD,21202
2054,2300 South Broad St Suite 206,Philadelphia,PA,19145
2055,2334 E. York St.,Philadelphia,PA,19125
2056,825 E Allegheny Ave.,Philadelphia,PA,19134
2057,1 North Charles St. Suite 602,Baltimore,MD,21201
2058,1 N Charles St. Suite 602,Baltimore,MD,21201
2059,"2840 Pine Road, Unit D1",Huntingdon Valley,PA,19006
2060,251 South Bohemia Avenue,Cecilton,MD,21913
2061,2244 E. Allegheny Ave.,Philadelphia,PA,19134
2062,1500 S. Christopher Columbus BLVD 2nd FL,Philadelphia,PA,19147
2063,2512 E. Clearfield St.,Philadelphia,PA,19134
2064,11054 RENNARD ST. UNIT 11054,PHILADELPHIA,PA,19116
2065,2101-41 COTTMAN AVENUE,Philadelphia,PA,19149
2066,6806 Holabird Avenue,Dundalk,MD,21222
2067,6730 Holabird Ave Suite 201,Dundalk,MD,21222
2068,1709 Holaview Road,Dundalk,MD,21222
2069,516 N ROLLING ROAD SUITE 301,CATONSVILLE,MD,21228
2070,519 -525 West St.,Camden,NJ,08103
2071,"580 Northern Avenue, Suite D",Hagerstown,MD,21742
2072,1702 Whetstone Way,Baltimore,MD,21230
2073,6601 ROOSEVELT BLVD.,Philadelphia,PA,19149
2074,"3455 Wilkens Ave, Suite 208",Baltimore,MD,21229
2075,817 Federal Street,Camden,NJ,08103
2076,"10890 Bustleton Avenue, Suite 103",Philadelphia,PA,19116
2077,10800 Bustleton Avenue,Philadelphia,PA,19116
2078,"405 Frederick Road, Suite 11",Catonsville,MD,21228
2079,460 EAST MAIN STREET,Middletown,DE,19709
2080,105 E STREET RD,Feasterville Trevose,PA,19053
2081,"330 Salem-Woodstown Road, Suite 7",Salem,NJ,08079
2082,40 S DUNDALK AVE STE 400,DUNDALK,MD,21222
2083,"9815 Roosevelt Boulevard, Unit J",Philadelphia,PA,19114
2084,3570 St Johns Ln Suite 207,Ellicott City,MD,21042
2085,104 N. King Street,Gloucester City,NJ,08030
2086,44 N POTOMAC ST STE 101,HAGERSTOWN,MD,21740
2087,"339 E. Antietam St., Suite 4",Hagerstown,MD,21740
2088,"174 Thomas Johnson Drive, Suite 102",Frederick,MD,21702
2089,"1185 Mt. Aetna Rd., Suite 200",Hagerstown,MD,21740
2090,17666 Technology Blvd,Hagerstown,MD,21740
2091,1434 Mt. Cobb Rd.,Lake Ariel,PA,18436
2092,2480 Roxbury Mills Road Suite 10,Glenwood,MD,21738
2093,875 KINGS HWY STE 100,WEST DEPTFORD,NJ,08096
2094,217 E ANTIETAM ST,HAGERSTOWN,MD,21740
2095,7900 Frankford Avenue,Philadelphia,PA,19136
2096,"188 Thomas Johnson Dr, Ste 102",Frederick,MD,21702
2097,420 Supreme Court Drive,East Stroudsburg,PA,18032
2098,"265 Mill Street, Suite 100",Hagerstown,MD,21740
2099,8039 Frankford Ave,Philadelphia,PA,19136
2100,4610 E. Street Rd.,Trevose,PA,19053
2101,48 WEST RD,Newtown,PA,18940
2102,202 Cove Forge Road,Williamsburg,PA,16693
2103,50 Industrial Park Rd.,Lake Ariel,PA,18436
2104,"915 Toll House Avenue, Suite 102",Frederick,MD,21701
2105,371 Glassboro Rd.,Woodbury Heights,NJ,08097
2106,3800 Horizon Blvd Suite 103,Trevose,PA,19053
2107,1623 PA-507,Greentown,PA,18426
2108,"420 East Patrick Street, Suite 100",Frederick,MD,21701
2109,1 S Centre St,Merchantville,NJ,08109
2110,638 Newtown Yardley Rd. Suite 1F,Newtown,PA,18940
2111,"1565 Route 507, Suite 2",Greentown,PA,18426
2112,"760 Newtown-Yardley Road, Suite 122",Newtown,PA,18940
2113,26 South White Horse Pike,Audubon,NJ,08106
2114,600 West Patrick Street,Frederick,MD,21701
2115,1336 BRISTOL PIKE STE 100,BENSALEM,PA,19020
2116,2846 Knights Road,Bensalem,PA,19020
2117,"8940 Old Annapolis Road, Suite E",Columbia,MD,21045
2118,"220 South White Horse Pike, 2nd Floor, Suite C",Audubon,NJ,08106
2119,606 Corporate Drive West,Langhorne,PA,19047
2120,1990 Woodbourne Road,Langhorne,PA,19047
2121,134 Jacob's Way,Port Matilda,PA,16870
2122,8 Main Street,Flemington,NJ,08822
2123,5 Washington Avenue,Jermyn,PA,18433
2124,4833 Hulmeville Rd,Bensalem,PA,19020
2125,162 Broad Street,Flemington,NJ,08822
2126,25 West Main Street,Maple Shade,NJ,08052
2127,1262 Wood Lane Suite 102,Langhorne,PA,19047
2128,"3070 Bristol Pike Building 1, Suite 205",Bensalem,PA,19020
2129,5301 Buckeystown PK,Frederick,MD,21704
2130,31 Kings Highway East,Haddonfield,NJ,08033
2131,5999 Harpers Farm RD,Columbia,MD,21044
2132,10632 Little Patuxent Pkwy Suite 219,Columbia,MD,21044
2133,10632 Little Patuxent Parkway,Columbia,MD,21044
2134,10630 Little Patuxent Parkway Suite 314 J,Columbia,MD,21044
2135,507 Mullica Hill Rd.,Mullica Hill,NJ,08062
2136,4 Cornerstone Drive,Langhorne,PA,19047
2137,5245 Bensalem Blvd,Bensalem,PA,19020
2138,1400 Veterans Highway,Levittown,PA,19056
2139,300 SHEELER RD,CHESTERTOWN,MD,21620
2140,950 Kings Hwy. N.,Cherry Hill,NJ,08034
2141,100 N Buckstown Rd Suite 100E,Langhorne,PA,19047
2142,1310 FROSTY HOLLOW RD,LEVITTOWN,PA,19056
2143,"123 Egg Harbor Road, Suite 703",Sewell,NJ,08080
2144,1854 Veterans Highway,Levittown,PA,19056
2145,"301 Oxford Valley Road, Suite 1402",Yardley,PA,19067
2146,8930 Stanford Blvd Suite 100,Columbia,MD,21045
2147,2291 Cabot Boulevard West,Langhorne,PA,19047
2148,1400 Route 70 East,Cherry Hill,NJ,08034
2149,818 High Street Suite 20,Chestertown,MD,21620
2150,"7452 Baltimore Annapolis Boulevard, Suite 102",GLEN BURNIE,MD,21061
2151,1395 Chews Landing Rd.,Laurel Springs,NJ,08021
2152,1387 CHEWS LANDING RD.,LAUREL SPRINGS,NJ,08021
2153,7476 Baltimore Annapolis Blvd,Glen Burnie,MD,21061
2154,1303 Veteran Hwy,Bristol,PA,19007
2155,"1230 Veterans Highway, Suite F1",Bristol,PA,19007
2156,813 E GATE DR. STE D,MOUNT LAUREL,NJ,08054
2157,"2070 Springdale Road, Suite 100",Cherry Hill,NJ,08003
2158,501 Bath Road,Bristol,PA,19007
2159,1 Keystone Ave Suite 100,Cherry Hill,NJ,08003
2160,7678 Quarterfield Rd Suite 201,Glen Burnie,MD,21061
2161,1406B Crain Hwy S Suite 308,Glen Burnie,MD,21061
2162,"1406 S. Crain Highway, Suite 102",Glen Burnie,MD,21061
2163,1930 MARLTON PIKE E STE U-100,CHERRY HILL,NJ,08003
2164,1930 MARLTON PIKE EAST,CHERRY HILL,NJ,08003
2165,509 NJ 168,Turnersville,NJ,08012
2166,"42 East Laurel Road, Suite 1700",Stratford,NJ,08084
2167,1000 WHITE HORSE RD STE 602,VOORHEES,NJ,08043
2168,438 GANTTOWN ROAD SUITE B1,SEWELL,NJ,08080
2169,707 White Horse Rd Suite C-101,Voorhees,NJ,08043
2170,8015 Apple Valley Drive,Pasadena,MD,21122
2171,2528 Mountain Rd. Suite 204,Pasadena,MD,21122
2172,"4991 Route 42, Suite 8",Turnersville,NJ,08012
2173,"121 Johnson Rd., Suite 5",Turnersville,NJ,08012
2174,4231 Postal Court,Pasadena,MD,21122
2175,"402 SHEPPARD RD., SUITE 300",VOORHEES,NJ,08043
2176,127 Route 106,Greenfield Township,PA,18407
2177,1080 North Delsea Dr.,Clayton,NJ,08312
2178,171A Ryan Road,Pasadena,MD,21122
2179,"132-144 Perry Street, 2nd Floor",Trenton,NJ,08618
2180,1110 Benfield Blvd Suite H,Millersville,MD,21108
2181,200 Independence Blvd,Sicklerville,NJ,08081
2182,181 West White Horse Pike,Berlin,NJ,08009
2183,133 Polk Lane,Bridgeton,NJ,08302
2184,5879 SR 92 Ste. 3,Kingsley,PA,18826
2185,"773 East Route 70, SUITE E-100",Marlton,NJ,08053
2186,601 7th Street 304,Laurel,MD,20707
2187,"175 Cross Keys Road, Centennial Center Building 300a",Berlin,NJ,08009
2188,287 Old Marlton Pike,Medford,NJ,08055
2189,3001 Fairway Drive,Altoona,PA,16602
2190,501 Howard Street Suite A202,Altoona,PA,16601
2191,7350 Van Dusen Rd Suite 340,Laurel,MD,20707
2192,19537 Doctors Drive,Germantown,MD,20874
2193,2 SELLERS DR STE B,ALTOONA,PA,16601
2194,1894 Plank Road,Duncansville,PA,16635
2195,317-C East Diamond Ave,Gaithersburg,MD,20877
2196,1333 PLANK RD SUITE 200,DUNCANSVILLE,PA,16635
2197,"202 Perry Parkway, Suite 5",Gaithersburg,MD,20877
2198,"10 VREELAND DRIVE, SUITE 103",Skillman,NJ,08558
2199,4065 QUAKERBRIDGE RD,W WINDSOR TWP,NJ,08550
2200,"330 North Harrison Street, Suite 1",Princeton,NJ,08540
2201,498 S MAIN ST STE D,MONTROSE,PA,18801
2202,"16220 Frederick Road, Suite 200",Gaithersburg,MD,20877
2203,"1511 RITCHIE HWY, SUITE 202",ARNOLD,MD,21012
2204,"15886 Gaither Drive, Suite B",Gaithersburg,MD,20877
2205,15800 Gather Drive Suite 210,Gaithersburg,MD,20877
2206,26 Marbury Drive,Crownsville,MD,21032
2207,"600 Maple Avenue, Suite 6",Honesdale,PA,18431
2208,12162 Tech Rd,Silver Spring,MD,20904
2209,221 Courtyard Drive,Hillsborough,NJ,08844
2210,"2222 Rt. 33, Suite H",Hamilton,NJ,08690
2211,1120 New Hampshire Ave. Suite 501,Silver Spring,MD,20904
2212,820 Bestgate Rd Suite 2C,Annapolis,MD,21401
2213,633 RAILROAD AVENUE,CENTREVILLE,MD,21617
2214,981 Rollins Avenue,Rockville,MD,20852
2215,307 North Main Street,Athens,PA,18810
2216,307 Medical Court,Martinsburg,WV,25401
2217,107 Ridgely Ave 12,Annapolis,MD,21401
2218,8905 Wandering Trail Drive,Potomac,MD,20854
2219,2568A Riva Rd Suite 203,Annapolis,MD,21401
2220,11125 Rockville Pike Suite 302,North Bethesda,MD,20895
2221,11119 Rockville Pike 316,Rockville,MD,20852
2222,7474 Greenway Center Dr. Suite 700B,Greenbelt,MD,20770
2223,"7347 Hanover Parkway, Suite B",Greenbelt,MD,20770
2224,100 Henry Street,Sayre,PA,18840
2225,831 University Blvd East Suite 36A,Silver Spring,MD,20903
2226,1100 Cornwall Road Suite 111,Monmouth Junction,NJ,08852
2227,5913 W Cedar Lane,Bethesda,MD,20814
2228,"156 South State Street, unit 1",Dover,DE,19901
2229,141 Main Street,South Bound Brook,NJ,08880
2230,127 Union Ave Suite 1,Middlesex,NJ,08846
2231,"4201 Northview Drive, Suite 104",Bowie,MD,20716
2232,"20 Mayo Road, Suite 201",Edgewater,MD,21037
2233,190 John Hunn Brown Rd.,Dover,DE,19901
2234,4000 Mitchelville Rd. Suite B322,Bowie,MD,20716
2235,9457 LINCOLN HWY,BEDFORD,PA,15522
2236,938 S. Bradford St,Dover,DE,19901
2237,33 CLYDE ROAD SUITE 105,SOMERSET,NJ,08873
2238,3179 Braverton Street Ste 202,Edgewater,MD,21037
2239,400 Route 10,Randolph,NJ,07869
2240,9800 Falls Rd Suite 7,Potomac,MD,20854
2241,9800 Falls Rd Ste 3,Potomac,MD,20854
2242,1033 TURNPIKE AVE,CLEARFIELD,PA,16830
2243,4938 St. Elmo Avenue,Bethesda,MD,20814
2244,58 N Sussex Street,Dover,NJ,07801
2245,"3415 Hamilton Street, Suite 6",West Hyattsville,MD,20782
2246,"2466 E. Chestnut Ave., Bldg. 2",Vineland,NJ,08360
2247,542 Route 6 N. 209,Milford,PA,18337
2248,"12 Stults Road, Suite 121",Dayton,NJ,08810
2249,5632 Annapolis Rd,Bladensburg,MD,20710
2250,1200 North High Street,Millville,NJ,08332
2251,209 Gibson St NW Suite 202A,Leesburg,VA,20175
2252,608 North High Street,Millville,NJ,08332
2253,"5100 Wisconsin Avenue Northwest, Suite 307",Washington,DC,20016
2254,121 South Whitehorse Pike,Hammonton,NJ,08037
2255,120 S WHITE HORSE PIKE,HAMMONTON,NJ,08037
2256,"44355 Premier Plaza, 120",Ashburn,VA,20147
2257,44340 Premier Plaza Suite 230,Ashburn,VA,20147
2258,28 Brindletown Rd,New Egypt,NJ,08533
2259,"4325 49th Street Northwest, Suite 200",Washington,DC,20016
2260,4701 Sangamore Road Suite S207,Bethesda,MD,20816
2261,317 George St,New Brunswick,NJ,08901
2262,303 George St Suite 104,New Brunswick,NJ,08901
2263,3301 New Mexico Ave NW 346,Washington,DC,20016
2264,1949 4th St NE,Washington,DC,20002
2265,25066 STATE ROUTE 11,HALLSTEAD,PA,18822
2266,2333 ONTARIO STREET,WASHINGTON,DC,20009
2267,"290 Madison Avene, Suite 2A",Morristown,NJ,07960
2268,1330 Chain Bridge Road,McLean,VA,22101
2269,1340 OLD CHAIN BRIDGE RD STE 402,MCLEAN,VA,22101
2270,2872 Turnpike Street,Susquehanna,PA,18847
2271,340 Us Highway 1,Edison,NJ,08817
2272,1810 Park Ave,South Plainfield,NJ,07080
2273,"51 West Prospect Street, Suite 101",East Brunswick,NJ,08816
2274,"1 Ethel Road Bldg. 1, Suite 101 B",Edison,NJ,08817
2275,1814 E 2ND St. 2nd FL.,Scotch Plains,NJ,07076
2276,1814 E 2ND ST,SCOTCH PLAINS,NJ,07076
2277,1688 Anderson Rd,McLean,VA,22101
2278,3713 Lee Highway,Arlington,VA,22207
2279,8357-B GREENSBORO DR,MCLEAN,VA,22102
2280,413 Elden St,Herndon,VA,20170
2281,2500 N Harrison St,Arlington,VA,22207
2282,1701 North George Mason Drive,Arlington,VA,22205
2283,11120 South Lakes Drive,Reston,VA,20191
2284,123 Pike Street,Port Jervis,NY,12771
2285,135 Columbia Turnpike,Florham Park,NJ,07392
2286,69 County Road 516,Old Bridge,NJ,08857
2287,55 WASHINGTON AVENUE,ENDICOTT,NY,13760
2288,2304 Hunterswoods Plaza,Reston,VA,20191
2289,83 Hanover Road,Florham Park,NJ,07932
2290,6118 Arlington Blvd,Falls Church,VA,22044
2291,"611 South Carlin Springs Road, Suite 501",Arlington,VA,22204
2292,7397 Lee Hwy,Falls Church,VA,22042
2293,"499 MARLBORO ROAD, SUITE 1",OLD BRIDGE,NJ,08857
2294,30 West State Street,Binghamton,NY,13901
2295,5620 St. Barnabas Rd. Suite 340,Oxon Hill,MD,20745
2296,3043 Nutley Street,Fairfax,VA,22031
2297,8221 WILLOW OAKS CORP DR STE 4-425,FAIRFAX,VA,22031
2298,25 Kilmer Dr. Building 3 Suite 215,Morganville,NJ,07751
2299,"60 Walnut Avenue, Suite 200",Clark,NJ,07066
2300,96 W. Main St,Freehold,NJ,07728
2301,"1030 Saint Georges Avenue, Suite 103a",Avenel,NJ,07001
2302,224 Taylors Mills Road Suite 112,Manalapan,NJ,07726
2303,61 West Main St,Freehold,NJ,07728
2304,"540 Bordentown Avenue, Suite 4500",South Amboy,NJ,08879
2305,453 Amboy Avenue,Woodbridge,NJ,07095
2306,901 Ernston Rd,South Amboy,NJ,08879
2307,"7902 Old Branch Avenue, Suite 204",Clinton,MD,20735
2308,"613 Amboy Ave, Ste L 101",Perth Amboy,NJ,08861
2309,7414 Little River Turnpike,Annandale,VA,22003
2310,4345 US 9,Freehold,NJ,07728
2311,187 Fayette Street,Perth Amboy,NJ,08861
2312,275 Hobart St,Perth Amboy,NJ,08861
2313,262 State Street,Perth Amboy,NJ,08861
2314,1203 W Saint George's Ave,Linden,NJ,07036
2315,3930 Pender Dr. Suite 320,Fairfax,VA,22030
2316,299 S Van Dorn,Alexandria,VA,22304
2317,12200 Fairfax Towne Center,Fairfax,VA,22033
2318,3917 Old Lee Highway Suite 11-D,Fairfax,VA,22030
2319,389 N County Line Rd,Jackson,NJ,08527
2320,1000 Galloping Hill Road,Union,NJ,07083
2321,22 Court Street,Freehold,NJ,07728
2322,10474 Armstrong St. Suite 104,Fairfax,VA,22030
2323,3443 Route 9 North,Freehold,NJ,07728
2324,6130 Rose Hill Drive,Alexandria,VA,22310
2325,9525 Braddock Road,Fairfax,VA,22030
2326,5034 Atlantic Avenue,Mays Landing,NJ,08330
2327,1088 State Route 34,Matawan,NJ,07747
2328,10351 SOUTHERN MARYLAND BLVD STE 100 & 101,DUNKIRK,MD,20754
2329,76 Elmora Avenue,Elizabeth,NJ,07202
2330,623 Eagle Rock Avenue,West Orange,NJ,07052
2331,"2290 West County Line Road, Suite 105",JACKSON,NJ,08527
2332,1130 Highway 34,Aberdeen,NJ,07747
2333,80 Conover Road,Marlboro,NJ,07746
2334,5980 Kingstowne Center,Alexandria,VA,22315
2335,"10903 Indian Head Hwy, Suite 501 & 502",Fort Washington,MD,20744
2336,"692 North DuPont Boulevard, Suite 692",Milford,DE,19963
2337,660 South 21st Street,Irvington,NJ,07111
2338,"1425 Scalp Avenue, Suite 175",Johnstown,PA,15904
2339,25 East Front st,Keyport,NJ,07735
2340,5727 Burke Ctr,Burke,VA,22015
2341,654 E JERSEY ST,ELIZABETH,NJ,07206
2342,63-65 Pierce St,Newark,NJ,07103
2343,1 SUSSEX AVE,MILFORD,DE,19963
2344,"6 Pompton Avenue, Suite 11",Cedar Grove,NJ,07009
2345,8101 Hinson Farm Rd Suite 201,Alexandria,VA,22306
2346,1376 NJ-36,Hazlet,NJ,07730
2347,9596 Old Keene Mill Road,Burke,VA,22015
2348,600 S. Odessa Ave.,Egg Harbor City,NJ,08215
2349,4539 US Highway 9,Howell,NJ,07731
2350,699 Cross St,Lakewood,NJ,08701
2351,812 Amherst Street suite 101,Winchester,VA,22601
2352,761 JOHNSONBURG RD,SAINT MARYS,PA,15857
2353,145 HOSPITAL AVE,DUBOIS,PA,15801
2354,"420 Rt 34, Unit 309",Colts Neck,NJ,07722
2355,8646 Richmond Highway,Alexandria,VA,22309
2356,550 Bloomfield Ave,Newark,NJ,07107
2357,838 Washington Ave.,Woodbine,NJ,08270
2358,23 Branford Pl. 2nd Fl.,Newark,NJ,07102
2359,"77 Newark Ave, Ste 1",Belleville,NJ,07109
2360,132 Walnut Street 3rd Floor,Johnstown,PA,15901
2361,570 Belleville Avenue,Belleville,NJ,07109
2362,433 Broadway Suite 1,Monticello,NY,12701
2363,3589 Hylan Boulevard,Staten Island,NY,10308
2364,23 Lakeview Ave,Monticello,NY,12701
2365,"199 Main Street, Suite 2A",Keansburg,NJ,07734
2366,100 Main St,Keansburg,NJ,07734
2367,1688 Victory Blvd,Staten Island,NY,10314
2368,"1198 Lakewood Road, Suite 102",Toms River,NJ,08753
2369,393 Main Street,Paterson,NJ,07501
2370,"654 Newman Springs Road, Suite B",Lincroft,NJ,07738
2371,"654 Newman Springs Road, Suite B",Lincroft,NJ,07738
2372,777 Bloomfield Ave Suite B,Clifton,NJ,07012
2373,"1215 Route 70, Suite 2001",Lakewood,NJ,08701
2374,310 Main St,Toms River,NJ,08753
2375,226 Main Street South,Toms River,NJ,08753
2376,201 Forest Ave,Staten Island,NY,10301
2377,600 NJ-35,Redbank,NJ,07701
2378,"2511 Fire Road, Suite A-10",Egg Harbor Township,NJ,08234
2379,777 SEAVIEW AVE BLD 3,STATEN ISLAND,NY,10305
2380,237 Madison Avenue,Wyckoff,NJ,07481
2381,270 Highway 35,Red Bank,NJ,07701
2382,7 Railroad Ave,Middletown,NY,10940
2383,170 FR Martin Teleson Lane,Penn Run,PA,15765
2384,522 Brick Blvd,Brick,NJ,08723
2385,660 Black Horse Pike,Pleasantville,NJ,08232
2386,"35 Beaverson Boulevard, Building 6 Suite 6A",Brick,NJ,08723
2387,1750 ZION ROAD SUITE 106,NORTHFIELD,NJ,08225
2388,22-08 Route 208,Fair Lawn,NJ,07410
2389,1420 South New Road,Pleasantville,NJ,08232
2390,74 BRICK BLVD BLDG 4 Suite 115,BRICK,NJ,08723
2391,"74 Brick Boulevard, Suite 115, Bldg 4",Brick,NJ,08723
2392,940 Cedar Bridge Avenue,Brick,NJ,08723
2393,"1749 Hooper Avenue, Suite 102",Toms River,NJ,08753
2394,18119 SUSSEX HWY UNIT 1,BRIDGEVILLE,DE,19933
2395,15-01 BROADWAY,FAIR LAWN,NJ,07410
2396,16-01 Broadway,Fair Lawn,NJ,07410
2397,74-80 PACIFIC AVENUE,JERSEY CITY,NJ,07304
2398,160 ATLANTIC CITY BLVD,BAYVILLE,NJ,08721
2399,321 Broad Street,Red Bank,NJ,07701
2400,249 Henderson Ave,Cumberland,MD,21502
2401,2690 John F Kennedy Boulevard,Jersey City,NJ,07306
2402,23-00 State Park 208 South,Fair Lawn,NJ,07410
2403,10 E NEW YORK AVE,SOMERS POINT,NJ,08244
2404,162 Main St,Eatontown,NJ,07724
2405,72 Greene Street,Cumberland,MD,21502
2406,127 S. Smallwood St,Cumberland,MD,21502
2407,308 Virginia Avenue,Cumberland,MD,21502
2408,403 River Road,Fair Haven,NJ,07704
2409,117 Highway 35,Eatontown,NJ,07724
2410,12821 Braemar Village Plaza,Bristow,VA,20136
2411,"2008 Route 37 East, Office 11",Toms River,NJ,08753
2412,595 County Ave,Secaucus,NJ,07094
2413,3 Corbett Way,Eatontown,NJ,07724
2414,1580 ROUTE 9 NORTH,CAPE MAY COURT HOUSE,NJ,08210
2415,"1075 Stephenson Ave, Suite C",Oceanport,NJ,07757
2416,"1075 Stephenson Ave, Suite D2",Oceanport,NJ,07703
2417,106 S PERRY ST STE 3,WATKINS GLEN,NY,14891
2418,1 Exchange Place,Jersey City,NJ,07302
2419,1250 East Ridgewood Avenue,Ridgewood,NJ,07450
2420,128 Crest Haven Road,Middle Township,NJ,08210
2421,685 Neptune Blvd,Neptune,NJ,07753
2422,230 Neptune Blvd,Neptune City,NJ,07753
2423,1812 State Rt 33,Neptune,NJ,07753
2424,20 Powers Drive,Paramus,NJ,07652
2425,1 Sears Drive STE 402,Paramus,NJ,07652
2426,72 Morris Ave,Neptune,NJ,07753
2427,230 East Ridgewood Avenue,Paramus,NJ,07652
2428,1076 Route 47 South,Rio Grande,NJ,08242
2429,139 Centre St Suite 315,New York,NY,10013
2430,356 W 18th St.,New York,NY,10011
2431,"445 West 23rd Street, Suite 1EE",New York,NY,10011
2432,"450 West 24th Street, Suite 1B",New York,NY,10011
2433,422 Morris Ave Suite 7,Long Branch,NJ,07740
2434,"6601 Ventnor Ave, Suite 105",Ventnor City,NJ,08406
2435,601 Sunset Ave,Asbury Park,NJ,07712
2436,26 W 9th St. Suite 3D,New York,NY,10011
2437,"175 Remsen Street, 2nd FL",Brooklyn,NY,11201
2438,"175 Remsen Street, 10th Floor",Brooklyn,NY,11201
2439,411 Lafayette St. 6th Floor,New York,NY,10003
2440,19 Union Square West,New York,NY,10003
2441,500 Atlantic Ave,Brooklyn,NY,11217
2442,57 St. Mark's Place,New York,NY,10003
2443,51 E 25th St,New York,NY,10010
2444,"247 3rd Avenue, Suite 402",New York,NY,10010
2445,515 Madison Avenue Suite.3800B,New York,NY,10022
2446,1923 Bacharach Blvd,Atlantic City,NJ,08401
2447,380 2nd Ave,New York,NY,10010
2448,4 Main Street,Edgewater,NJ,07020
2449,"145 East 32nd Street, 6th Floor",New York,NY,10016
2450,3044 Coney Island Ave,Brooklyn,NY,11224
2451,2277-83 Coney Island Ave,Brooklyn,NY,11223
2452,"200 West 57th Street, Suite 1310",New York,NY,10019
2453,369 Lexington Ave. Suite 14A,New York,NY,10016
2454,"141 East 55th Street, Suite 4G",New York,NY,10022
2455,1913 Avenue Z,Brooklyn,NY,11235
2456,300 HIGH ST,SEAFORD,DE,19973
2457,53 W 86th St. Suite 1,New York,NY,10024
2458,239 Central Park W,New York,NY,10028
2459,942 5TH AVE,NEW YORK,NY,10021
2460,910 Park Avenue,New York,NY,10075
2461,3 EAST 85TH STREET,NEW YORK,NY,10028
2462,"122 East 82nd Street, Suite1b",New York,NY,10028
2463,21444 Carmean Way,Georgetown,DE,19947
2464,435 E 70th Street Suite 13C,New York,NY,10021
2465,"382 W. 9th St., Suite 2",Ship Bottom,NJ,08008
2466,60 North Madison Avenue,Spring Valley,NY,10977
2467,2 Lee Ave Unit 103,Georgetown,DE,19947
2468,754 Lexington Ave,Brooklyn,NY,11221
2469,20 E Patriot St,Somerset,PA,15501
2470,35 West Hudson Avenue,Englewood,NJ,07631
2471,224 Twin Lakes Road,Somerset,PA,15501
2472,1265 Wayne Avenue,Indiana,PA,15701
2473,20505 Dupont Highway,Georgetown,DE,19947
2474,20093 Office Circle Unit 207,GEORGETOWN,DE,19947
2475,189 W Lee Hwy,Warrenton,VA,20186
2476,865 Riverside Drive,New York,NY,10032
2477,501 W. Market St Suite 105,Georgetown,DE,19947
2478,505 West Market Street Suite 110,Georgetown,DE,19947
2479,2604 Third Ave,Bronx,NY,10454
2480,445 Westridge Road 103,Somerset,PA,15501
2481,7901 BROADWAY,ELMHURST,NY,11373
2482,83 N Main St.,Ellenville,NY,12428
2483,953 Southern Boulevard,Bronx,NY,10459
2484,12 Deforest Ct,West Nyack,NY,10994
2485,1 Market Place,Newark,NJ,07502
2486,620 Route 303,Blauvelt,NY,10913
2487,140 ROUTE 303 Suite I,VALLEY COTTAGE,NY,10989
2488,80-02 KEW GARDENS ROAD,KEW GARDENS,NY,11415
2489,137-50 JAMAICA AVE,JAMAICA,NY,11435
2490,15905 Union Turnpike,Fresh Meadows,NY,11366
2491,"20576 Coastal Highway, Suite 101",Rehoboth Beach,DE,19971
2492,12080 County Highway 21,Franklin,NY,13775
2493,327 BEACH 19TH STREET,FAR ROCKAWAY,NY,11691
2494,1037 Main St.,Peekskill,NY,10566
2495,280 DOBBS FERRY RD,WHITE PLAINS,NY,10607
2496,80-45 Winchester Boulevard,Queens Village,NY,11580
2497,"111 Great Neck Road, Suite 200",Great Neck,NY,11021
2498,"425 Northern Boulevard, Suite 27",Great Neck,NY,11021
2499,407 Gidney Ave Suite A,Newburgh,NY,12550
2500,172 Liberty Street,Newburgh,NY,12550
2501,1451 Broadway,Hewlett,NY,11557
2502,7 CROSS ST W,HAWTHORNE,NY,10532
2503,MOBILE UNIT,SILVER SPRING,PA,17575
2504,7 MOUNTAINVIEW ST,PETERSBURG,WV,26847
2505,79 ROBERT C BYRD INDUSTRIAL PARK,MOOREFIELD,WV,26836
2506,"9928 Old Ocean City Blvd, Suite 8",Berlin,MD,21811
2507,11827 Ocean Gateway,Ocean City,MD,21842
2508,845 SOUTH MAIN STREET,Willits,CA,95490
2509,5150 MAE ANNE AVE 300,Reno,NV,89523
2510,660 SOUTH MAIN STREET,Fort Bragg,CA,95437
2511,2858 Vista Boulevard,Sparks,NV,89434
2512,37264 MAIN STREET,Burney,CA,96013
2513,2601 BALLS FERRY ROAD,Anderson,CA,96007
2514,1070 EAST CYPRESS AVENUE,Redding,CA,96002
2515,2275 PINE STREET,Redding,CA,96001
2516,2925 Siskiyou Boulevard,Medford,OR,97504
2517,140 SOUTH HOLLY STREET,MEDFORD,OR,97504
2518,1003 MEDFORD SHOPPING CENTER,Medford,OR,97504
2519,200 BEATTY ST ROOM 109,Medford,OR,97501
2520,"2380 West Main Street, Suite A",Medford,OR,97501
2521,113 ROSS LANE,Medford,OR,97501
2522,3169 CRATER LAKE HIWAY,Medford,OR,97504
2523,"503 AIRPORT ROAD, STE 101",MEDFORD,OR,97504
2524,2555 HARRIS STREET,Eureka,CA,95503
2525,380 Court Street Suite A,Elko,NV,89801
2526,"215 Bluffs Avenue, Suite 200",Elko,NV,89801
2527,1515 7th Street,Elko,NV,89801
2528,3740 Idaho Street,Elko,NV,89801
2529,23 South Carbon Avenue Suite 21,Price,UT,84501
2530,672 W 400 S Suite. 201,Springville,UT,84663
2531,376 E 400 S,Springville,UT,84663
2532,"3152 North University Avenue, Suite 220",Provo,UT,84604
2533,234 N OREM BLVD,OREM,UT,84057
2534,"280 W River Park Drive, Suite 200",Provo,UT,84604
2535,245 S 1060 W,Lindon,UT,84042
2536,1472 East 820 North,Orem,UT,84097
2537,145 S 200 E,Lindon,UT,84042
2538,533 W Center St,Pleasant Grove,UT,84062
2539,74 S 360 E,American Fork,UT,84003
2540,61 W 3200 N Suite C,Lehi,UT,84043
2541,1008 North Summit Boulevard P.O. Box 2715,Frisco,CO,80443
2542,27152 MAIN STREET,Conifer,CO,80433
2543,3851 S. HIGHWAY 74,Evergreen,CO,80439
2544,2425 MINER STREET,Idaho Springs,CO,80452
2545,12442 W. Ken Caryl Ave.,Littleton,CO,80127
2546,40 COUNTRY RD 804,Fraser,CO,80442
2547,5025 S Kipling Pkwy,Littleton,CO,80127
2548,9255 S. Broadway,Highlands Ranch,CO,80129
2549,181 W. Mineral Ave,Littleton,CO,80120
2550,1701 Jackson Street,Golden,CO,80401
2551,12567 West Cedar Drive Suite 100,Lakewood,CO,80228
2552,12157 W. Cedar Dr. Suite 100,Lakewood,CO,80228
2553,"191 East Orchard Street, Suite A",Littleton,CO,80121
2554,9229 E. LINCOLN AVENUE,Lonetree,CO,80124
2555,3460 S. Federal Blvd,Englewood,CO,80110
2556,201 East Jefferson,Englewood,CO,80113
2557,9160 W Colfax Ave,Lakewood,CO,80215
2558,7375 E Arapahoe Road,Englewood,CO,80112
2559,7525 W. 10th Ave Ste.100,Lakewood,CO,80214
2560,1410 VANCE ST STE 201,LAKEWOOD,CO,80214
2561,1700 Wadsworth Blvd,Lakewood,CO,80214
2562,2150 South Downing,Denver,CO,80210
2563,"7730 East Belleview Avenue, Suite A-203",Greenwood Village,CO,80111
2564,895 S LOGAN ST,DENVER,CO,80209
2565,895 S LOGAN STREET,DENVER,CO,80209
2566,6505 S Paris Street,Centennial,CO,80111
2567,3900 WADSWORTH BLVD.,Wheat Ridge,CO,80033
2568,1653 S. Colorado Boulevard,Denver,CO,80222
2569,6460 E YALE AVE UNIT F,Denver,CO,80222
2570,2660 FEDERAL BLVD,Denver,CO,80211
2571,1120 Delaware Street Ste 110-4,Denver,CO,80204
2572,"1120 NORTH LINCOLN STREET, SUITE 1601",DENVER,CO,80203
2573,560 CORONA STREET,Denver,CO,80218
2574,90 Madison St. STE 102,Denver,CO,80206
2575,3800 WEST HAPPY VALLEY ROAD,Denver,CO,80211
2576,1490 Lafayette St Suite 407,Denver,CO,80218
2577,757 E 20TH AVE,Denver,CO,80205
2578,10700 East Bethany Dr. STE 104,AURORA,CO,80014
2579,3000 S JAMAICA CT STE 210,AURORA,CO,80014
2580,18748 E Hampden Ave.,Aurora,CO,80013
2581,"15101 East Iliff Avenue, Suite 140",AURORA,CO,80014
2582,1677 SOUTH HAVANA,Aurora,CO,80012
2583,1411 S POTOMAC UNIT 304,AURORA,CO,80012
2584,12200 E Mississippi Ave.,Aurora,CO,80012
2585,"200 QUEBEC ST., 400",Denver,CO,80230
2586,6220 EAST 14TH AVENUE,Denver,CO,80220
2587,7561 West 80th Avenue,Arvada,CO,80003
2588,8380 Zuni St Ste 305,Denver,CO,80221
2589,9025 GRANT ST STE 101,THORNTON,CO,80229
2590,771 Thornton Parkway,Thornton,CO,80229
2591,10300 Federal Boulevard,Federal Heights,CO,80260
2592,1601 Coalton Road,Superior,CO,80027
2593,3600 W 144th Ave.,Broomfield,CO,80023
2594,4720 Table Mesa Dr. Ste. B-100,Boulder,CO,80305
2595,5277 Manhattan Circle Ste 220,BOULDER,CO,80303
2596,4800 East Baseline Road,Boulder,CO,80303
2597,2798 Arapahoe Ave,Boulder,CO,80302
2598,3004 ARAPAHOE AVE,BOULDER,CO,80303
2599,5495 Arapahoe Ave. Suite 101 A,Boulder,CO,80303
2600,1605 Bridge Street,Brighton,CO,80601
2601,3333 Arapahoe Road b,Erie,CO,80516
2602,3325 28th Street,Boulder,CO,80301
2603,1300 Dexter Street,Fort Lupton,CO,80621
2604,8134 Colorado Blvd,Firestone,CO,80504
2605,1551 Professional Lane Suite 180,LONGMONT,CO,80501
2606,1050 Ken Pratt Boulevard,Longmont,CO,80501
2607,1308 VIVIAN ST,LONGMONT,CO,80501
2608,1632 Hover Road,Longmont,CO,80501
2609,821 E Railroad Ave,Fort Morgan,CO,80701
2610,620 West Platte Avenue,Fort Morgan,CO,80701
2611,146 Communication Drive,Hannibal,MO,63401
2612,727 Broadway St.,Quincy,IL,62301
2613,4409 Maine Street,Quincy,IL,62305
2614,331 S. Main Street,Virginia,IL,62691
2615,1027 North Water Street,Decatur,IL,62523
2616,1813 w Kirby Ave,champaign,IL,61821
2617,2455 E Main St. Suite 194,Plainfield,IN,46168
2618,65 AIRPORT PKWY STE 100,GREENWOOD,IN,46143
2619,898 EAST MAIN STREET,GREENWOOD,IN,46143
2620,7750 Madison Ave.,Indianapolis,IN,46227
2621,6357 Rockville Rd,Indianapolis,IN,46214
2622,"855 N High School Road, Suites 5 and 6",Indianapolis,IN,46214
2623,"3850 Shore Drive, Suite 105",Indianapolis,IN,46254
2624,2325 E New York St,Indianapolis,IN,46201
2625,"1730 N Capitol Ave Building C, 3rd FL.",Indianapolis,IN,46202
2626,1725 N Meridian St,Indianapolis,IN,46202
2627,3702 E. 10th St,Indianapolis,IN,46201
2628,2926 N Capitol Ave,Indianapolis,IN,46208
2629,5317 E. 16th Street,Indianapolis,IN,46218
2630,9660 E WASHINGTON ST STE 300,INDIANAPOLIS,IN,46229
2631,5422 N Keystone Ave,Indianapolis,IN,46220
2632,8770 Guion Road Suite B,Indianapolis,IN,46268
2633,3500 DEPAUW BLVD PYRAMID 2 STE 2082,INDIANAPOLIS,IN,46268
2634,8140 Castleton Road,Indianapolis,IN,46250
2635,8202 Clearvista Parkway Building 6 suite D,Indianapolis,IN,46250
2636,7320 E 82nd St,Indianpolis,IN,46208
2637,7320 East 82 Street,Indianapolis,IN,46256
2638,2705 North Lebanon St Suite 265,Lebanon,IN,46052
2639,12265 Hancock Street,Carmel,IN,46302
2640,703 Pro-Med Lane,Carmel,IN,46032
2641,18077 RIVER RD STE 200,NOBLESVILLE,IN,46062
2642,17840 Cumberland Road,Noblesville,IN,46060
2643,707 WEST 3RD STREET,CONNERSVILLE,IN,47331
2644,1941 VIRGINIA AVE,CONNERSVILLE,IN,47331
2645,1908 Park Road,Connersville,IN,47331
2646,MOBILE UNIT,LOUISVILLE,KY,40266
2647,930 North 14th Street,New Castle,IN,47362
2648,1044 Oak Drive,Richmond,IN,47374
2649,228 N Barron St,Eaton,OH,45320
2650,4925 Scatterfield Road,Anderson,IN,46013
2651,2200 Madison Square,Andrson,IN,46011
2652,5860 Main St,Clay City,KY,40312
2653,"7901 Schatz Pointe Drive, Suite B",Centerville,OH,45459
2654,8120 Garnet Drive,Dayton,OH,45458
2655,100 N Tillotson Ave,MUNCIE,IN,47304
2656,210 N. Tillotson Ave,Muncie,IN,47304
2657,124 E Main Street,Muncie,IN,47305
2658,1901 S Gettysburg Ave,Dayton,OH,45417
2659,110 E. Wysor St. (at Walnut Commons),Muncie,IN,47304
2660,2814 N Granville Ave,Muncie,IN,47303
2661,1 Elizabeth Place Suite NWB40,Dayton,OH,45417
2662,601 EDWIN C MOSES BLVD ELIZABETH PLACE FIRST FLR,DAYTON,OH,45417
2663,2611 WAYNE AVE BLDG 61,DAYTON,OH,45420
2664,452 W MARKET ST,XENIA,OH,45385
2665,36 N DETROIT RD STE 105,XENIA,OH,45385
2666,2365 Lakeview Drive,Beavercreek,OH,45431
2667,5 Fayette Center,Washington Court House,OH,43160
2668,323 N BROAD ST,FAIRBORN,OH,45324
2669,"888 Dayton Street, Suite 106",Yellow Springs,OH,45387
2670,72 N Dixie Dr,VANDALIA,OH,45377
2671,5735 Meeker Road,Greenville,OH,45331
2672,550 Summit Avenue,Troy,OH,45373
2673,651 S LIMESTONE ST,SPRINGFIELD,OH,45505
2674,120 W. Mulberry St,Springfiled,OH,45506
2675,201 N. Yellow Spring Street,Springfiled,OH,45504
2676,212 E MAIN ST,GREENVILLE,OH,45331
2677,210 North Main Street,London,OH,43140
2678,212 N Main St,London,OH,43140
2679,110 Highland Ave,Circleville,OH,43113
2680,848 Scioto Street,Urbana,OH,43078
2681,1101 N VANDEMARK RD,SIDNEY,OH,45365
2682,1220 W. Hunter Street,Logan,OH,43138
2683,30381 Chieftain Drive,Logan,OH,43138
2684,103 Cedar Hill Road,Lancaster,OH,43130
2685,209 North Main Street,New Lexington,OH,43764
2686,2541 Panther Drive,New Lexington,OH,43764
2687,3964 Hamilton Square Blvd.,Groveport,OH,43125
2688,100 Highview Blvd.,Columbus,OH,43207
2689,2813 Maysville Pike,Zanesville,OH,43701
2690,1675 S. High St.,Columbus,OH,43207
2691,"5320 East Main Street, Suite 800",Columbus,OH,43213
2692,4850 E. Main Street STE 110,Columbus,OH,43213
2693,1034 Harrisburg Pike,Columbus,OH,43223
2694,3242 E Main St 2nd Floor,Columbus,OH,43213
2695,441 Putnam Avenue,ZANESVILLE,OH,43701
2696,375 S. High Street,Columbus,OH,43215
2697,240 Parsons Ave.,Columbus,OH,43215
2698,"6495 East Broad Street, Suite H",Columbus,OH,43213
2699,1160 W BROAD ST,COLUMBUS,OH,43222
2700,5815 Westbourne Avenue,Columbus,OH,43213
2701,181 TAYLOR AVE,COLUMBUS,OH,43203
2702,200 Messimer Drive,Newark,OH,43055
2703,349 OLDE RIDENOUR ROAD,GAHANNA,OH,43230
2704,4660 Roberts Road,Columbus,OH,43229
2705,974 N 21ST ST,NEWARK,OH,43055
2706,58 N HIGH ST,NEW ALBANY,OH,43054
2707,"770 Jasonway Ave., Suite G-2",Columbus,OH,43215
2708,2975 Donnylane Boulevard,Columbus,OH,43235
2709,299 Cramer Creek Ct.,Dublin,OH,43017
2710,"495 Metro Place South, Suite 160",Dublin,OH,43017
2711,525 Metro Place N Suite 150A,Dublin,OH,43017
2712,246 E. Campus View Blvd.,Columbus,OH,43235
2713,2717 SAWBURY BOULEVARD,COLUMBUS,OH,43235
2714,841 STEUBENVILLE AVE,CAMBRIDGE,OH,43725
2715,216 Highland Avenue Suite A,Cambridge,OH,43725
2716,100 HOSPITAL DR. Suite 121 & 202,BARNESVILLE,OH,43713
2717,773 WALNUT ST,MARYSVILLE,OH,43040
2718,104 N. Main Street,Marysville,OH,43040
2719,610 WALNUT ST,COSHOCTON,OH,43812
2720,MOBILE UNIT,ZALESKI,OH,45698
2721,401 Guffey Street,Fairmont,WV,26554
2722,"1111 Van Voorhis Road, Suite J",Morgantown,WV,26505
2723,1195 Pineview Dr,Morgantown,WV,26505
2724,1005 White Willow Way,Morgantown,WV,26505
2725,68353 BANNOCK ROAD,SAINT CLAIRSVILLE,OH,43950
2726,2121 Eoff Street,Wheeling,WV,26003
2727,35 SW ST,WAYNESBURG,PA,15370
2728,305 Main Street,Claysville,PA,15323
2729,630 Cherry Tree Lane,Uniontown,PA,15401
2730,9-11 Veech Street,Uniontown,PA,15401
2731,100 New Salem Road Suite 106,Uniontown,PA,15401
2732,378 West Chestnut Street Suite 106,Washington,PA,15301
2733,"378 West Chestnut Street, Suite 103",Washington,PA,15301
2734,378 West Chestnut St. Suite 103,Washington,PA,15301
2735,75 E MAIDEN ST,WASHINGTON,PA,15301
2736,MOBILE UNIT,BRAVE,PA,15316
2737,90 Chamber Plaza,Charleroi,PA,15022
2738,800 Manor Drive,Washington,PA,15301
2739,416 Wilson Ave.,Washington,PA,15301
2740,5745 Henderson Avenue,Washington,PA,15301
2741,"508 South Church Street, Suite 201",Mt. Pleasant,PA,15666
2742,212 Snyder Road,Donegal,PA,15628
2743,2581 WASHINGTON ROAD BUILDING 200 SUITE 212,PITTSBURGH,PA,15241
2744,437 Railroad St,Bridgeville,PA,15017
2745,437 Railroad Street,Bridgeville,PA,15017
2746,"316 Station Street, Suite 100",Bridgeville,PA,15017
2747,451 Washington Avenue,Bridgeville,PA,15017
2748,218 S Maple Avenue,Greensburg,PA,15601
2749,203 S MAPLE AVE,GREENSBURG,PA,15601
2750,101 North Main Street Suite 200,Greensburg,PA,15601
2751,125 East Otterman Street 2nd FL,Greensburg,PA,15601
2752,125 East Otterman Street,Greensburg,PA,15601
2753,"766 East Pittsburgh Street, Suite 101",Greensburg,PA,15601
2754,101 Town Square Way 221,Pittsburgh,PA,15227
2755,"225 Margaret Avenue, Suite 3",Jeannette,PA,15644
2756,1037 Compass Circle,Greensburg,PA,15601
2757,212 Outlet Way Suite 1,Greensburg,PA,15601
2758,207 N 14th Street,Jeannette,PA,15644
2759,353 American Way,Weirton,WV,26062
2760,1800 West St. 3rd Floor,Homestead,PA,15120
2761,1016 Greentree Road,Pittsburgh,PA,15220
2762,20 Bailey Avenue,Pittsburgh,PA,15211
2763,20 Bailey Avenue Suite 200,Pittsburgh,PA,15211
2764,2500 Jane St,Pittsburgh,PA,15203
2765,809 Bingham Street,Pittsburgh,PA,15203
2766,MOBILE UNIT,SPRINGS,PA,15562
2767,MOBILE UNIT,ARTEMAS,PA,17211
2768,341 Story Rd.,Export,PA,15632
2769,787 Pine Valley Drive,Pittsburgh,PA,15239
2770,4105 MONROEVILLE BLVD,MONROEVILLE,PA,15146
2771,179 Columbus Avenue,Vandergrift,PA,15690
2772,400 Penn Center Blvd,Pittsburgh,PA,15235
2773,701 4TH AVE,NEW KENSINGTON,PA,15068
2774,943 4th Avenue,New Kensington,PA,15068
2775,1928 1/2 Murray Avenue,Pittsburgh,PA,15217
2776,301 11th Street Suite C,New Kensington,PA,15068
2777,"1900 Murray Avenue, Suite 303",Pittsburgh,PA,15217
2778,5818 Forbes Avenue,Pittsburgh,PA,15217
2779,1360 Old Freeport Road,Pittsburgh,PA,15238
2780,5608 Wilkins Avenue Suite 100,Pittburgh,PA,15217
2781,435 Shady Avenue 1st FL.,Pittsburgh,PA,15206
2782,6023 Harvard Street,Pittsburgh,PA,15206
2783,5601 Stanton Avenue,Pittsburgh,PA,15206
2784,200 Lothrop Street,Pittsburgh,PA,15213
2785,1517 Forbes Avenue,Pittsburgh,PA,15219
2786,200 Challenge Ln,Cheswick,PA,15024
2787,1401 Forbes Avenue,Pittsburgh,PA,15219
2788,3937 Butler Street,PITTSBURGH,PA,15201
2789,355 Fifth Avenue,Pittsburgh,PA,15222
2790,1307 Federal Street,Pittsburgh,PA,15212
2791,139 Wabash Street,Pittsburgh,PA,15220
2792,200 Oak Avenue,Kittanning PA,PA,16201
2793,575 Lincoln Avenue Suite LL1,Bellevue,PA,15202
2794,4955 Steubenville Pike Suite 365,Pittsburgh,PA,15205
2795,8 HATTMAN DR. Suite 2,CORAOPOLIS,PA,15108
2796,"5855 Steubenville Pike, Suite 101",McKees Rocks,PA,15136
2797,101 N MEADOWS DR STE 234,WEXFORD,PA,15090
2798,6200 Brooktree Rd. Ste 210,Wexford,PA,15090
2799,105 Bradford Road,Wexford,PA,15090
2800,993 Brodhead Road Suite 201A,Moon,PA,15108
2801,"301 Smith Drive, Unit 1",Cranberry Township,PA,16066
2802,422 Merchant Street,Ambridge,PA,15003
2803,200 South McKean Street,Butler,PA,16001
2804,117 South Mckean St,Butler,PA,16001
2805,2624 Rochester Road,Cranberry Township,PA,16066
2806,300 Hansen Avenue,Butler,PA,16045
2807,400 Woodlawn Road,Aliquippa,PA,15001
2808,1610 North Main Street,Butler,PA,16001
2809,2360 Hospital Drive,Aliquippa,PA,15001
2810,100 Moffett Run Road,Aliquippa,PA,15001
2811,234 Adams Street,Rocheseter,PA,15074
2812,373 Cleveland Street,Rochester,PA,15074
2813,1122 7th Avenue,Beaver Falls,PA,15010
2814,773 Pershing Street,Ellwood City,PA,16117
2815,16705 St. Clair Ave. Suite 303,East Liverpool,OH,43920
2816,722 West Shepard Lane,Farmington,UT,84025
2817,"440 South Medical Drive, Suite 4",Bountiful,UT,84010
2818,2493 South Wildcat Way B,Woods Cross,UT,84010
2819,521 N. Sportsplex Drive,Kaysville,UT,84037
2820,22 S State St 1007,Clearfield,UT,84015
2821,"77 South 700 East, Suite 220",Salt Lake City,UT,84102
2822,6000 S 1075 E,SOUTH OGDEN,UT,84405
2823,743 E 300 S,Salt Lake City,UT,84102
2824,850 East 300 South Unit 1,SALT LAKE CITY,UT,84102
2825,501 Chipeta Way,Salt Lake City,UT,84108
2826,150 East 700 South,Salt Lake City,UT,84111
2827,145 E. 1300 S. Suite 103,Salt Lake City,UT,84115
2828,2253 State St,Salt Lake City,UT,84115
2829,269 West 33rd St.,Ogden,UT,84403
2830,2240 Adams Ave,Ogden,UT,84404
2831,4141 S. Highland Drive 202,Holladay,UT,84124
2832,"4141 South Highland Drive, Suite 208",Holladay,UT,84124
2833,4659 S. Highland Dr.,Salt Lake City,UT,84117
2834,5296 S COMMERCE DR. STE 206,SALT LAKE CITY,UT,84107
2835,811 North Harrisville Road,Harrisville,UT,84404
2836,5770 S 250 E Suite 300 Building 5,Salt Lake City,UT,84103
2837,5980 S Fashion Blvd,MURRAY,UT,84107
2838,6770 S. 900 E. Ste. 100,Midvale,UT,84047
2839,1745 W 7800 S,West Jordan,UT,84088
2840,7613 S JORDAN LANDING BLVD,WEST JORDAN,UT,84084
2841,8375 S 700 E,SANDY,UT,84070
2842,2945 E ROBIDOUX RD,SANDY,UT,84093
2843,8446 S Harrison St.,Midvale,UT,84047
2844,8686 S 1300 E STE L-103,Sandy,UT,84094
2845,9103 S. 1300 W.,West Jordan,UT,84088
2846,2945 East Turning Point Circle,Sandy,UT,84092
2847,"11762 South State Street, Suite 360",Draper,UT,84020
2848,"668 EAST 12225 SOUTH, SUITE 203",DRAPER,UT,84020
2849,1450 E PIONEER RD,DRAPER,UT,84020
2850,13953 S BANGERTER PKWY,DRAPER,UT,84020
2851,2973 W 13800 S,Bluffdale,UT,84065
2852,550 East 1400 NO Suite V,Logan,UT,84341
2853,"1680 West Highway 40, Suite 202",Vernal,UT,84078
2854,1140 W 500 S,Vernal,UT,84078
2855,150 W 100 N. South 104,Vernal,UT,84078
2856,520 Wilkes Drive Suite 13,Green River,WY,82935
2857,330 EAST BENTON ST,Pocatello,ID,83201
2858,611 Wilson Ave. Suite 5,Pocatello,ID,83201
2859,2620 Commercial Way 20,Rock Springs,WY,82901
2860,390 Yampa Ave,Craig,CO,81625
2861,37500 E US HIGHWAY 40 881030,Steamboat Springs,CO,80487
2862,320 Oak Street,Steamboat Springs,CO,80477
2863,1250 N Wilson Ave.,Loveland,CO,80537
2864,302 3rd St. SE 150,Loveland,CO,80537
2865,860 Cleveland_avenue,Loveland,CO,80537
2866,3519 Richmond Drive,FORT COLLINS,CO,80526
2867,2160 West Drake Road Unit 6,Fort Collins,CO,80526
2868,1426 E. Harmony Road,Fort Collins,CO,80525
2869,1535 Main Street,Windsor,CO,80550
2870,1120 E ELIZABETH ST,FORT COLLINS,CO,80524
2871,4548 Centerplace Dr,Greeley,CO,80634
2872,2930 11TH AVE,EVANS,CO,80620
2873,3400 W 16TH ST STE 1-DD,GREELEY,CO,80634
2874,3526 West Tenth Street,Greeley,CO,80634
2875,1010 A St.,GREELEY,CO,80631
2876,1555 N 17th Ave,Greeley,CO,80631
2877,1300 N 17th Ave,Greeley,CO,80631
2878,1944 ILLINOIS STREET,Sidney,NE,69162
2879,611 NORTH SPRUCE STREET,Ogallala,NE,69153
2880,"1932 Aspen Circle, Suite G",Grand Island,NE,68803
2881,"3901 Pinelake Road, Suite 410",Lincoln,NE,68526
2882,9100 Andermatt Dr Suite 1,Lincoln,NE,68526
2883,600 North Cotner Blvd. Ste. 101,Lincoln,NE,68505
2884,310 W Main St.,Ottumwa,IA,52501
2885,1601 W. Jackson Street Suite 104,Macomb,IL,61455
2886,11 South Capitol Street,Pekin,IL,61554
2887,5401 NORTH KNOXVILLE AVENUE SUITE 215,PEORIA,IL,61614
2888,5409 N Knoxville Ave,Peoria,IL,61614
2889,2201 E OAKLAND AVE,Bloomington,IL,61701
2890,4 Doctors Park,Gibson city,IL,60936
2891,310 East Torrence Avenue,Pontiac,IL,61764
2892,716 S College Ave,Rensselaer,IN,47978
2893,475 Brown Blvd. Ste103,Bourbonnais,IL,60914
2894,MOBILE UNIT,LOUISVILLE,KY,40211
2895,3728 S Reed Rd,Kokomo,IN,46902
2896,"1542 South Dixon Road, Suite C",Kokomo,IN,46902
2897,MOBILE UNIT,WESTPORT,KY,40077
2898,4761 OH 29,Celina,OH,45822
2899,1191 Westwood Drive,Van Wert,OH,45891
2900,4879 US Highway 68 S,West Liberty,OH,43357
2901,4879 US HIGHWAY 68 SOUTH,WEST LIBERTY,OH,43357
2902,MOBILE UNIT,UPPER BLACK EDDY,PA,18972
2903,6 GLENVILLE ST,GREENWICH,CT,06831
2904,"500 West Putnam Avenue, Suite 400",Greenwich,CT,06830
2905,500 West Putnam Ave,Greenwich,CT,06830
2906,176 N VILLAGE AVE,ROCKVILLE CENTRE,NY,11570
2907,"175 Fulton Avenue, Suite 300",Hempstead,NY,11550
2908,"55 Maple Avenue, Suite 102",Rockville Centre,NY,11570
2909,153 Main St Suite E,Kisco,NY,10549
2910,"2000 Maple Hill Road, Suite 101",Yorktown,NY,10598
2911,2-12 West Park Avenue Suite 200,Long Beach,NY,11561
2912,3630 Hill Blvd,Jefferson Valley,NY,10535
2913,91 Guy Lombardo Ave,Freeport,NY,11520
2914,2001 WEST MAIN STREET,STAMFORD,CT,06902
2915,6800 Jericho Tpke,Syosset,NY,11791
2916,"30 Buxton Farm Road, Suite 140",Stamford,CT,06905
2917,10 Mc Mahon Place,Mahopac,NY,10541
2918,"572 Route 6, Suite 2",Mahopac,NY,10541
2919,4200 Sunrise Hwy,Massapequa,NY,11758
2920,727 N. Braodway Suite B1,Massapequa,NY,11758
2921,672 Stoneleigh Avenue C-116,Carmel,NY,10512
2922,677 Connecticut Avenue,Norwalk,CT,06854
2923,1323 U.S. 9 204,WAPPINGERS FALLS,NY,12590
2924,37 John Street,Amityville,NY,11701
2925,2424 Route 6,Brewster,NY,10509
2926,372 DANBURY ROAD,WILTON,CT,06897
2927,"162 Kings Highway North, Suite A",Westport,CT,06880
2928,38 Old Ridgebury Road,Danbury,CT,06810
2929,"728 Post Road East, Suite 205",Westport,CT,06880
2930,106 Vineyard Avenue,Highland,NY,12528
2931,75 Washington Street,Poughkeepsie,NY,12601
2932,1444 5th Avenue,Bay Shore,NY,11706
2933,300 Motor Pkwy Suite 110,Hauppauge,NY,11788
2934,1 Padanaram Rd,Danbury,CT,06811
2935,24 Shelter Rock Rd.,Danbury,CT,06810
2936,5 Golden Lane,Kerhonkson,NY,12446
2937,7 Old Sherman Tpke. Suite 102,Danbury,CT,06810
2938,6 Stony Hill Road,Bethel,CT,06801
2939,18 West Road,Pleasant Valley,NY,12569
2940,525 Tunxis Hill Cut Off,Fairfield,CT,06825
2941,246 Federal Rd,Brookfield,CT,06804
2942,1677 EAST MAIN STREET,BRIDGEPORT,CT,06608
2943,"3920 Veterans Memorial Highway, Suite 5B",Bohemia,NY,11716
2944,141A Danbury Road,New Milford,CT,06776
2945,200 East Main Street,Stratford,CT,06614
2946,100 GRANNY RD,FARMINGVILLE,NY,11738
2947,"107 North Ocean Avenue, Suite G",Patchogue,NY,11772
2948,"3251 Route 112, Building 9 Suite 2",Medford,NY,11763
2949,215 N Broad St Unit 2W,Milford,CT,06460
2950,71 Serenity Hill Road,Rhineback,NY,12572
2951,547 South Country Road,East Patchogue,NY,11772
2952,109 Boston Post Road,Orange,CT,06477
2953,2 Coraci Blvd Suite 15,Shirley,NY,11967
2954,636 Campbell Avenue,West Haven,CT,06516
2955,42084 STATE HIGHWAY 28,MARGARETVILLE,NY,12455
2956,1235 MONTAUK HWY,MASTIC,NY,11950
2957,915 Ella T. Grasso Blvd,New Haven,CT,06519
2958,1427 Chapel St,New Haven,CT,06511
2959,64 Thompson St Suite A106,East Haven,CT,06513
2960,"941 Grand Avenue, 2nd Floor",New Haven,CT,06511
2961,6 Jennifer Ct,Center Moriches,NY,11934
2962,1700 Dixwell Avenue,Hamden,CT,06514
2963,969 West Main St.,Waterbury,CT,06708
2964,830 SHERMAN AVE,HAMDEN,CT,06514
2965,2337 Whitney Avenue,Hamden,CT,06518
2966,279 Chase Ave.,Waterbury,CT,06704
2967,506 Frost Rd,Waterbury,CT,06705
2968,163 Universal Drive North,North Haven,CT,06473
2969,66 N. Main St.,Branford,CT,06405
2970,317 Foxon Rd.,East Haven,CT,06513
2971,1327 Meriden Road,Wolcott,CT,06716
2972,2 Broadway,N. Haven,CT,06473
2973,420 East Main St Suite 13,Branford,CT,06405
2974,58 High Street,Torrington,CT,06790
2975,21 Prospect St.,Torrington,CT,06790
2976,212 West Main Street,Riverhead,NY,11901
2977,1753 Meriden-Waterbury Turnpike,Milldale,CT,06467
2978,277 Main St,Torrington,CT,06790
2979,1228 E. Main St. Suite A,Riverhead,NY,11901
2980,7 Seafield Lane,Westhampton,NY,11978
2981,10 North Main Street,Bristol,CT,06010
2982,"85 Barnes Rd, Suite 202",Wallingford,CT,06492
2983,202 Queen Street,Bristol,CT,06010
2984,187 South Canaan Road,Canaan,CT,06018
2985,832 Queen Street,Southington,CT,06489
2986,883 PADDOCK AVENUE,MERIDEN,CT,06450
2987,350 Power Avenue,Hudson,NY,12534
2988,320 West Montauk Highway,Hampton Bays,NY,11946
2989,91 Northwest Drive,Plainville,CT,06062
2990,"71 Bradley Rd, Suite 10",Madison,CT,06443
2991,17 Wall St.,Madison,CT,06443
2992,75 North Mountain Road,New Britain,CT,06053
2993,33 Lexington Street,New Britain,CT,06052
2994,"279 New Britain Road, Suite A",Berlin,CT,06037
2995,"54 West Avon Road, Suite 101",Avon,CT,06001
2996,"365 Willard Avenue, Suite 2D",Newington,CT,06111
2997,60 Cottage Street,Great Barrington,MA,01230
2998,1250 SILVER STREET,MIDDLETOWN,CT,06457
2999,"546 Cromwell Avenue, Suite 101",Rocky Hill,CT,06067
3000,365 County Rd 39A STE.11,Southampton,NY,11968
3001,43-49 Woodland St,Hartford,CT,06105
3002,85 GILLETT STREET,HARTFORD,CT,06105
3003,330 Main Street,Hartford,CT,06106
3004,12-14 Weston St.,Hartford,CT,06120
3005,341 Boston Post Road,Old Saybrook,CT,06475
3006,828 Sullivan Ave. Suite A,South Windsor,CT,06074
3007,30 West Main Street,Niantic,CT,06333
3008,"70 Court Street, Suite 3",Westfield,MA,01085
3009,"174 South Rd, Suite 125",Enfield,CT,06082
3010,152 North St Suite 250,Pittsfield,MA,01201
3011,53 Eagle St 4th Floor,Pittsfield,MA,01201
3012,37 Camp Mooween Road,Lebanon,CT,06249
3013,16 Main Street,Ellington,CT,06029
3014,1 Alton rd,Albany,NY,12203
3015,932 Bank St,New London,CT,06320
3016,41 Faire Harbour Place,New London,CT,06320
3017,21 Montauk Avenue,New London,CT,06320
3018,21 Montauk Avenue,New London,CT,06320
3019,900 Memorial Avenue,West Springfield,MA,01089
3020,"1985 Main Street, Suite E",Springfield,MA,01103
3021,"125 Liberty Street, Suite 205",Springfield,MA,01103
3022,618 Poquonnock Road,Groton,CT,06340
3023,317 Longhill Road,Groton,CT,06440
3024,40 Crane Avenue,East Longmeadow,MA,01028
3025,113 Salem Turnpike,Norwich,CT,06380
3026,616 Goldstar Highway,Groton,CT,06340
3027,141 East Main Street,Chicopee,MA,01020
3028,1515 Allen St,Springfield,MA,01118
3029,575 Beech St. Suite 404,Holyoke,MA,01040
3030,47 Town Street,Norwich,CT,06360
3031,47 Town Street,Norwich,CT,06360
3032,1724 5th Avenue,Troy,NY,12180
3033,306 RACE STREET,HOLYOKE,MA,01040
3034,230 Maple St,Holyoke,MA,01040
3035,728 State Street,Schenectady,NY,12305
3036,514 Vischers Ferry Road,Clifton Park,NY,12065
3037,91 Voluntown Road,Pawcatuck,CT,06379
3038,1448 North Main Street,Palmer,MA,01069
3039,85 Beach St Building B Upper Level,Westerly,RI,02891
3040,86 Beach St,Westerly,RI,02891
3041,116 Granite Street,Westerly,RI,02891
3042,124 American Legion Drive,North Adams,MA,01247
3043,558 Norwich Rd.,Plainfield,CT,06374
3044,MOBILE UNIT,HILLSBORO,OH,45133
3045,212 E Columbus Ave,Bellfontaine,OH,43311
3046,2211 Timber Trail,Bellfontaine,OH,43311
3047,125 Executive Drive Suite 201,Marion,OH,43302
3048,827 North Main Street,Marion,OH,43302
3049,106 E Gambier St,Mt. Vernon,OH,43050
3050,1451 YAUGER RD STE 1H,MOUNT VERNON,OH,43050
3051,799 S MAIN ST 2ND FLR,LIMA,OH,45804
3052,517 S Main St,Lima,OH,45804
3053,14 East Main St,Danville,OH,43014
3054,210 N. Walnut Street,Bucyrus,OH,44820
3055,"270 Sterkel Blvd, Suite A",Mansfield,OH,44907
3056,390 Marion Ave,Mansfield,OH,44903
3057,600 W 3RD ST,MANSFIELD,OH,44906
3058,200 Park Avenue West,Mansfield,OH,44902
3059,1624 TIFFIN AVE STE D,FINDLAY,OH,45840
3060,1344 W. Seneca Ave,Tiffin,OH,44883
3061,76 ASHWOOD DRIVE,TIFFIN,OH,44883
3062,309 Arthur St,Ashland,OH,44805
3063,204 2nd Street NE,New Philadelphia,OH,44663
3064,1433 Fifth St NW,New Philadelphia,OH,44663
3065,897 E. Iron Ave,Dover,OH,44622
3066,127 East Liberty,Wooster,OH,44691
3067,1660 Nave Road Southeast,Massillon,OH,44646
3068,3545 Lincoln Way E,Massillon,OH,44646
3069,4418 22nd Street NW,Canton,OH,44708
3070,832 McKinley Avenue,CANTON,OH,44703
3071,4661 Belpar Street NW,Canton,OH,44718
3072,737 Bank St,Lodi,OH,44254
3073,5930 Mayfair Road,North Canton,OH,44720
3074,205 Wadsworth Rd,Wadsworth,OH,44281
3075,185 Wadsworth Rd Suite C,Wadsworth,OH,44281
3076,"3300 Greenwich Rd, Suite 14",Norton,OH,44203
3077,3445 South Main St,Akron,OH,44319
3078,40722 STATE ROUTE 154,LISBON,OH,44432
3079,2789 E State St Suite 7,Salem,OH,44460
3080,111 South Milton Street,New Castle,PA,16101
3081,210 West Washington Street,New Castle,PA,16101
3082,960 West State Street Suite 110,Alliance,OH,44601
3083,1390 South Arch Street,Alliance,OH,44601
3084,3124 WILMINGTON RD STE 304,NEW CASTLE,PA,16105
3085,3411 Wilmington Rd,New Castle,PA,16105
3086,5385 Market Street,Boardman,OH,44512
3087,726 WICK AVE,YOUNGSTOWN,OH,44505
3088,104 JAVIT CT,YOUNGSTOWN,OH,44515
3089,5760 PATRIOT BLVD,AUSTINTOWN,OH,44515
3090,3132 Belmont Ave,Youngstown,OH,44505
3091,475 M STREET,Crescent City,CA,95531
3092,601 BROADWAY,Scottsbluff,NE,69361
3093,8901 Indian Hills Drive Suite 350-B,Omaha,NE,68114
3094,930 South 48th St.,Omaha,NE,68106
3095,2808 NORTH 75TH STREET,OMAHA,NE,68134
3096,4001 Leavenworth St. Suite 150A,Omaha,NE,68105
3097,"4242 Farnam Street, Suite 142",Omaha,NE,68131
3098,4908 FRANKLIN AVE,DES MOINES,IA,50310
3099,1223 Center St. Suite 22,Des Moines,IA,50309
3100,"1200 University Avenue, Suite 106",Des Moines,IA,50314
3101,1555 S. East Delaware Ave. suite M,Ankeny,IA,50021
3102,"3811 North Harrison Street, Suite 600",Davenport,IA,52806
3103,2010 1ST ST STE A,Moline,IL,61265
3104,2970 Chartres st.,LaSalle,IL,61301
3105,108 S 4th St,Clinton,IA,52732
3106,218 W Madison St.,Ottawa,IL,61350
3107,1300 W 2ND ST,ROCK FALLS,IL,61071
3108,425 East US Route 6,MORRIS,IL,60450
3109,121 Robert P Weidling Drive,Wilmington,IL,60481
3110,105 S 1st St,Wilmington,IL,60481
3111,2051 RIDGE ROAD,Minooka,IL,60447
3112,333 W Evergreen St.,Manteno,IL,60950
3113,2400 Glenwood Ave.,Joliet,IL,60435
3114,229 N Hammes Ave,Joliet,IL,60435
3115,1106 Neal Avenue,Joliet,IL,60433
3116,2480 S ROUTE 59,Plainfield,IL,60586
3117,801 North Larkin Avenue Suite 101,Joliet,IL,60435
3118,1535 N LARKIN AVE,Joliet,IL,60435
3119,3795 ORCHARD RD,Oswego,IL,60543
3120,475 NELSON RD,New Lenox,IL,60451
3121,20 S WEBER RD,Romeoville,IL,60446
3122,2530 US HIGHWAY 30,Oswego,IL,60543
3123,16625 WEST 159TH STREET,Lockport,IL,60441
3124,21152 S LA GRANGE RD,Frankfort,IL,60423
3125,1950 W. GALENA BLVD,Aurora,IL,60506
3126,17930 WOLF RD,Orland Park,IL,60467
3127,2855 95TH ST,Naperville,IL,60564
3128,751 Aurora Road,Aurora,IL,60505
3129,1200 W BOUGHTON RD,Bolingbrook,IL,60440
3130,10745 165th St.,Orland Park,IL,60467
3131,400 Mercy Ln,Aurora,IL,60506
3132,323 Quadrangle Drive,Bolingbrook,IL,60440
3133,14200 S BELL ROAD,Homer Glen,IL,60491
3134,1157 NORTH EOLA ROAD,Aurora,IL,60502
3135,3240 CHICAGO RD.,South Chicago Heights,IL,60411
3136,17113 HARLEM AVE.,Tinley Park,IL,60477
3137,14315 S 108TH AVE STE 215,ORLAND PARK,IL,60467
3138,852 South West Street,Naperville,IL,60540
3139,852 S WEST ST,NAPERVILLE,IL,60540
3140,1225 S NAPER BLVD,Naperville,IL,60540
3141,1276 N MAIN ST,Crown Point,IN,46307
3142,805 JOLIET ST,Dyer,IN,46311
3143,3153 183RD ST,Homewood,IL,60430
3144,8601 Connecticut Street,Merrillville,IN,46410
3145,9150 E 109th Ave,Crown Point,IN,46307
3146,7805 Taft St,Merrillville,IN,46410
3147,17705 HALSTED ST,HOMEWOOD,IL,60430
3148,5610 159TH ST.,Oak Forest,IL,60452
3149,8242 Calumet Avenue,Munster,IN,46321
3150,15400 S. PAGE,HARVEY,IL,60426
3151,9650 W 131ST ST,Palos Park,IL,60464
3152,12803 S HARLEM AVE,Palos Heights,IL,60463
3153,11925 S. Harlem Ave.,Palos Heights,IL,60463
3154,3243 W 115TH STREET,Merrionette Park,IL,60803
3155,2490 Central Ave,Lake Station,IN,46405
3156,3564 SCOTTSDALE ST,PORTAGE,IN,46368
3157,2317 75TH ST,Woodridge,IL,60517
3158,7329 CASS AVE,Darien,IL,60561
3159,4239 95th st.,oak lawn,IL,60453
3160,8801 S RIDGELAND,Oak Lawn,IL,60453
3161,6215 MAIN STREET,Downers Grove,IL,60516
3162,"1335 N MILL ST, STE 260",NAPERVILLE,IL,60563
3163,1560 Wall St. Suite 304,Naperville,IL,60563
3164,1655 E 95TH ST,Chicago,IL,60617
3165,280 Shuman Rd Suite 190,Naperville,IL,60563
3166,8507 S. Stony Island,Chicago,IL,60617
3167,50 E OGDEN AVE,Westmont,IL,60559
3168,30 DANADA SQUARE WEST,Wheaton,IL,60189
3169,7530 S STONY ISLAND AVE,Chicago,IL,60649
3170,6107 SOUTH ARCHER AVENUE,Chicago,IL,60638
3171,129 S RANDALL ROAD,Batavia,IL,60510
3172,"364 w 64th st, Suite 305",Chicago,IL,60625
3173,507 E WOODLAWN AVE,La Grange Park,IL,60526
3174,407 W Indiana Ave,Chesterton,IN,46304
3175,6014 S COTTAGE GROVE AVE,Chicago,IL,60637
3176,177 E ROOSEVELT RD,West Chicago,IL,60185
3177,599 ROOSEVELT RD,Glen Ellyn,IL,60137
3178,1177 S. MAIN ST.,Lombard,IL,60148
3179,4163 S Archer Ave,Chicago,IL,60632
3180,7201 W 24TH ST,North Riverside,IL,60546
3181,942 S YORK ST,Elmhurst,IL,60126
3182,2031 NORTH MAIN ST,Wheaton,IL,60187
3183,31 E. SAINT CHARLES RD.,VILLA PARK,IL,60181
3184,210 S 5th St 10,St Charles,IL,60174
3185,"2001 South California Avenue, Suite 100",Chicago,IL,60608
3186,2630 S Wabash Ave.,Chicago,IL,60616
3187,610 S MAPLE AVE,OAK PARK,IL,60304
3188,2535 S MARTIN LUTHER KING DR,CHICAGO,IL,60616
3189,451 Dunham Rd Ste 300,St Charles,IL,60174
3190,153 SCHILLER ST,Elmhurst,IL,60126
3191,1220 S ASHLAND AVE,Chicago,IL,60608
3192,"386 North York Road, Suite 100",Elmhurst,IL,60126
3193,1340 S CANAL ST,Chicago,IL,60607
3194,1224 S WABASH AVE,Chicago,IL,60605
3195,760 W. ARMY TRAIL RD.,Carol Stream,IL,60188
3196,2164 BLOOMINGDALE RD,Glendale Heights,IL,60139
3197,225 West Washington Street,Chicago,IL,60606
3198,160 N WACKER DR FLOOR 2,CHICAGO,IL,60606
3199,"25 East Washington, Suite 904",Chicago,IL,60602
3200,370 N DESPLAINES ST,Chicago,IL,60661
3201,"180 North Stetson Avenue, Suite 3500",Chicago,IL,60601
3202,310 West Chicago Avenue,Chicago,IL,60654
3203,10176 W 400 N Suite C,Michigan City,IN,46360
3204,1343 N. PAULINA ST.,Chicago,IL,60622
3205,424 W DIVISION ST,Chicago,IL,60610
3206,125 E STEARNS RD,Bartlett,IL,60103
3207,471 Briargate Drive,South Elgin,IL,60177
3208,1054 Norwood Lane,Bartlett,IL,60103
3209,343 W IRVING PARK RD,Wood Dale,IL,60191
3210,2550 N CLYBOURN AVE,Chicago,IL,60614
3211,2437 N SOUTHPORT AVE,CHICAGO,IL,60614
3212,375 RANDALL RD,South Elgin,IL,60177
3213,714 Lincolnway,La Porte,IN,46350
3214,2940 N ASHLAND AVE,Chicago,IL,60657
3215,4734 N CUMBERLAND AVE,Chicago,IL,60656
3216,3400 N WESTERN AVE,Chicago,IL,60618
3217,4660 W. IRVING PARK ROAD,Chicago,IL,60641
3218,3934 North Lincoln Avenue,Chicago,IL,60613
3219,7342 W FOSTER AVE,Chicago,IL,60656
3220,1151 S. ROSELLE RD.,Schaumburg,IL,60193
3221,4032 W FOSTER AVE,Chicago,IL,60630
3222,2936 Frontage Road,Warsaw,IN,46580
3223,MOBILE UNIT,NEW PARIS,OH,45347
3224,1909 CAREW STREET,FORT WAYNE,IN,46805
3225,423 Airport North Office Park,Fort Wayne,IN,46825
3226,6017 Stoney Creek Dr,Fort Wayne,IN,46825
3227,3464 Stellhorn Rd,Fort Wayne,IN,46815
3228,310 E. Dupont Road,Fort Wayne,IN,46825
3229,"1004 Parkway Avenue, Suite E",Elkhart,IN,46516
3230,1951 Oak St,Niles,MI,49120
3231,5532 N CLARK ST,Chicago,IL,60640
3232,511 Perry Street,Defiance,OH,43512
3233,201 E Second St,Defiance,OH,43512
3234,1254 S Main St,Bryan,OH,43506
3235,1895 OAKWOOD AVENUE,NAPOLEON,OH,43545
3236,6270 West Main Street,Eau Claire,MI,49111
3237,735 Haskins Rd,Bowling Green,OH,43402
3238,1010 N. Prospect St. Suite 56,Bowling Green,OH,43402
3239,800 Commerce Dr. Suite 115,Perrysburg,OH,43551
3240,885 Commerce Drive,Perrysburg,OH,43551
3241,"1103 Village Square Drive, Suite 205",Perrysburg,OH,43551
3242,1655 Holland Rd. Suite F,Maumee,OH,43537
3243,675 BARTSON RD,FREMONT,OH,43420
3244,115 S Reynolds Rd,Toledo,OH,43615
3245,111 S Byrne,Toledo,OH,43615
3246,402 W McPherson Hwy,Clyde,OH,43410
3247,905 Nebraska Ave,Toledo,OH,43607
3248,3425 Executive Parkway Suite 207,Toledo,OH,43606
3249,3909 Woodley Rd.,Toledo,OH,43606
3250,1832 ADAMS ST SECOND FLR,TOLEDO,OH,43604
3251,"370 East CHICAGO ST, SUITE 200",COLDWATER,MI,49036
3252,1200 N. Main St,Adrian,MI,49221
3253,8765 Lewis Ave,Temperance,MI,48182
3254,MOBILE UNIT,SOUTH CHARLESTON,OH,45368
3255,1925 HAYES AVE,SANDUSKY,OH,44870
3256,420 Superior St.,Sandusky,OH,44870
3257,420 Superior St.,Sandusky,OH,44870
3258,335 BUCKEYE BOULEVARD,PORT CLINTON,OH,43452
3259,"60 South Pleasant Street, Suite B",Oberlin,OH,44074
3260,538 W. Liberty St.,Medina,OH,44256
3261,4800 Ledgewood Dr.,Medina,OH,44256
3262,1882 East 32nd Street,Lorain,OH,44055
3263,"484 South Miller Road, Suite 201",Fairlawn,OH,44333
3264,49 EAST GLENWOOD AVENUE,AKRON,OH,44304
3265,999 North Main St,Akron,OH,44310
3266,2015 State Rd Suite A,Cuyahoga Falls,OH,44223
3267,6929 W 130th St. Suite 307,Parma Heights,OH,44130
3268,"20800 Westgate Professional Center, Suite 200",Fairview Park,OH,44126
3269,20800 Center Ridge Rd. Suite 410,Rocky River,OH,44116
3270,MOBILE UNIT,NEW LEXINGTON,OH,43764
3271,175 E Broad St,Newton Falls,OH,44444
3272,"6001 Cochran Road, Suite 404",Solon,OH,44139
3273,8411 Broadway Ave,Cleveland,OH,44105
3274,8411 BROADWAY AVE,CLEVELAND,OH,44105
3275,1730 West 25th Street,Cleveland,OH,44113
3276,3789 S Green Rd,Beachwood,OH,44122
3277,23350 MERCANTILE RD,Beachwood,OH,44122
3278,1320 WASHINGTON AVE,CLEVELAND,OH,44113
3279,29 North Road,Niles,OH,44446
3280,2351 E. 22nd St.,Cleveland,OH,44115
3281,2351 E 22ND ST,CLEVELAND,OH,44115
3282,716 Tod Avenue Southwest,Warren,OH,44485
3283,25201 Chagrin Blvd,Beachwood,OH,44122
3284,2916 Central Ave,Cleveland,OH,44115
3285,1977 NILES ROAD SE,WARREN,OH,44484
3286,1804 East 55th Street,Cleveland,OH,44103
3287,1924 East Market St,Warren,OH,44483
3288,8251 Mayfield Rd Suite 105,Chesterland,OH,44026
3289,9083 Mentor Ave,Mentor,OH,44060
3290,MOBILE UNIT,WAYNESBURG,PA,15370
3291,1167 Belmar Rd.,FRANKLIN,PA,16323
3292,Downtown Mall,Meadville,PA,16335
3293,900 WATER STREET,MEADVILLE,PA,16335
3294,2801 C Court,Ashtabula,OH,44004
3295,514 West 3rd Avenue,Warren,PA,16365
3296,7176 W Ridge Rd,Fairview,PA,16415
3297,MOBILE UNIT,GARRETT,PA,15542
3298,116 Interstate Parkway,Bradford,PA,16701
3299,MOBILE UNIT,MERCERSBURG,PA,17236
3300,MOBILE UNIT,SEVEN VALLEYS,PA,17360
3301,MOBILE UNIT,MENDENHALL,PA,19357
3302,115 E 7TH,Grants Pass,OR,97526
3303,246 W MONROE ST,Burns,OR,97720
3304,267 North Canyon Drive,Gooding,ID,83330
3305,605 11th Ave,Gooding,ID,83330
3306,528 NORTH MAIN ST,Mountain Home,ID,83647
3307,500 East Third Street,Alliance,NE,69301
3308,302 W. Phillip Ave.,Norfolk,NE,68701
3309,2520 Glenn Ave.,Sioux City,IA,51106
3310,714 LINCOLN ST NE,LE MARS,IA,51031
3311,101 E. J Avenue Suite 120,GRUNDY CENTER,IA,50638
3312,209 East San Marnan Drive,Waterloo,IA,50702
3313,3362 University Ave.,Waterloo,IA,50701
3314,1010 W Fairway Dr,Freeport,IL,61032
3315,122 N. Main Street,Cuba City,WI,53801
3316,5504 N 2nd Street,Loves Park,IL,61111
3317,1028 1st Center Ave,Broadhead,WI,53520
3318,1670 LARKIN AVE.,Elgin,IL,60123
3319,Two American Way,Elgin,IL,60120
3320,1038 SUMMIT STREET,Elgin,IL,60120
3321,2503 W SCHAUMBURG RD,Schaumburg,IL,60194
3322,1650 Moon Lake Boulevard,Hoffman Estates,IL,60169
3323,1776 Moon Lake Boulevard,Hoffman Estates,IL,60169
3324,5911 NW HWY STE 207,CRYSTAL LAKE,IL,60014
3325,1489 PALATINE RD,Hoffman Estates,IL,60192
3326,145 S Virginia Street,Crystal Lake,IL,60014
3327,6140 NORTHWEST HWY,Crystal Lake,IL,60014
3328,422 Tracy Court,Crystal Lake,IL,60014
3329,150 W MAIN ST,Barrington,IL,60010
3330,800 NW HWY,Fox River Grove,IL,60021
3331,1480 LEE ST,Des Plaines,IL,60018
3332,145 S EASTWOOD DR,Woodstock,IL,60098
3333,484 Lee St,Des Plaines,IL,60016
3334,423 E DUNDEE RD,Palatine,IL,60067
3335,"111 South Washington Avenue, Suite 202",Park Ridge,IL,60068
3336,1455 E Golf Road Suite 207,DesPlaines,IL,60016
3337,442 E RAND RD,Arlington Heights,IL,60004
3338,335 E EUCLID AVE,Mount Prospect,IL,60056
3339,345 S RAND ROAD,Lake Zurich,IL,60047
3340,485 ELA ROAD,Lake Zurich,IL,60047
3341,1006 Woodward Avenue,Beloit,WI,53511
3342,"3633 West Lake Avenue, Suite 307",Glenview,IL,60026
3343,1340 PATRIOT BLVD,Glenview,IL,60026
3344,2775 PFINGSTEN RD STE 1,Glenview,IL,60026
3345,2240 Prairie Ave,Beloit,WI,53511
3346,"8707 Skokie Boulevard, Suite 207",Skokie,IL,60077
3347,150 Half Day Road,Buffalo Grove,IL,60089
3348,2502 WAUKEGAN RD,Glenview,IL,60025
3349,1763 W HOWARD ST,Chicago,IL,60626
3350,411 GREEN BAY RD,Wilmette,IL,60091
3351,1150 W MAPLE AVE.,Mundelein,IL,60060
3352,"250 CENTER DRIVE, SUITE 201",VERNON HILLS,IL,60061
3353,40 Skokie Boulevard Suite 200,Northbrook,IL,60062
3354,1600 DEERFIELD RD,Highland Park,IL,60035
3355,1300 S MILWAUKEE AVE,Libertyville,IL,60048
3356,"1910 First Street, 2N",Highland Park,IL,60035
3357,892 N WESTERN AVE,Lake Forest,IL,60045
3358,21 S. Jackson St,Janesville,WI,53548
3359,968 HWY 59,Antioch,IL,60002
3360,3124 N LEWIS AVE,Waukegan,IL,60087
3361,1101 State Road 69 7,New Glarus,WI,53574
3362,3410 80TH ST,KENOSHA,WI,53142
3363,1400 75TH ST,KENOSHA,WI,53143
3364,800 M-139,Benton Harbor,MI,49022
3365,5439 Durand Avenue Suite 103,Racine,WI,53406
3366,835 Wisconsin Ave,Racine,WI,53403
3367,3284 Main Street,East Troy,WI,53120
3368,4810 NORTHWESTERN AVE,RACINE,WI,53406
3369,MOBILE UNIT,WILLSHIRE,OH,45898
3370,308 Charles Street,Bangor,MI,49013
3371,7916 Oakland Dr,Portage,MI,49024
3372,5498 109th Ave,Pullman,MI,49450
3373,316 N. Drake Rd,Kalamazoo,MI,49009
3374,505 East Alcott Street,Kalamazoo,MI,49001
3375,601 JOHN ST,KALAMAZOO,MI,49007
3376,117 West Paterson Street,Kalamazoo,MI,49007
3377,10499 North 48th Street,Augusta,MI,49012
3378,"1200 N. West Ave, Suite 500",Jackson,MI,49202
3379,285 James Street,Holland,MI,49424
3380,2500 Packard St 105,Ann Arbor,MI,48104
3381,200 Arnet St Suite 150,Ypsilanti,MI,48198
3382,34815 West Michigan Ave Suite 1,wayne,MI,48184
3383,9320 Telegraph Rd,Taylor,MI,48180
3384,12100 Dix Toledo Road,Southgate,MI,48195
3385,6250 S. Cedar St. Suite 2,Lansing,MI,48911
3386,"1848 Biddle Avenue, Suite 102",Wyandotte,MI,48192
3387,1848 Biddle Avenue,Wyandotte,MI,48192
3388,3960 Patient Care Dr Suite 108,Lansing,MI,48911
3389,3475 Belle Chase Way,Lansing,MI,48911
3390,27550 Joy Road,Livonia,MI,48150
3391,32131 INDUSTRIAL RD.,Livonia,MI,48150
3392,27493 Six Mile Rd,Livonia,MI,48152
3393,6500 Schaefer Street,Dearborn,MI,48126
3394,"147 N MILFORD RD, STE 101",HIGHLAND,MI,48357
3395,MOBILE UNIT,KENTON,OH,43326
3396,624 E. 9 Mile Rd,Hazel Park,MI,48030
3397,720 E. 11 Mile Rd,Royal Oak,MI,48067
3398,25301 Van Dyke Ave,Center Line,MI,48015
3399,30581 STEPHENSON HIGHWAY,MADISON HEIGHTS,MI,48071
3400,25779 Kelly Rd,Roseville,MI,48066
3401,"909 West Maple Road, Suite 100",Clawson,MI,48017
3402,13409 E 14 Mile Rd,Sterling Heights,MI,48312
3403,461 W HURON ST. Suite 107,PONTIAC,MI,48341
3404,9178 highland rd,white lake,MI,48386
3405,43211 Dalcoma Drive,Clinton Township,MI,48038
3406,"3100 Cross Creek Parkway, Suite 220",Auburn Hills,MI,48326
3407,441 S LIVERNOIS RD STE 100,ROCHESTER,MI,48307
3408,"1375 South Lapeer Road, Suite 203",Lake Orion,MI,48360
3409,9838 Dixie Highway,Fair Haven,MI,48023
3410,MOBILE UNIT,BUTLER,OH,44822
3411,135 BROADWAY,Marine City,MI,48039
3412,MOBILE UNIT,FREEDOM,PA,15042
3413,4125 W Ridge Rd.,Erie,PA,16506
3414,1330 EAST 26TH ST,ERIE,PA,16508
3415,3216 State Street,Erie,PA,16508
3416,2911 State Street,Erie,PA,16508
3417,146 West 25th Street,Erie,PA,16502
3418,2409 State Street 1st FL Suite C,Erie,PA,16503
3419,25 West 18th Street,Erie,PA,16501
3420,510 Cranberry St Ste. 200,Erie,PA,16507
3421,1611 PEACH ST STE 315,ERIE,PA,16501
3422,306 West 11th Street,Erie,PA,16501
3423,141 West 11th Street,Erie,PA,16501
3424,521 West 7th Street,Erie,PA,16502
3425,361 West 5th Street,Erie,PA,16507
3426,414 West 5th Street,Erie,PA,16507
3427,200 E 3RD ST. 5th FL.,JAMESTOWN,NY,14701
3428,33 North Main Street,Cassadaga,NY,14718
3429,319 CENTRAL AVE,DUNKIRK,NY,14048
3430,MOBILE UNIT,ERNEST,PA,15739
3431,7020 Erie Road,Derby,NY,14047
3432,3900 North Buffalo Rd,Orchard Park,NY,14127
3433,"3671 SOUTHWESTERN BLVD, STE 101",ORCHARD PARK,NY,14127
3434,MOBILE UNIT,PENNSYLVANIA FURNACE,PA,16865
3435,MOBILE UNIT,PILLOW,PA,17080
3436,MOBILE UNIT,NEW HOPE,PA,18938
3437,911 MAIN ST. NORTH,Hailey,ID,83333
3438,590 EAST 17TH ST,Idaho Falls,ID,83404
3439,1901 SOUTH 25TH EAST,Ammon,ID,83406
3440,150 SHOUP AVE Suite 17,IDAHO FALLS,ID,83402
3441,2705 E 17th Street Suite s5,Ammon,ID,83406
3442,2705 E 17TH ST,AMMON,ID,83406
3443,231 South Wilson,Casper,WY,82601
3444,500 E 9TH STREET,WINNER,SD,57580
3445,206 N Iowa Street,Dodgeville,WI,53533
3446,3050 Cahill Main Street,Fitchburg,WI,53711
3447,49 KESSEL COURT,MADISON,WI,53711
3448,2202 S. Park Street,Madison,WI,53715
3449,"5005 University Avenue, Suite 100",Madison,WI,53705
3450,5310 Valley Ridge Plaza,Middleton,WI,53562
3451,1821 S. Stoughton Road,Madison,WI,53716
3452,3434 E. Washington Ave.,Madison,WI,53704
3453,112 HELEN STREET,SAUK CITY,WI,53583
3454,1906 North Street,Prairie Du Sac,WI,53578
3455,13 N Bird Street,Sun Prairie,WI,53590
3456,S 2845 White Eagle Road,Baraboo,WI,53913
3457,820 East Summit Avenue,Oconomowoc,WI,53066
3458,34700 VALLEY RD,OCONOMOWOC,WI,53066
3459,"20711 Watertown Road, Suite F",Waukesha,WI,53186
3460,20611 Watertown Rd.,Waukesha,WI,53186
3461,6416 South Howell Avenue,Oak Creek,WI,53154
3462,4931 S 27TH ST,MILWAUKEE,WI,53221
3463,9330 Lincoln Avenue,West Allis,WI,53227
3464,10101 W GREENFIELD AVE STE 130,WEST ALLIS,WI,53214
3465,12970 W. Bluemound Rd. 200,Elm Grove,WI,53122
3466,4650 South Howell Avenue,Milwaukee,WI,53207
3467,19265 WEST CAPITOL DRIVE SUITE L04,BROOKFIELD,WI,53045
3468,19115 W CAPITOL DR STE 117,BROOKFIELD,WI,53045
3469,1220 Dewey Avenue,Milwaukee,WI,53213
3470,1238 SOUTH CESAR E CHAVEZ DRIVE,MILWAUKEE,WI,53204
3471,10012 W CAPITOL DR STE 101,MILWAUKEE,WI,53222
3472,5408 West Burleigh Street,Milwaukee,WI,53210
3473,377 W. River Woods Pkwy Suite 201,Glendale,WI,53212
3474,2500 West Silver Spring Drive,Glendale,WI,53209
3475,609 N. Spring Street,Beaver Dam,WI,53916
3476,140 E Cook St,Portage,WI,53901
3477,136 N. Main Street,Thiensville,WI,53092
3478,1516 W. Mequon Rd. Suite 103,Mequon,WI,53092
3479,1990 Wisconsin Avenue,Grafton,WI,53024
3480,111 E WASHINGTON ST,WEST BEND,WI,53095
3481,901 Fond du Lac Avenue,Kewaskum,WI,53040
3482,4343 Chicago Dr SW,Grandville,MI,49418
3483,1676 Viewpond South East,Kentwood,MI,49508
3484,4461 GRAND HAVEN RD,MUSKEGON,MI,49441
3485,"360 Division Ave S, Suite 1D",Grand Rapids,MI,49503
3486,"100 Cherry St, SE",Grand Rapids,MI,49503
3487,540 Cherry St. SE,Grand Rapids,MI,49503
3488,233 East Fulton St. Suite 101,Grand Rapids,MI,49503
3489,221 John St NE,Grand Rapids,MI,49503
3490,"3230 Eagle Park Drive Northeast, Suite 101",Grand Rapids,MI,49525
3491,1215 East Fulton Street,Grand Rapids,MI,49503
3492,2006 Holton Rd,North Muskegon,MI,49445
3493,"5258 Plainfield Ave, Ste 6",Grand Rapids,MI,49525
3494,MOBILE UNIT,WREN,OH,45899
3495,"222 E. 82nd, Suite 102",Newaygo,MI,49337
3496,MOBILE UNIT,HILLSDALE,PA,15746
3497,211 N Shiawassee St,CORUNNA,MI,48817
3498,3499 South Linden Road Suite 2,Flint,MI,48507
3499,811 E. Kent Rd,Greenville,MI,48838
3500,"G3500 Flushing Road, Suite 300",Flint,MI,48504
3501,3109 KLEINPELL STREET,FLINT,MI,48507
3502,529 Martin Luther King Avenue,Flint,MI,48503
3503,"812 Root Street, 2nd Floor",Flint,MI,48502
3504,1570 Suncrest Dr,Lapeer,MI,48446
3505,2110 N Morson St,Saginaw,MI,48602
3506,3020 Boardwalk Dr.,Saginaw,MI,48603
3507,14675 Downey Rd.,Capac,MI,48014
3508,2940 Health Parkway,Mount Pleasant,MI,48858
3509,301 South Crapo Suite 200,Mount Pleasant,MI,48858
3510,1049 East Newell Street,White Cloud,MI,49349
3511,218 Fast Ice Drive,Midland,MI,48642
3512,MOBILE UNIT,WATERVILLE,OH,43566
3513,3111 Electric Avenue,Port Huron,MI,48060
3514,MOBILE UNIT,GATES MILLS,OH,44040
3515,MOBILE UNIT,ATLANTIC,PA,16111
3516,206 South Elmwood Ave,Buffalo,NY,14201
3517,1285 MAIN ST,BUFFALO,NY,14209
3518,5087 Broadway,Buffalo,NY,14043
3519,107 Prospect Street,Attica,NY,14011
3520,15 Elizabeth Drive,Lockport,NY,14094
3521,MOBILE UNIT,CORSICA,PA,15829
3522,2116 E Henrietta Rd,Rochester,NY,14623
3523,1386 HATHAWAY DR,FARMINGTON,NY,14425
3524,"919 WESTFALL RD, Building B, Suite 60",ROCHESTER,NY,14618
3525,835 West Main Street,Rochester,NY,14611
3526,556 CLINTON AVE S,ROCHESTER,NY,14620
3527,"1040 University Avenue, Bldg 1 First Floor",Rochester,NY,14607
3528,780 Blossom Rd,Rochester,NY,14610
3529,"1081 Long Pond Road, Suite 240",Rochester,NY,14626
3530,1024 Hilton Parma Corners Rd,Hilton,NY,14468
3531,28 E MAIN ST,CLIFTON SPRINGS,NY,14432
3532,246 CASTLE ST,GENEVA,NY,14456
3533,310 W UNION ST,NEWARK,NY,14513
3534,1519 NYE RD,LYONS,NY,14489
3535,MOBILE UNIT,LOCK HAVEN,PA,17745
3536,144 Genesee St,Auburn,NY,13021
3537,119 North Street,Auburn,NY,13021
3538,321 West Onondaga Street,Syracuse,NY,13202
3539,319 E WATER ST,SYRACUSE,NY,13202
3540,847 James St,Syracuse,NY,13203
3541,"1304 Buckley Road, Suite 302",Syracuse,NY,13212
3542,312 DIVISION ST,FULTON,NY,13069
3543,MOBILE UNIT,PICTURE ROCKS,PA,17762
3544,201 Cedar Street,Oneida,NY,13421
3545,1 Oxford Crossing Suite 1,New Hartford,NY,13413
3546,"502 Court Street, Suite 210",Utica,NY,13502
3547,239 South Main Street,Herkimer,NY,13350
3548,61 Delano St,Pulaski,NY,13142
3549,MOBILE UNIT,UNITYVILLE,PA,17774
3550,665 Main St,Bennington,VT,05201
3551,6 Arch st 3rd floor,Greenfield,MA,01301
3552,"1 Arch Place, 3rd Floor",Greenfield,MA,01301
3553,83 South Street,Ware,MA,01082
3554,55 Elm St,Glens Falls,NY,12801
3555,100 Central St. Suite 3,Southbridge,MA,01550
3556,176 Main St,Southbridge,MA,01550
3557,353 Pomfret Street,Putnam,CT,06260
3558,201 South Main Street,Athol,MA,01331
3559,1183 Main Street,Worcester,MA,01603
3560,475 Pleasant St. Suite D,Worcester,MA,01609
3561,"10 Winthrop St, 3FL",Worcester,MA,01604
3562,95 Lincoln St,Worcester,MA,01605
3563,33 Oak Ave,Worcester,MA,01605
3564,121 Lincoln Street,Worcester,MA,01605
3565,982 Tiogue Avenue,Coventry,RI,02816
3566,186 Providence Street,West Warick,RI,02893
3567,600 Putnam Pike,Greenville,RI,02828
3568,350 Columbia Street,Wakefield,RI,02879
3569,50 HEALTH LN,WARWICK,RI,02886
3570,1950 Tower Hill Road,North Kingstown,RI,02852
3571,985 Plainfield St,Johnston,RI,02919
3572,2348 Post Road,Warwick,RI,02886
3573,450 Clinton St,Woonsocket,RI,02895
3574,160 Narraganset Ave,Providence,RI,02907
3575,800 Clinton St,WOONSOCKET,RI,02895
3576,110 Elmwood Ave,Providence,RI,02907
3577,528 North Main Street,Providence,RI,02904
3578,100 Randall St 3rd Floor,Providence,RI,02904
3579,381 Wickenden Street,PROVIDENCE,RI,02903
3580,154 Waterman Ave,Woonsocket,RI,02906
3581,99 Wayland Ave,Providence,RI,02906
3582,100 Ray Drive,Providence,RI,02906
3583,9 Village Inn Rd,Westminster,MA,01473
3584,400 WARREN AVENUE,EAST PROVIDENCE,RI,02914
3585,127 School Street,Pawtucket,RI,02860
3586,105 E MAIN ST,MILFORD,MA,01757
3587,"112 Main St, suite 104",Northborough,MA,01532
3588,229 East Main Street Suite 204,Milford,MA,01757
3589,"26 Valley Road, Suite 202",Middletown,RI,02842
3590,33 Electric Ave Suite 102,Fitchburg,MA,01420
3591,255 EAST CENTRAL STREET,Franklin,MA,02038
3592,"165 Mill St , 2nd floor",Leominster,MA,01453
3593,76 Summer St. Suite 045,Fitchburg,MA,01420
3594,7 North Main St. Suite 200,Attleboro,MA,02703
3595,7B Railroad Avenue,Attleboro,MA,02703
3596,24 PARK STREET,ATTLEBORO,MA,02703
3597,250 SPRING HILL RD,ASHBY,MA,01431
3598,214 Howard Street,Framingham,MA,01702
3599,31 Pine Street,Norfolk,MA,02056
3600,1010 SOUTH MAIN STREET,FALL RIVER,MA,02724
3601,151 Cochituate Road,Framingham,MA,01701
3602,140 PURCHASE STREET,FALL RIVER,MA,02720
3603,203 PLYMOUTH AVE STE 701,FALL RIVER,MA,02721
3604,400 STANLEY ST,FALL RIVER,MA,02720
3605,155 GREAT ROAD,Stow,MA,01775
3606,1428 Main St Suite 7,Walpole,MA,02081
3607,67 UNION ST,NATICK,MA,01760
3608,1 Washington St,Taunton,MA,02780
3609,133 Old Road to Nine Acre Corner,Concord,MA,01742
3610,86 Baker Ave. Suite 308,Concord,MA,01742
3611,101 Access Road,Norwood,MA,02062
3612,30 Washington St,Wellesley,MA,02481
3613,95 WASHINGTON ST. COBBS CORNER,Canton,MA,02021
3614,237 State Rd,North Dartmouth,MA,02747
3615,210 BEAR HILL ROAD SUITE 202,WALTHAM,MA,02451
3616,77 State Rd,North Dartmouth,MA,02747
3617,"909 Sumner Street, Suite 206",Stoughton,MA,02072
3618,130 Liberty St Suite 6,Brockton,MA,02301
3619,"294 Pleasant Street, Suite 205",Stoughton,MA,02072
3620,2 Winter Street Suite 401,Waltham,MA,02451
3621,75 SPRING STREET,West Roxbury,MA,02132
3622,"966 Park Street, Suite B-3",Stoughton,MA,02072
3623,"1256 Park Street, Suite 101",Stoughton,MA,02072
3624,92 Grape Street,New Bedford,MA,02740
3625,2343 PURCHASE ST,NEW BEFORD,MA,02746
3626,489 Page St,Stoughton,MA,02072
3627,5 Dover St suite 201,New Bedford,MA,02740
3628,1 Meadowbrook Way,Canton,MA,02021
3629,157 Main Street,Brockton,MA,02301
3630,162 Main ST,Brockton,MA,02301
3631,30 Meadowbrook Rd,Brockton,MA,02301
3632,30 Meadowbrook Rd,Brockton,MA,02301
3633,10 B Meadowbrook Road,Brockton,MA,02301
3634,"500 North Main St. Suite C, 1st FL.",Randolph,MA,02368
3635,1153 Centre St.,Boston,MA,02130
3636,440 ARSENAL ST,WATERTOWN,MA,02472
3637,736 Cambridge Street,Brighton,MA,02135
3638,71 Washington Street,Brighton,MA,02135
3639,"77 Warren Street, Building 5",Brighton,MA,02135
3640,209 Quincy St,Brockton,MA,02302
3641,"2 Courthouse Lane, Unit 2",Chelmsford,MA,01824
3642,14 FORDHAM RD,ALLSTON,MA,02134
3643,25 Flanders Road,Belmont,MA,02478
3644,"1180 Beacon Street, Suite 3C",Brookline,MA,02446
3645,12 Wood St. Suite 2,Lowell,MA,01851
3646,409 Pond Suite 9,BRAINTREE,MA,02184
3647,2110 Dorchester Ave Suite 314,Boston,MA,02124
3648,859 Willard St. Suite 400,Quincy,MA,02169
3649,41 Sagamore Park Road,Hudson,NH,03051
3650,45 HIGH ST,NASHUA,NH,03060
3651,"1261 Furnace Brook Parkway Suite 31, 22, 30",Quincy,MA,02169
3652,401 Highland Ave,Somerville,MA,02143
3653,"500 Congress Street, Unit 2G",Quincy,MA,02169
3654,60 Main St,Nashua,NH,03060
3655,398 Neponset Avenue,Dorchester,MA,02122
3656,110 West Squantum St,North Quincy,MA,02169
3657,180 A CAMBRIDGE STREET,Burlington,MA,01803
3658,129 Newbury St. 2nd Floor,Boston,MA,02116
3659,275 Hancock St. Suite 203,Quincy,MA,02171
3660,673 Bedford St,Abington,MA,02351
3661,38 Billings Rd Room 205,Quincy,MA,02171
3662,200 Central Street,Lowell,MA,01852
3663,100 Merrimack St. 305,Lowell,MA,01852
3664,"21 School Street, Suite 1",Quincy,MA,02169
3665,210 Old Colony Avenue,South Boston,MA,02127
3666,36 Miller Stile Road,Quincy,MA,02169
3667,33 Bartlett Street Suite 108,Lowell,MA,01852
3668,101 Arch St. 8th Floor,Boston,MA,02110
3669,"851 Main Street, Suite 4",Weymouth,MA,02190
3670,15 Winter Court,Weymouth,MA,02188
3671,2 Mound Court,Merrimack,NH,03054
3672,"884 Washington Street, Floor 2",Weymouth,MA,02189
3673,10-I ROESSLER RD,WOBURN,MA,01801
3674,3 Woodland Road Suite 322,Stoneham,MA,02180
3675,"170 Main Street, Units G4-G8",Tewksbury,MA,01876
3676,20 Tower Office Park,Woburn,MA,01801
3677,368 River Street Suite 160,Springfield,VT,05156
3678,1193 Sea St,Quincy,MA,02169
3679,384 WASHINGTON ST,NORWELL,MA,02061
3680,105 Webster St,Hanover,MA,02339
3681,361 Main St,Wareham,MA,02571
3682,40 Church Avenue Suite 202,Wareham,MA,02571
3683,"7 Kimball Lane, Building C Suite 1",Lynnfield,MA,01940
3684,180 George Washington Blvd,Hull,MA,02045
3685,59 STILES RD Suite 104,Salem,NH,03079
3686,75 Gilcrest Rd,Londonderry,NH,03053
3687,222 BLOSSOM ST EXT,LYNN,MA,01901
3688,320 Essex St,Lawrence,MA,01840
3689,496 Lynnfield St. Suite 104,Lynn,MA,01904
3690,"170 Common Street, Suite 215",Lawrence,MA,01840
3691,280 Merrimack St. Suite 141,Lawrence,MA,01843
3692,173 Oxford St,Lynn,MA,01901
3693,173 Oxford Street,Lynn,MA,01901
3694,39A INDUSTRIAL PARK RD,PLYMOUTH,MA,02360
3695,280 Union St - Suite 302,Lynn,MA,01901
3696,360 MERRIMACK STREET ENTRANCE G 3RD FLOOR,LAWRENCE,MA,01843
3697,"10 Cordage Park Circle, Suite 115",Plymouth,MA,02360
3698,161 Eastern Avenue,Lynn,MA,01902
3699,2 Wall Street 3rd Floor,Manchester,NH,03101
3700,"342 Gifford Street, Suite C3",Falmouth,MA,02540
3701,"225 Water Street, Suite A140",Plymouth,MA,02360
3702,"34 Main Street Extension, Suite 103",Plymouth,MA,02360
3703,6 Essex Center Dr Suite 303,Peabody,MA,01960
3704,46 Obery Street,Plymouth,MA,02360
3705,111 Middleton Road,Danvers,MA,01923
3706,"16 Waterhouse Road, Suite 2",Bourne,MA,02532
3707,123 Waterhouse Rd,Buzzards Bay,MA,02532
3708,75 Lindall Street,Danvers,MA,01923
3709,55 Highland Hall,Salem,MA,01970
3710,141 Etta Frasier Dr,Windsor,VT,05089
3711,76 Winter Street,Haverhill,MA,01830
3712,2260 STATE ROAD,Plymouth,MA,02360
3713,1233 State Road,Plymouth,MA,02360
3714,199 Stratton Road Suite 1,Rutland,VT,05701
3715,107 Commercial Street,Mashpee,MA,02649
3716,81 HALL ST,CONCORD,NH,03301
3717,42 Pleasant Street,Concord,NH,03301
3718,"22 Bridge Street, Suite 2",Concord,NH,03301
3719,2 Chennell Drive,Concord,NH,03301
3720,1185 Falmouth Road,Centerville,MA,02632
3721,735 Attucks Lane,Hyannis,MA,02601
3722,"68 Camp Street, Unit 1",Hyannis,MA,02601
3723,298 Washington St,Gloucester,MA,01930
3724,61 PROSPECT ST,GLOUCESTER,MA,01930
3725,100 Campus Drive,Portsmouth,NH,03801
3726,2299 Woodbury Avenue,Newington,NH,03801
3727,255 NH Route 108,Somersworth,NH,03878
3728,311 Route 108,Somersworth,NH,03878
3729,220 Holiday Drive Bldg A,White River Junction,VT,05001
3730,3 E 1st St,Coquille,OR,97423
3731,230 E JOHNSON AVE,Coos Bay,OR,97420
3732,1735 Virginia,North Bend,OR,97459
3733,1539 NE STEPHENS ST,Roseburg,OR,97470
3734,"P.O. BOX 358, 700 HWY 101",Florence,OR,97439
3735,"1441 7TH STREET, SUITE B",FLORENCE,OR,97439
3736,1500 E MAIN ST,Cottage Grove,OR,97424
3737,350 E 40TH AVE,Eugene,OR,97405
3738,145 EAST 18TH STREET,Eugene,OR,97401
3739,195 W 12th St,Eugene,OR,97401
3740,1500 COBURG RD,Eugene,OR,97401
3741,1891 PIONEER PKWY E,Springfield,OR,97477
3742,1755 IVY STREET,Junction City,OR,97448
3743,1540 MAIN STREET,Sweet Home,OR,97386
3744,320 SW CENTURY DR,Bend,OR,97702
3745,908 NE 4th St,Bend,OR,97701
3746,2650 NE HWY 20,Bend,OR,97701
3747,1705 S HWY 97,Redmond,OR,97756
3748,5 North Main Street,Homedale,ID,83628
3749,20 EAST FAIRVIEW AVE,Homedale,ID,83628
3750,20 E WYOMING AVE,Meridian,ID,83642
3751,415 CLEVELAND BLVD,Caldwell,ID,83605
3752,405 S MAIN ST,Payette,ID,83661
3753,3110 CLEVELAND BOULEVARD BUILDING A SUITE A7,CALDWELL,ID,83605
3754,3402 FRANKLIN RD,CALDWELL,ID,83605
3755,2400 12TH AVENUE RD,Nampa,ID,83686
3756,715 12TH AVE S,Nampa,ID,83651
3757,3301 WEST CHERRY LANE,Meridian,ID,83642
3758,1205 CAMPBELL ST,Baker City,OR,97814
3759,700 E AVALON ST,Kuna,ID,83634
3760,640 HIGHWAY 16,Emmett,ID,83617
3761,2275 South Eagle Road Suite 190,Meridian,ID,83642
3762,3499 E FAIRVIEW AVE.,Meridian,ID,83642
3763,4700 NORTH EAGLE RD,Boise,ID,83713
3764,10565 W LAKE HAZEL RD,Boise,ID,83709
3765,250 SOUTH EAGLE RD,Eagle,ID,83616
3766,10500 OVERLAND RD,Boise,ID,83709
3767,10787 W. Ustick Rd,Boise,ID,83713
3768,10700 USTICK RD,Boise,ID,83713
3769,8950 W Emerald St,Boise,ID,83704
3770,7941 West Rifleman Street,Boise,ID,83704
3771,1520 NORTH COLE RD,Boise,ID,83704
3772,6933 W Emerald St,Boise,ID,83704
3773,5100 OVERLAND RD,Boise,ID,83705
3774,272 E 36th Street,Garden City,ID,83714
3775,3614 WEST STATE ST,Boise,ID,83703
3776,1653 S. VISTA AVE,Boise,ID,83705
3777,1650 W. STATE STREET,Boise,ID,83702
3778,1219 S BROADWAY AVE,Boise,ID,83706
3779,909 EAST PARKCENTER BLVD,Boise,ID,83706
3780,6560 SOUTH FEDERAL WAY,Boise,ID,83716
3781,2111 ADAMS AVENUE,La Grande,OR,97850
3782,132 EAST LAKE ST.,Mccall,ID,83638
3783,570 N Shoreline Blvd,Dillon,MT,59725
3784,490 NORTH 2ND EAST,Rexburg,ID,83440
3785,1223 S Railroad Ave,Sugar City,ID,83448
3786,812 E 4th St,Gillette,WY,82716
3787,625 FLORMANN ST,RAPID CITY,SD,57701
3788,1520 Haines Ave. Ste 6,Rapid City,SD,57701
3789,1900 South Avenue,La Crosse,WI,54601
3790,6520 Lumberjack Guy Rd,Black River Falls,WI,54615
3791,1828 Jackson Street,Oshkosh,WI,54901
3792,414 Doctors Ct,Oshkosh,WI,54901
3793,2742 S. Business Dr.,Sheboygan,WI,53081
3794,1221 N 26th St,SHEBOYGAN,WI,53081
3795,614 MEMORIAL DR,CHILTON,WI,53014
3796,1415 S. Commercial St.,Neenah,WI,54956
3797,115 North Western Avenue,Waupaca,WI,54981
3798,1125 Wittman Dr.,Menasha,WI,54952
3799,4351 WEST COLLEGE AVENUE SUITE 300,APPLETON,WI,54914
3800,1505 Mill Street,New London,WI,54961
3801,"3301 North Ballard Road, Suite B",Appleton,WI,54911
3802,510 Redbird Circle,De Pere,WI,54115
3803,2960 Allied Street,Green Bay,WI,54304
3804,1160 Kepler Drive,Green Bay,WI,54311
3805,789 N CLARE AVE,HARRISON,MI,48625
3806,655 E Cedar Ave,Gladwin,MI,48624
3807,9249 W. Lake City Rd,Houghton Lake,MI,48629
3808,876 N VanDyke Rd,Bad Axe,MI,48413
3809,MOBILE UNIT,TOLEDO,OH,43612
3810,MOBILE UNIT,ELGIN,PA,16413
3811,MOBILE UNIT,COGAN STATION,PA,17728
3812,428 Washington Ave,Watertown,NY,13601
3813,595 West Main Street,Watertown,NY,13601
3814,1422 VT-66,Randolph,VT,05060
3815,"2418 Airport Road, Suite 1",Barre,VT,05641
3816,245 S. Main St,Wolfeboro,NH,03894
3817,5270 SW PHILOMATH BLVD.,Corvallis,OR,97333
3818,450 SW 3RD ST,Corvallis,OR,97333
3819,2310 NW Kings Blvd,Corvallis,OR,97330
3820,590 NE CIRCLE BLVD,Corvallis,OR,97330
3821,1983 S MAIN,Lebanon,OR,97355
3822,"1990 14TH AVE, S.E.",Albany,OR,97321
3823,4101 NW LOGAN RD,Lincoln City,OR,97367
3824,138 W ELLENDALE AVE,Dallas,OR,97338
3825,5660 COMMERCIAL ST SE,Salem,OR,97306
3826,1535 N FIRST AVE,Stayton,OR,97383
3827,1455 EDGEWATER ST NW,Salem,OR,97304
3828,1265 CENTER ST NE,Salem,OR,97301
3829,3000 Market St NE Suite 258,Salem,OR,97301
3830,3380 LANCASTER DRIVE NE,Salem,OR,97303
3831,4990 N. RIVER ROAD,Keizer,OR,97303
3832,429 N Water St.,SILVERTON,OR,97381
3833,1550 N. PACIFIC HWY,Woodburn,OR,97071
3834,1525 W MAIN ST,Molalla,OR,97038
3835,80 NE CEDAR STREET,Madras,OR,97741
3836,2490 NE HIGHWAY 99W,McMinnville,OR,97128
3837,1140 N. Springbrook Road,Newberg,OR,97132
3838,13434 COLTON PLACE,Oregon City,OR,97045
3839,37601 HWY 26,Sandy,OR,97055
3840,22000 SALAMO RD,West Linn,OR,97068
3841,95 82ND DRIVE,Gladstone,OR,97027
3842,20151 Se Highway 212,Damascus,OR,97089
3843,14840 SW WEBSTER ROAD,Milwaukie,OR,97267
3844,13240 SE Rusk Rd,Milwaukie,OR,97222
3845,17779 LOWER BOONES FERRY RD,Lake Oswego,OR,97035
3846,20685 Sw Roy Rogers,Sherwood,OR,97140
3847,10822 SE 82nd Ave Ste K,Happy Valley,OR,97086
3848,15570 SW PACIFIC HWY,Portland,OR,97224
3849,1001 SW HIGHLAND DR,Gresham,OR,97030
3850,10362 SW McDonald St,Portland,OR,97224
3851,1455 NE DIVISION ST,Gresham,OR,97030
3852,11970 SW Greenburg Rd,Portland,OR,97223
3853,3527 SE 122ND AVE,Portland,OR,97236
3854,4515 SE WOODSTOCK BLVD,Portland,OR,97206
3855,9735 Southwest Shady Lane,Tigard,OR,97223
3856,8145 SW BARBUR BLVD,Portland,OR,97219
3857,2501 SW CHERRY PARK ROAD,Troutdale,OR,97060
3858,18417 SE Oak Street,Portland,OR,97233
3859,10209 Southeast Division Street,Portland,OR,97266
3860,14555 Sw Teal Blvd,Beaverton,OR,97007
3861,3930 SE POWELL BLVD,Portland,OR,97202
3862,3769 SE Milwaukie Ave,Portland,OR,97202
3863,2800 Se Hawthorne Blvd,Portland,OR,97214
3864,"1135 Southeast Salmon Street, Suite 101",Portland,OR,97214
3865,3307 EVERGREEN WAY STE 5,Washougal,WA,98671
3866,6194 SW MURRAY BLVD,Beaverton,OR,97008
3867,1010 SW JEFFERSON ST,Portland,OR,97201
3868,1030 NE Couch,Portland,OR,97232
3869,1100 NE BROADWAY ST,Portland,OR,97232
3870,1303 NW LOVEJOY ST,Portland,OR,97209
3871,6901 NE SANDY BLVD,Portland,OR,97213
3872,10300 SW EASTRIDGE ST,PORTLAND,OR,97225
3873,12655 SW Center St. Suite 150,Beaverton,OR,97005
3874,5920 NE MLK BLVD,Portland,OR,97211
3875,3370 SW 192nd Ave,Beaverton,OR,97003
3876,8330 N IVANHOE ST,Portland,OR,97203
3877,"700 North Hayden Island Drive, Suite 300",Portland,OR,97217
3878,406 SE 131ST AVE STE 104,VANCOUVER,WA,98683
3879,6701 E MILL PLAIN BLVD,Vancouver,WA,98661
3880,800 NE 3RD AVE,Camas,WA,98607
3881,"1610 C Street, Suite 102",Vancouver,WA,98663
3882,6926 Northeast 4th Plain Boulevard,Vancouver,WA,98666
3883,1601 East 4th Plain Boulevard,Vancouver,WA,98661
3884,2615 NE 112TH AVE,Vancouver,WA,98684
3885,3707 MAIN ST,Vancouver,WA,98663
3886,2525 SE TV HWY,Hillsboro,OR,97123
3887,5512 Northeast 107th Avenue,Vancouver,WA,98662
3888,6711 NE 63RD STREET,Vancouver,WA,98661
3889,720 SE Washington St,Hillsboro,OR,97123
3890,6700 NE 162ND AVE STE 500,Vancouver,WA,98682
3891,408 NE 81ST ST,Vancouver,WA,98665
3892,1049 SW Baseline,Hillsboro,OR,97123
3893,13023 NE HWY 99,Vancouver,WA,98686
3894,904 WEST MAIN STREET,Battle Ground,WA,98604
3895,795 S COLUMBIA RIVER HWY,St. Helens,OR,97051
3896,1725 PACIFIC AVE,Woodland,WA,98674
3897,411 THREE RIVERS DRIVE,Kelso,WA,98626
3898,1227 15TH AVENUE,Longview,WA,98632
3899,1318 Washington Way Suite B,Longview,WA,98632
3900,2930 OCEAN BEACH HWY,Longview,WA,98632
3901,2249 CASCADE AVENUE,Hood River,OR,97031
3902,1815 4TH STREET,Tillamook,OR,97141
3903,520 MT HOOD ST,The Dalles,OR,97058
3904,23675 S Roosevelt Dr,Seaside,OR,97138
3905,401 S ROOSEVELT DR,Seaside,OR,97138
3906,3250 LEIF ERICKSON DRIVE,Astoria,OR,97103
3907,1100 S. Market Blvd.,Chehalis,WA,98532
3908,931 South Market Boulevard,Chehalis,WA,98532
3909,317 Sanders Way,GOLDENDALE,WA,98620
3910,1611 Kresky Ave Suite 114,Centralia,WA,98531
3911,"1000 Kresky Ave, Suite E",Centralia,WA,98531
3912,1129 HARRISON AVE,Centralia,WA,98531
3913,1109 E YELM AVE,Yelm,WA,98597
3914,4700 YELM HWY SE,Lacey,WA,98503
3915,705 TROSPER ROAD S.W.,Tumwater,WA,98512
3916,520 CLEVELAND AVE SE,Tumwater,WA,98501
3917,1313 Cooper Point Rd Sw,Olympia,WA,98502
3918,2747 PACIFIC AVE SUITE B-19,OLYMPIA,WA,98501
3919,4280 MARTIN WAY EAST,Olympia,WA,98516
3920,"3703 Ensign Road, Suite 10a",Olympia,WA,98506
3921,3215 HARRISON AVE NW,Olympia,WA,98502
3922,1243 MARVIN RD NE,Lacey,WA,98516
3923,10105 224TH ST E,Graham,WA,98338
3924,5616 176TH STREET EAST,Puyallup,WA,98375
3925,122 Washington Avenue South,Orting,WA,98360
3926,215 WHITESELL STREET NW.,Orting,WA,98360
3927,104 MILLITARY ROAD SOUTH,Tacoma,WA,98444
3928,13308 MERIDIAN E,Puyallup,WA,98373
3929,4928 109th St SW,Lakewood,WA,98499
3930,11501 CANYON ROAD E.,Puyallup,WA,98373
3931,5001 112th St E,Tacoma,WA,98446
3932,10223 GRAVELLY LAKE DRIVE SW,Lakewood,WA,98499
3933,3800 3rd Street Southeast,Puyallup,WA,98374
3934,221 W HERON ST,Aberdeen,WA,98520
3935,21301 State Route 410 E,Bonney Lake,WA,98390
3936,1624 72ND ST E,Tacoma,WA,98404
3937,708 SHAW RD,PUYALLUP,WA,98372
3938,707 S 56TH ST,Tacoma,WA,98408
3939,1302 S 38TH ST,Tacoma,WA,98418
3940,3640 South Cedar St. Suite M,Tacoma,WA,98409
3941,5702 SUMMITVIEW AVENUE,Yakima,WA,98908
3942,"2603 Bridgeport Way West, Suite F",University Place,WA,98466
3943,2156 Pacific Ave,Tacoma,WA,98402
3944,600 W FRANKLIN ST,Shelton,WA,98584
3945,152 ROOSEVELT AVE,Enumclaw,WA,98022
3946,506 North 40th Avenue STE 201,Yakima,WA,98908
3947,1112 SOUTH M STREET,Tacoma,WA,98405
3948,6201 6th Ave,Tacoma,WA,98406
3949,900 E Meridian E STE 12,Milton,WA,98354
3950,1406 Lake Tapps Pkwy Se,Auburn,WA,98092
3951,"5929 Westgate Boulevard, Suite A",Tacoma,WA,98406
3952,2411 N Proctor St,Tacoma,WA,98406
3953,905 E MEAD AVE,Yakima,WA,98901
3954,2637 N. PEARL STREET,Tacoma,WA,98407
3955,205 NORTH 5TH AVENUE,Yakima,WA,98902
3956,34618 11th PL Suite 100,Federal Way,WA,98003
3957,1336 South 336th Street,Federal Way,WA,98003
3958,101 Auburn Way S,Auburn,WA,98002
3959,1207 S 320th St,Federal Way,WA,98003
3960,923 Auburn Way North,Auburn,WA,98002
3961,2704 I ST NE,AUBURN,WA,98032
3962,4508 Auburn Way N,Auburn,WA,98002
3963,"4508 Auburn Way North, Suite C",Auburn,WA,98002
3964,13101 SE KENT KANGLEY HWY,Kent,WA,98031
3965,17023 Se 272nd_st,Covington,WA,98042
3966,210 WASHINGTON AVENUE SOUTH,Kent,WA,98032
3967,325 West Gowe Street,Kent,WA,98032
3968,325 W Gowe St Suite 110,Kent,WA,98032
3969,26916 Maple Valley Black Diamond Rd SE,Maple Valley,WA,98038
3970,613 S. 6TH ST.,Sunnyside,WA,98944
3971,21401 PACIFIC HWY SOUTH,Des Moines,WA,98198
3972,12850 Southeast Lala Cove Lane,Olalla,WA,98359
3973,20830 108th S E,Kent,WA,98031
3974,19655 1st Ave S Ste 203,Normandy Park,WA,98148
3975,1412 SW 43rd St Suite.140,Renton,WA,98057
3976,"31 NE Route 300, Suite 200",Belfair,WA,98528
3977,610 E. WINE COUNTRY ROAD,Grandview,WA,98930
3978,23961 N.e. State Route 3,Belfair,WA,98528
3979,4011 S 164TH ST,Sea-tac,WA,98188
3980,138 SW 148TH ST,Burien,WA,98166
3981,707 S Grady Waym Suite 700,Renton,WA,98057
3982,405 S 4th St,Renton,WA,98057
3983,200 S. 3RD ST.,Renton,WA,98055
3984,3355 Bethel Rd. Se,Port Orchard,WA,98366
3985,804 W. 1ST ST.,Cle Elum,WA,98922
3986,9620 28TH AVE SW,Seattle,WA,98126
3987,400 N RUBY ST,Ellensburg,WA,98926
3988,9262 Rainier Ave. S.,Seattle,WA,98118
3989,601 W NORTH ST,Enterprise,OR,97828
3990,2428 East 117th Street,Burnsville,MN,55337
3991,1440 Duckwood Drive,EAGAN,MN,55122
3992,3460 Washington Dr Suite 200,Eagan,MN,55122
3993,790 West 66th St,Richfield,MN,55423
3994,5346 Lyndale Avenue South,Minneapolis,MN,55419
3995,6200 EXCELSIOR BLVD STE 202,MINNEAPOLIS,MN,55416
3996,2810 NICOLLET AVE,MINNEAPOLIS,MN,55408
3997,1026 West 7th Street,St. Paul,MN,55102
3998,2200 E FRANKLIN AVE 199,MINNEAPOLIS,MN,55404
3999,15700 37th Avenue North City Center Professional,Plymouth,MN,55446
4000,777 Raymond Ave,Saint Paul,MN,55114
4001,576 Bielenberg Dr 180,Woodbury,MN,55125
4002,3101 Old Hwy 8 Ste 203B,Roseville,MN,55113
4003,116 E Elm St,River Falls,WI,54022
4004,1687 Eaast Division Street,River Falls,WI,54022
4005,646 East River Road,Anoka,MN,55303
4006,4076 Kothlow Avenue,Menomonie,WI,54751
4007,2119 Heights Drive,Eau Claire,WI,54701
4008,3440 Oakwood Hills Pkwy,Eau Claire,WI,54701
4009,2449 County HWY I,Chippewa Falls,WI,54729
4010,2449 County Highway I,Chippewa Falls,WI,54729
4011,1810 Second St,Wausau,WI,54403
4012,W12802 Cty Hwy A,Bowler,WI,54416
4013,635 Main Street,Green Bay,WI,54301
4014,1346 E. Green Bay St.,Shawano,WI,54166
4015,125 School Creek Trail,Luxemburg,WI,54217
4016,231 N 7th Ave,Sturgeon Bay,WI,54235
4017,1409 Cleveland Avenue,Marinette,WI,54143
4018,1110 10th Ave.,Menominee,MI,49858
4019,4713 Pine Street SW,South Boardman,MI,49680
4020,1719 S GARFIELD AVE,TRAVERSE CITY,MI,49686
4021,1010 S Garfield Ave,Traverse City,MI,49686
4022,10767 East Traverse Highway,Traverse City,MI,49684
4023,10223 E CHERRY BEND RD,TRAVERSE CITY,MI,49684
4024,419 S Coral St,Kalkaska,MI,49646
4025,419 W State St,Mancelona,MI,49659
4026,829 W. Main St Suite G,Gaylord,MI,49735
4027,2329 Center St,Boyne Falls,MI,49713
4028,MOBILE UNIT,OREGON,OH,43616
4029,"80 State Highway 310, Suite 1",Canton,NY,13617
4030,12 Elm St,Potsdam,NY,13676
4031,50 Leroy Street,Potsdam,NY,13676
4032,31 Lower Main St Suite 3,Morrisville,VT,05661
4033,4 Slapp Hill,Hardwick,VT,05843
4034,79 Coverty St,Newport,VT,05855
4035,58 Portland Road,Kennbunk,ME,04043
4036,83 Portland Rd,Kennebunk,ME,04043
4037,1 MEDICAL CENTER DR,BIDDEFORD,ME,04005
4038,"1601 Congress Street, 2nd Floor",Portland,ME,04102
4039,550 Forest Ave Ste 103,Portland,ME,04101
4040,48 Free Street,Portland,ME,04101
4041,17 Bishop St,Portland,ME,04103
4042,5 Bucknam Rd. Suite 2B,Falmouth,ME,04105
4043,990 HWY 395 S,Hermiston,OR,97838
4044,201 SW 20TH ST,Pendleton,OR,97801
4045,"1532 Ellis St, Suite 104",Bozeman,MT,59715
4046,"2525 4th Ave North, Suite A",Billings,MT,59101
4047,713 Anderson Ave,Saint Cloud,MN,56303
4048,145 2nd Ave SE,Cambridge,MN,55008
4049,"100 Polk County Plaza, Suite 50",Balsam Lake,WI,54810
4050,2031 Rowland Road,Mora,MN,55051
4051,200 ELM ST N,ONAMIA,MN,56359
4052,3144 VanZile Road,Chandon,WI,54520
4053,3401 LUDINGTON ST Suite 103,ESCANABA,MI,49829
4054,704 Emmet St,Petoskey,MI,49770
4055,8486 M-119,Harbor Springs,MI,49740
4056,226 Main St.,Sherman,ME,04776
4057,"8508 West Gage Boulevard, Suite A101",Kennewick,WA,99336
4058,2825 W Kennewick Ave,Kennewick,WA,99336
4059,1175 CARONDELET DR,RICHLAND,WA,99354
4060,1803 George Washington Way,Richland,WA,99354
4061,405 W. Main Street,Walla Walla,WA,99362
4062,302 5th St. Suite 3,CLARKSTON,WA,99403
4063,1443 Idaho Street,Lewiston,ID,83501
4064,430 SE BISHOP BLVD,Pullman,WA,99163
4065,1320 S BLAINE STREET,Moscow,ID,83843
4066,3111 Grant St STE A,Missoula,MT,59801
4067,"121 North Last Chance Gulch, Suite H",Helena,MT,59601
4068,"914 S 12th St, Suite 101",Bismarck,ND,58504
4069,1484 W Lincoln Ave,Fergus Falls,MN,56537
4070,"819 30th Avenue South, Office 206, Suite B",Moorhead,MN,56560
4071,810 4th Ave S 101,Moorhead,MN,56560
4072,27278 State Highway 18,Garrison,MN,56450
4073,200 Bunker Hill Drive,Aitkin,MN,56431
4074,2 East Center Avenue,McGregor,MN,55760
4075,512 SKYLINE BLVD,CLOQUET,MN,55720
4076,135 East M-35,Gwinn,MI,49841
4077,97 S. 4th Street,Ishpeming,MI,49849
4078,300 N. McClellan Ave,Marquette,MI,49855
4079,1414 W. Fair Ave. Suite 133,Marquette,MI,49855
4080,16523 S. Water Tower Drive,Kincheloe,MI,49788
4081,2655 Ashmun Street,Sault Ste. Marie,MI,49783
4082,301 East Spruce Street,Sault Sainte Marie,MI,49783
4083,900 N Callow Ave,Bremerton,WA,98312
4084,616 Sixth Street,Bremerton,WA,98337
4085,2508 Wheaton Way,Bremerton,WA,98310
4086,"4744 41st Avenue Southwest, Suite 104",Seattle,WA,98116
4087,"4060 Wheaton Way, Suite 2A",Bremerton,WA,98310
4088,2622 California Ave Sw,Seattle,WA,98116
4089,6911 Coal Creek Parkway_s E,Newcastle,WA,98059
4090,5455 ALMIRA DR NE,BREMERTON,WA,98311
4091,3820 RAINER AVE S.,Seattle,WA,98118
4092,1401 NE McWilliams Rd,Bremerton,WA,98311
4093,1701 18th Avenue South,Seattle,WA,98144
4094,735 N W Gilman Blvd,Issaquah,WA,98027
4095,3003 Island Crest Way,Mercer Island,WA,98040
4096,2737 78th Ave SE Suite 100,Merced Island,WA,98040
4097,1451 Highlands Dr Ne,Issaquah,WA,98029
4098,1537 Western Ave,Seattle,WA,98101
4099,460 SW MT SI BLVD,No. Bend,WA,98045
4100,516 1st Ave W,Seattle,WA,98119
4101,16 Roy Street,Seattle,WA,98109
4102,2201 E MADISON ST,Seattle,WA,98112
4103,1601 114TH AVE SE STE 180,BELLEVUE,WA,98004
4104,1410 E JOHN ST,Seattle,WA,98112
4105,300 Bellevue Way Ne,Bellevue,WA,98004
4106,"12330 Northeast 8th Street, Suite 100",Bellevue,WA,98005
4107,"1215 120th Ave NE, Suite 201",Bellevue,WA,98005
4108,"13353 Bel-Red Road, Suite 105",Bellevue,WA,98005
4109,1645 140th Ave NE,Bellevue,WA,98005
4110,1801 NORTHWEST MARKET STREET,SEATTLE,WA,98107
4111,1423 Nw Market St.,Seattle,WA,98107
4112,3020 NE 45th St,Seattle,WA,98105
4113,630 228th Ave N E,Sammamish,WA,98074
4114,8340 15th Ave NW,Seattle,WA,98117
4115,7300 ROOSEVELT WAY NE,Seattle,WA,98115
4116,7340 35th N E,Seattle,WA,98115
4117,19245 10th Ave Ne,Poulsbo,WA,98370
4118,"19917 7th Ave NE, Suite 205",Poulsbo,WA,98370
4119,12519 N E 85th St,Kirkland,WA,98033
4120,"2111 N Northgate Way, Suite 101",Seattle,WA,98133
4121,12318 15th Ave Ne,Seattle,WA,98125
4122,11416 SLATER AVE NE Suite 203,KIRKLAND,WA,98033
4123,10322 Northeast 132nd,Kirkland,WA,98034
4124,"13115 121st Way NE, Suite C",Kirkland,WA,98034
4125,10020 NE 137th St,Kirkland,WA,98034
4126,17202 15th Ave N E,Shoreline,WA,98155
4127,14444 124th Ave N E,Kirkland,WA,98034
4128,510 Grant Rd,East Wenatchee,WA,98802
4129,14020 Main Street Ne,Duvall,WA,98019
4130,501 N MILLER st,Wenatchee,WA,98801
4131,17641 Garden Way Ne,Woodinville,WA,98072
4132,19150 N E Woodinville Duvall,Woodinville,WA,98077
4133,116 RIVER BEND DR,Leavenworth,WA,98826
4134,24040 Bothell-everett Hwy,Bothell,WA,98021
4135,23632 Hwy 99,Edmonds,WA,98026
4136,23320 WA-99,Edmonds,WA,98026
4137,20711 Bothell-Everett Hwy,Bothell,WA,98012
4138,7416 212th St SW,Edmonds,WA,98026
4139,601 S. PIONEER WAY,Moses Lake,WA,98837
4140,1150 BASIN STREET SW,Ephrata,WA,98823
4141,2710 1st Street,Cheney,WA,99004
4142,2509 E 29th Ave,Spokane,WA,99223
4143,6 E 1ST AVE,SPOKANE,WA,99202
4144,1616 W Northwest Blvd,Spokane,WA,99205
4145,East 933 Mission Avenue,Spokane,WA,99202
4146,2507 W. Wellesley,Spokane,WA,99205
4147,"8921 E Alki Ave, Suite 1",Spokane Valley,WA,99212
4148,3919 N Market St,Spokane,WA,99207
4149,14020 E Sprague,Spokane,WA,99216
4150,6208 N Colton St,Spokane,WA,99208
4151,208 East Francis Avenue,Spokane,WA,99208
4152,1103 E SHERMAN AVE STE 6,COEUR D'ALENE,ID,83814
4153,1001 N FOURTH STREET,Coeur d'Alene,ID,83814
4154,1686 W RIVERSTONE DR STE 1,COEUR D ALENE,ID,83814
4155,121 W NEIDER AVENUE,Coeur d'Alene,ID,83815
4156,1304 N. LIBERTY LAKE RD.,Liberty Lake,WA,99019
4157,6520 N NEVADA ST,Spokane,WA,99208
4158,401 15TH AVE S STE 109,GREAT FALLS,MT,59405
4159,416 Kundert St.,Turtle Lake,ND,58575
4160,122 E. 2nd St,McClusky,ND,58463
4161,516 S Pokegama Ave,GRAND RAPIDS,MN,55744
4162,2729 East 13th Ave,Hibbing,MN,55746
4163,500 Campus Drive,Hancock,MI,49930
4164,56720 Calumet Avenue,Calumet,MI,49913
4165,25989 Barber Cut Off Road,Kingston,WA,98346
4166,8196 NE STATE HIGHWAY 104,Kingston,WA,98346
4167,4111 194th Street Southwest,Everett,WA,98036
4168,14826 Highway 99,Lynnwood,WA,98087
4169,1019 112th St SW,Everett,WA,98204
4170,5802 134th Place Se,Everett,WA,98208
4171,11031 19TH AVE SE,Everett,WA,98208
4172,7601 Evergreen Way,Everett,WA,98203
4173,19651 STATE ROUTE 2,Monroe,WA,98272
4174,1301 Avenue D,Snohomish,WA,98290
4175,4201 Rucker Ave,Everett,WA,98203
4176,4128 RUCKER AVENUE,Everett,WA,98201
4177,"3624 COLBY STREET, SUITE B",EVERETT,WA,98201
4178,1715 BROADWAY,Everett,WA,98201
4179,1424 Broadway Ave.,Everett,WA,98201
4180,680 W WASHINGTON ST BLDG F,Sequim,WA,98382
4181,930 North Broadway,Everett,WA,98201
4182,8915 Market Place Ne,Lake Stevens,WA,98258
4183,442 W SIMS WAY,Port Townsend,WA,98368
4184,301 MARYSVILLE MALL 60,Marysville,WA,98270
4185,2709 E. HIGHWAY 101,Port Angeles,WA,98362
4186,1258 STATE AVE,Marysville,WA,98270
4187,110 E 3RD ST,Port Angeles,WA,98362
4188,3711 88TH STREET NE,Marysville,WA,98270
4189,3532 172nd Street N.E.,Arlington,WA,98223
4190,5700 172nd St Ne,Arlington,WA,98223
4191,20500 OLYMPIC PL NE,Arlington,WA,98223
4192,2601 E DIVISION ST,Mount Vernon,WA,98274
4193,8212 S March Point Rd,Anacortes,WA,98221
4194,315 EAST COLLEGE WAY,Mt Vernon,WA,98273
4195,"1725 Continental Place, Suite C",Mount Vernon,WA,98273
4196,757 HAGGEN DR,Burlington,WA,98233
4197,911 11TH STREET,Anacortes,WA,98221
4198,106 W. MANSON HWY,Chelan,WA,98816
4199,121 W. WALNUT ST,Newport,WA,99156
4200,702 N. 5TH AVENUE,Sandpoint,ID,83864
4201,14 E Main,Cut Bank,MT,59427
4202,521 4th Street,Havre,MT,59501
4203,"1600 2nd Ave SW, Suite 19",Minot,ND,58701
4204,200 US-2,DEVILS LAKE,ND,58301
4205,212 S 4th St Suite 301,Grand Forks,ND,58201
4206,1113 W. 11th St,Grafton,ND,58237
4207,"800 E Chestnut St, Suite 3A",Bellingham,WA,98225
4208,"1333 King Street, Suite A",Bellingham,WA,98229
4209,2814 MERIDIAN ST,Bellingham,WA,98225
4210,1275 E SUNSET DRIVE,Bellingham,WA,98226
4211,2900 WOBURN ST,Bellingham,WA,98226
4212,4120 Meridian St,Bellingham,WA,98226
4213,1815 MAIN ST,Ferndale,WA,98248
4214,8071 GUIDE MERIDIAN ROAD,Lynden,WA,98264
4215,401 2nd Ave.,Rolette,ND,58366
4216,114 3rd St. NE,Rolla,ND,58367
