Name1,Name2,Address1,Address2,City,State,ZIP_Code,Contact,Keys
Lighthouse of Tallapoosa County Inc,,,36 Franklin Street,,Alexander City,AL,35010,(205)234-4894,TX/RR/HH/
Anniston Fellowship House Inc,,,I 06 East 22nd Street,,Anniston,AL,36201,(256)236-7229,TX/RR/HH/CJ/
Calhoun/Cleburne Mental Health Center,New Directions,,331 East 8th Street,,Anniston,AL,36202,(256)236-3403 Hotlines: (256)236-3403 (256)236-8003,TX/PV/OS/OR/IO/AD/DD/SS/CM/
Aleoholism Recovery Services Inc,,,2701 Jefferson Avenue SW,,Birmingham,AL,35211,(205)923-6552,TX/PV/OS/DT/OR/IO/RD/RR/HV/SS/OH/MD/
Aletheia House,,,201 Finley Avenue West,,Birmingham,AL,35204,(205)324-6502,TX/OS/OR/IO/SS/MD/
Birmingham Health Care for,The Homeless,,712 25th Street North,,Birmingham,AL,35203,(205)439-7216,TX/PV/OS/OR/IO/SS/FG/
Bradford Health Services,Birmingham Regional Office Jefferson,,631 Beacon Parkway West,Suite 211,Birmingham,AL,35209,(800)293-7191,TX/OS/OR/IO/AD/DD/SS/
Department of Veterans Affairs,Medical Center,,1717 I Ith Avenue South,,Birmingham,AL,35205,(205)939-2135,TX/OS/OR/DD/GH/FG/
Fellowship House Inc,,,1625 12th A venue South,,Birmingham,AL,35205,(205)933-2430,TX/PV/OS/RR/DD/HH/FG/
Hill Crest Behavioral Health Services,Chemical Dependency Track,,6869 5th A venue South,,Birmingham,AL,35212,(205)833-9000 Hotlines: (205)833-9000 (800)292-8553,TX/PV/OS/DT/OR/IO/ID/IR/AD/DD/SS/PH/TC/CM/SG/SC/
Jefferson County Economic Opportunity,Alcoholism Outreach/ Aftercare Program,,3040 Ensley A venue,,Birmingham,AL,35208,(205)787-3040 Hotline: (205)787-3040,TX/PV/OS/IO/AD/DD/SS/
Oakmont Center,,,1915 A venue H Ensley,,Birmingham,AL,35218,(205)787-7100,TX/PV/OS/IO/AD/SS/
Saint Anncs Home Inc,,,2772 Hanover Circle,,Birmingham,AL,35205,(205)933-2402,TX/OS/RR/DD/HV/PW/SS/TC/
Tri County Treatment Center,,,500 Gene Recd Road,Suite 220,Birmingham,AL,35215,(205)836-3345,ML/PV/OS/DT/OD/RD/RR/SS/OH/
Univ of Alabama in Birmingham Hospital,Center for Psychiatric Medicine,,1713 6th A venue South,,Birmingham,AL,35294-0018,(205)934-9699 Hotline: (205)934-7008,TX/PV/OS/DT/OD/OR/IO/ID/RD/RR/AD/PH/MC/FG/PI/
University of Alabama,Substance Abuse Program,,401 Beacon Parkway West,,Birmingham,AL,35209,,TX/ML/PV/OS/OR/IO/AD/HV/PW/SS/CM/CJ/MC/MD/PI/
Chilton Shelby Mental Health Center,Substance Abuse Division,,1822 17th Street,Highway 25,Calera,AL,35040,(205)668-2700,TX/PV/OS/IO/AD/SS/CM/MD/PI/
Lifeline Services Inc,Cherokee County Location,,423 East Main Street,,Centre,AL,35960,(888)329-0440,TX/OR/IO/SS/
Ventress Correctional Facility,Substance Abuse Services,,State Road 239,,Clayton,AL,36016,Hotline: (334)775-3331,TX/PV/RR/DD/SS/TC/CJ/FG/
Mental Health Ctr of North Central AL,Quest Rec Ctr Subst Abuse Treatment,,1312 Somerville Road,,Decatur,AL,35601,(256)353-9116 Hotline: (256)355-6091,TX/PV/OS/OR/IO/DD/PW/SS/MD/PI/
West Alabama Mental Health Center,Substance Abuse Program,,1215 Walnut Avenue South,,Demopolis,AL,36732,(334)289-2410 Hotlmes: (334)289-2410,TX/PV/OS/OR/IO/CM/MD/
Spectra Care,,,831 John D Odom Road,,Dothan,AL,36303,(334)794-3771 Hotline: (334)794-0700,TX/RR/SS/OH/
Baldwin County Mental Health Center,,,372 South Greeno Road,,Fairhope,AL,36532-1905,(334)990-8961 Hotlines: (800)738-2871 (800)558-8295,TX/PV/OS/OR/IO/SS/CM/MC/
Riverbend Center for Mental Health,Substance Abuse Services,,635 West College Street,,Florence,AL,35630,(256)764-3431 Hotline: (256)764-3431,TX/PV/OR/AD/DD/HV/PW/SS/PH/TC/CM/MD/PI
Cherokee/Etowah/DeKalb,Mental Health Center Subst Abuse Servs,,90 I Goodyear A venue,,Gadsden,AL,35903,(256)492-7800 Hotline: (256)492-7800,TX/PV/OS/OR/IO/DD/CM/MD/
The Bridge Inc,,,3232 Lay Springs Road,,Gadsden,AL,35904,(256)546-6324,TX/PV/OS/IO/RR/AD/DD/SS/SC/
Marshall/Jackson MH Authority,Mountain Lakes Behavioral Health Care,,22165 U.S. Highway 431,,Guntersville,AL,35976,(256)582-4465 Hotlines: (256)582-5339 (256)582-4465,TX/PV/OS/OR/IO/RR/DD/SS/HH/CM/
Crestwood Medical Ctr of Huntsville,Behavioral Services,,I Hospital Drive,,Huntsville,AL,35801,(256)880-4260 Hotlines: (256)880-4260 (256)880-4280,TX/PV/OS/DT/IO/ID/IR/AD/DD/GH/MC/MD/FG/PI/
Huntsville Metro Treatment Center,,,2227 Drake A venue,Suite 10-D,Huntsville,AL,35805,(256)881-1311,TX/ML/OS/DT/OD/OR/DD/HV/PW/SS/
Madison County Mental Health Center,New Horizons Recovery Center,,600 Saint Clair Street,Number 9 Suite 23,Huntsville,AL,35801,(256)532-4141,TX/PV/OS/OR/IO/CM/MD/PI/
Pathfinder Inc,,,3104 Ivy Avenue SW,,Huntsville,AL,35805,(256)534-7644,TX/RR/HH/
Northwest Alabama Mental Health Center,,,1100 7th A venue,,Jasper,AL,35501,Hotline: (800)489-3971,TX/PV/OS/OR/IO/RR/SS/CM/MD/FG/
Maxwell Air Force Base,Substance Abuse Program,,330 Kirkpatrick A venue E,,Maxwell AFB,AL,36113-6334,(334)493-4534,TX/PV/OS/DT/OD/OR/IO/PW/SS/GH/CM/FG/
Bradford Health Services,Mobile Outreach Mobile,,1000 Hillcrest Road,Suite 304,Mobile,AL,36695,(800)333-0906 Hotlines: (334)633-0900 (800)333-0906,TX/PV/OS/OR/IO/SS/
Dauphin Way Lodge,,,1009 Dauphin Street,,Mobile,AL,36604,(256)438-4729,TX/OS/IO/RR/SS/HH/FG/
ECO Program,,,2950 Springhill A venue,,Mobile,AL,36607,(334)476-1677,TX/IO/SS/
Oasis,,,4211 Government Boulevard,,Mobile,AL,36693,(334)666-2569,TX/OS/OR/IO/SS/OH/PI/
Bradford Health Services,Montgomery Outreach Montgomery,,100 Mendel Parkway,,Montgomery,AL,36117,(800)873-2887 Hotline: (334)244-0702,TX/PV/OS/OR/IO/AD/SS/
Chemical Addictions Program Inc,,,1153 Air Base Boulevard,,Montgomery,AL,36108,(334)265-4544 Hotline: (800)762-3790,TX/OS/IO/RR/AD/SS/MD/FG/
Jackson Hospital,Psychiatric Unit,,1235 Forest A venue,,Montgomery,AL,36106,(334)293-8660,TX/DT/ID/GH/MC/MD/FG/PI/
Lighthouse Counseling Center Inc,Intensive Outpatient Unit,,1415 East South Boulevard,,Montgomery,AL,36116,(334)286-5980,TX/PV/OS/OR/IO/DD/HV/PW/SS/MD/PI/
Meadhaven Addictive Disease Program,,,2105 East South Boulevard,,Montgomery,AL,36116,(334)286-3535,TX/PV/OS/DT/OD/IO/ID/IR/DD/GH/MC/FG/PI
Montgomery Metro Treatment Center,,,4303 Norman Bridge Road,,Montgomery,AL,36105,(334)288-5363,TX/ML/PV/OS/DT/OD/OR/IO/SS/GH/SG/
Shoals Treatment Center,,,520 Louise Street,,Muscle Shoals,AL,35661,(205)383-6646,TX/ML/PV/OS/DT/OD/OR/SS/PI/
Bradford Health Services,Oak Mountain Shelby,,2280 Highway 35 South,,Pelham,AL,35124,(205)664-3480,TX/RR/AD/SS/OH/FG/PI/
Lifeline Services Inc,Russell County Location,,1602 Broad Street,,Phenix City,AL,36867,(888)329-0440,TX/PV/OS/OR/IO/SS/CJ/
Self Discovery Inc,,,59928 Highway 22,,Roanoke,AL,36274,(888)283-6747,TX/OS/DT/ID/IR/GH/MC/PI/
The Freedom House,,,Route 4,,Rogersville,AL,35652,(205)247-1222,TX/IO/RR/PW/SS/OH/HH/
Sunrise Lodge,Substance Abuse Treatment Center,,1163 Washington Avenue SW,,Russellville,AL,35653,(205)332-0078,TX/RR/SS/MD/PI/
Cahaba Cares,Substance Abuse Services,,912 Jeff Davis Avenue,,Selma,AL,36701,(334)874-2600 Hotline: (334)875-2109,TX/PV/OS/OR/IO/AD/HV/PW/SS/CJ/MD/
The Shoulder,,,4901 Battleship Parkway,,Spanish Fort,AL,36577,(334)626-2199,TX/PV/OS/IO/RR/SS/HH/
Cheaha Regional Mental Health,Mental Retardation Board Inc,,1721 Old Birmingham Highway,,Sylacauga,AL,35150,(256)249-2395 Hotline:,TX/PV/OS/DT/IO/RD/RR/AD/SS/MD/
Indian Rivers Mental Health Center,Alcohol and Drug Abuse Program,,505 19th A venue,,Tuscaloosa,AL,35401,(205)391-0118 Hotline: (205)345-1600,TX/PV/OS/OR/IO/RR/DD/PW/SS/CM/CH/MC/MD/FG/PI/
Phoenix House Inc,,,700 35th A venue,,Tuscaloosa,AL,35401,(205)758-3867,TX/RR/HH/FG/
Tuscaloosa Treatment Center,,,535 River Road NE,Suite G-3,Tuscaloosa,AL,35404,(205)507-0800,TX/ML/OS/DT/OD/OR/SS/PI/
Veterans Affairs Medical Center,Primary Care Substance Abuse Clinic,,3701 Loop Road East,,Tuscaloosa,AL,35404,,TX/PV/OS/DT/OD/OR/IO/SS/PH/FG/
Central Alabama,Veteran Health Care System,,2400 Hospital Road,,Tuskegee,AL,36083,,TX/PV/OS/DT/OR/ID/SS/GH/PH/FG/
Bradford Health Services,Warrior Lodge/Jefferson,,1189 Allbritton Road,,Warrior,AL,35180,(800)333-1865 Hotlines: (205)647-1945 (800)648-1945,TX/PV/OS/DT/IO/RD/RR/DD/SS/TC/FG/PI/
Bradford Health Services at,Elmore Community Hospital,C/O Elmore Community Hospital,500 Hospital Drive,,Wetumpka,AL,36092,(334)567-4311,TX/OS/DT/ID/IR/GH/
Akeela Treatment Services,,,2805 Bering Street,Suite 4,Anchorage,AK,99503,(907)561-5266,TX/PV/OS/OR/RR/SS/TC/SC/CJ/MD/
Alaska Human Services Inc,Outpt Alc/Subst Abuse Treatment Prog,,4050 Lake Otis Parkway,Suite 11 I,Anchorage,AK,99508,(907)561-4535,TX/OS/OR/IO/SS/PI/
Alaska North Addictions Recovery Ctr,,,4330 Bragaw Street,,Anchorage,AK,99508,(907)561-5537,TX/PV/OS/OR/IO/RR/SS/MD/FG/PI/
Booth Memorial Youth and Family Servs,,,3600 East 20th A venue,,Anchorage,AK,99508,(907)279-0522,TX/PV/OS/OR/IO/AD/DD/PW/SS/MD/
Charter North,Behavioral Health System,,2530 Debarr Road,,Anchorage,AK,99508,(907)258-7575 Hotlines: (907)258-7575 (800)478-7575,TX/PV/OS/DT/ID/IR/AD/PH/
Genesis House Inc,,,2825 West 42nd Place,,Anchorage,AK,99517,(907)243-5130,TX/PV/OS/DT/OR/IO/RD/RR/DD/SS/CM/FG/PI/
Narcotic Drug Treatment Center Inc,Center for Drug Problems,,520 East 4th A venue,Suite 102,Anchorage,AK,99501-2624,(907)276-6430,TX/ML/PV/OS/DT/OD/OR/HV/SS/MD/PI/
Pacific Rim Counseling Inc,,,4141 B Street,Suite 210,Anchorage,AK,99503,(907)561-5252,TX/PV/OS/OR/IO/AD/DD/SS/SG/CJ/PI/
Providence Alaska Medical Center,Providence Breakthrough,,2401 East 42nd Avenue,Suite 103,Anchorage,AK,99508,(907)562-7325,TX/OS/OR/IO/AD/DD/SS/MC/PI/
RITE Inc,,,30 I East Fireweed Lane,Suite 102,Anchorage,AK,99503-2110,(907)562-7483,TX/PV/OS/OR/IO/AD/SS/PI/
Salvation Army,Clitheroe Center,,1709 South Bragaw Street,Point Woronzof/Wcst End Road Suite B,Anchorage,AK,99508,(907)276-2898,TX/OS/DT/OR/IO/RD/RR/DD/PW/SS/MD/FG/PI
Southcentral Foundation,Dena A Coy,,3916 East 9th Avenue,,Anchorage,AK,99508,(907)333-6677,TX/PV/OS/OR/RR/DD/PW/SS/MD/FG/
Veterans Affairs and ROC Anchorage AK,Addictions Treatment Program,,2925 Debarr Road,Suite 116,Anchorage,AK,99508,(907)257-4854,TX/PV/OS/DT/OD/OR/IO/DD/SS/FG/
Volunteers of America,,,441 West 5th Avenue,Suite 301,Anchorage,AK,99501-2340,(907)279-9634,TX/PV/OS/OR/IO/RR/AD/SS/MD/FG/PI/
Kuskokwim Native Association,Community Counseling Program,,P. 0. Box 155,,Aniak,AK,99557,(907)675-4445 Hotline: (800)478-5622,TX/PV/OS/OR/CM/
North Slope Borough,Health Substance Abuse Treatment Servs,,579 Kingosak Street,,Barrow,AK,99723,(907)852-0274 Hotlines: (907)852-0274 (907)852-0275,TX/PV/OS/DT/OD/OR/RD/RR/AD/SS/TC/FG/
Copper River Community Mental Hlth Ctr,Substance Abuse Services,,Mile I 04 Old Richardson Highway,,Copper Center,AK,99573,(907)822-5241,TX/PV/OS/OR/IO/DD/CM/MD/FG/CO/RD/OV/A
Sound Alternatives,Cordova Community Medical Center,,602 Chase A venue,,Cordova,AK,99574,(907)424-8300,TX/PV/OS/OR/AD/DD/HV/CM/MC/MD/PI/
Bristol Bay Area Health Corp,Alcoholism and Drug Abuse Program,,,,Dillingham,AK,99576,(907)842-5266,TX/PV/OS/DT/OR/IO/RD/RR/AD/DD/PW/SS/MD/PI
Aleutian Counseling Center,,,,,Dutch Harbor,AK,99692,(907)581-2742,TX/PV/OS/OR/AD/SS/FG/
Volunteers of America of Alaska ARCH,,,,,Eagle River,AK,99577,(907)694-3336,TX/RR/AD/DD/SS/
Eielson Air Force Base,Substance Abuse Program,,3349 Central A venue Suite I,,Eielson AFB,AK,99702-2325,,PV/OS/DT/OD/DD/SS/GH/FG/
Elmendorf AFB,Substance Abuse Office,,24800 Hospital Drive,,Elmendorf AFB,AK,99506,(907)552-8354,TX/PV/OS/DT/OD/OR/IQ/DD/PW/SS/GH/CM/FG/
Fairbanks Memorial Hospital,Family Recovery Center,,I 650 Cowles Street,,Fairbanks,AK,99701,(907)458-5540,TX/OR/IO/SS/GH/PI/
Graf Rheeneenhaanjii,Substance Abuse Services,,2550 Lawlor Road,,Fairbanks,AK,99701,(907)455-4725,TX/OS/RD/RR/AD/SS/OH/MD/FG/
Regional Center for Alcohol and,Other Addictions,,3100 South Cushman Street,,Fairbanks,AK,99707,(907)452-6251,TX/PV/OS/DT/OR/IO/RD/RR/AD/DD/SS/HH/FG/
TCC Regional Prevention Program,,,122 First A venue,,Fairbanks,AK,99701,(907)452-8251,TX/PV/OS/RR/SS/TC/FG/
Tanana Chiefs Conference Inc,Old Minto Family Recovery Camp,,122 1st Avenue,Suite 600,Fairbanks,AK,99707,,TX/PV/OS/RR/SS/FG/
Tanana Chiefs Conference Inc,Yukon Tanana Counseling Services,,1302 21st A venue,,Fairbanks,AK,99701,(907)459-3930,TX/PV/OS/OR/CM/FG/
Community Counseling Center,,,600 Richardson Drive,,Fort Richardson,AK,99505,(907)384-1416,TX/PV/OS/OR/SS/FG/
Fort Wainwright Alcohol and,Drug Abuse Prev Control Prog (ADAPCP),,1060 Gaffney Road Suite 6600,MCUC/CCC Building 1064,Fort Wainwright,AK,99703-6600,(907)353-1370,TX/PV/OS/DT/OD/OR/IO/SS/FG/
Railbelt Mental Health and Addicton,,,Dry Creek and Coal Street,,Healy,AK,99743,(907)832-5557,TX/PV/OS/OR/IO/AD/DD/SS/CM/PI/
Gastineau Human Services,,,5597 Aisek Street,,Juneau,AK,99801,(907)780-4338,TX/OS/OR/RR/DD/SS/
Tongass Community Counseling Center,,,222 Seward Street,Suite 202,Juneau,AK,99801,(907)586-3585,TX/PV/OS/OR/AD/CO/PI/
Cook Inlet Council on,Alcohol and Drug Abuse (CICADA),,10200 Kenai Spur Highway,,Kenai,AK,99611,(907)283-3658,TX/PV/OS/OR/IO/AD/SS/MD/PI/
Kenaitze Indian Tribe,Nakcnu,,150 North Willow Street,,Kenai,AK,99611,,TX/PV/OS/OR/AD/DD/SS/CM/FG/
Gateway Center for Human Services,Substance Abuse Services Division,,3050 5th A venue,,Ketchikan,AK,99901,Hotline: (907)225-4135,TX/PV/OS/OR/IO/AD/DD/SS/CM/MD/PI/
Ketchikan General Hosp Recovery Center,,,126 Washington Street,,Ketchikan,AK,99901,(907)247-4330 Hotline:,TX/PV/OS/OR/IO/AD/SS/GH/
Ketchikan Indian Corporation,,,355 Carlanna Lake Road,,Ketchikan,AK,99901,,TX/PV/OS/OR/AD/SS/FG/
Kodiak Council on Alcoholism Inc,,,115 Mill Bay Road,,Kodiak,AK,99615,(907)486-3535,TX/PV/OS/OD/OR/IO/RR/DD/HV/PW/SS/MD/
Maniilaq Addictions and Support,Mamilaq Association,,Frank Ferguson Building,D and E Wings,Kotzebue,AK,99752,,TX/PV/OS/DT/OD/OR/IO/RD/RR/DD/SS/GH/TC/CM/PI/
Four Rivers Counseling Services,McGrath/ Anvik Education and MH Assoc,,229 Joaquin Street,,McGrath,AK,99627,(907)524-3781 Hotline: (800)478-3781,TX/PV/OS/OR/IO/SS/CM/
Annette Island Service Unit,Family Services,,,,Metlakatla,AK,99926,(907)886-4325,TX/PV/OS/OR/IO/AD/SS/
Northern Lights Recovery Center,,,5th Avenue and Division Streets,Community Health Services Building,Nome,AK,99762,(907)443-3344,TX/OS/OR/IO/RR/DD/PW/SS/TC/MD/FG/PI
Changing Tides Counseling Services,,,201 North Nordic Street,Suites 204 and 205,Petersburg,AK,99833,(907)772-3552,TX/PV/OS/OR/AD/SS/MD/
Pribilof Counseling Center,,,,,Saint Paul Island,AK,99660,(907)546-2342,TX/PV/OS/OR/AD/SS/OH/
Eastern Aleutian Tribes Inc,,,Main Street,,Sand Point,AK,99661,(907)383-5421 Hotline: (800)478-2673,TX/PV/OS/OR/IO/AD/DD/SS/CM/
Seldovia Village Tribe/SKIAP,,,274 Main Street,,Seldovia,AK,99663-0197,(907)234-7807,TX/PV/OS/OR/AD/SS/
Seward Life Action Council,,,504 Adams Street,,Seward,AK,99664,(907)224-5257 Hotline: (907)224-3027,TX/PV/OS/OR/SS/CM/MD/PI/
Ravens Way/SEARHC,Adolescent Residential Treatment Prog,,222 Tongass Drive,,Sitka,AK,99835,(907)966-8714,TX/OS/RR/AD/DD/SS/MD/FG/PI/
Sitka Prevention and Trt Services Inc,Headquarters,,509 Lincoln Street,,Sitka,AK,99835,(907)747-3500,TX/PV/OS/OR/IO/AD/SS/HH/
Sitka Prevention and Trt Services Inc,,,509 Lincoln Street,,Sitka,AK,99835,(907)747-3500,TX/PV/OS/OR/IO/RR/AD/HV/PW/CO/MD/PI
Southeast AK Regional Hlth Consortium,Community Family Services Program,,222 Tongass Drive,,Sitka,AK,99835,(907)966-8710,TX/PV/OS/OR/IO/SS/FG/
Upper Tanana Alcohol Program,Tok Clinic Building,Tok Cut-Off,,,Tok,AK,99780,(907)883-5185,TX/PV/OS/OR/IO/CH/
Valdez Counseling Center,,,337 Egan A venue,,Valdez,AK,99686,(907)835-2838 Hotline: (907)835-2999,TX/PV/OS/OR/IO/AD/CM/
Alaska Addiction Rehab Services,Nugens Ranch,,3701 Palmer Wasilla Street,,Wasilla,AK,99654,(907)376-4534,TX/OS/DT/RD/RR/DD/SS/TC/
MAT/SU Recovery Center Incorporated,,,280 I Bogard Road,,Wasilla,AK,99654,(907)376-4000 Hotline: (907)376-4000,TX/PV/OS/OR/IO/AD/DD/PW/SS/CJ/MD/PI
Avenues,,,406 Alaska A venue,,Wrangell,AK,99929,(907)874-3338,TX/PV/OS/OR/SS/MD/
SMMHC Inc,Mental Health Ctr/Subst Abuse Services,,564 North Idaho Road,Suite 9,Apache Junction,AZ,85220,(480)983-0065,TX/PV/OS/OR/IO/CM/
Southeastern Arizona Behavioral,Health Services (SEABHS) Admin Unit,,590 South Ocotillo A venue,,Benson,AZ,85602,(520)586-7080 Hotline: (800)586-9161,TX/PV/OS/OR/DD/CM/FG/
Mohave Mental Health Clinic,Outpatient and Day Treatment,,2135 Highway 95,Suites 125 and 241,Bullhead City,AZ,86442,(520)758-5905,TX/IO/AD/DD/SS/CM/
Camp Verde Yavapai/Apache,Alcohol/Substance Abuse Program,,,,Camp Verde,AZ,86322,(520)567-3977,TX/PV/OS/OR/SS/FG/
Verde Valley Guidance Clinic Inc,,,497 Main Street,Suite 4,Camp Verde,AZ,86322,(520)634-2236 Hotline: (520)634-2236,TX/PV/OS/DT/OD/OR/IO/AD/DD/PW/CM/
Against Abuse Inc,,,,,Casa Grande,AZ,85230-0733,(520)836-1239,TX/PV/OS/OR/CM/MD/
Behavioral Health Agency of,Central Arizona,,120 West Main Street,,Casa Grande,AZ,85222-4820,(520)836-1688,TX/PV/OS/OR/DD/HV/SS/CM/MC/MD/
PGBHA BHACA Casa Grande Outpatient,,,120 West Main Street,,Casa Grande,AZ,85222-4820,(520)836-1675,TX/PV/OS/OR/IO/DD/HV/SS/CM/MC/MD/
PGBHA Helping Associates Inc,,,1901 North Trekell Road,Suite A,Casa Grande,AZ,85222,(520)836-1029,TX/OS/OR/IO/HV/SS/
Centro de Amistad Inc,,,100 West Boston Street,Suite 5,Chandler,AZ,85224,(480)839-2926,TX/PV/OS/OR/IO/AD/DD/PW/SS/CM/
Chandler Valley Hope and Drug Trt Ctr,,,501 North Washington Street,,Chandler,AZ,85225,(480)899-3335 Hotlines: (480)899-3335 (800)544-5101,TX/PV/OS/DT/RD/RR/SS/OH/TC/PI/
Verde Valley Guidance Clinic Inc,,,19 East Beech Street,,Cottonwood,AZ,86326,(520)634-2236 Hotline: (520)634-2236,TX/PV/OS/DT/OD/OR/IO/AD/DD/PW/CM/MD/
Dilcon Agency,Dept of Behavioral Health Services,,Old Pre School Building,Next Chapter House,Dilkon,AZ,86047,(520)657-8000,TX/PV/OS/IO/SS/OH/CM/CJ/FG/
PGBHA Pinal County Hispanic Council,,,712 North Main Street,,Eloy,AZ,85231,(520)466-3608,TX/PV/OS/OR/IO/AD/DD/SS/MD/FG/PI/
Aspen Hill Behavioral Health System,,,305 West Forest A venue,,Flagstaff,AZ,86001,(520)773-1060 Hotline: (800)336-2773,TX/PV/OS/DT/OR/IO/ID/AD/DD/SS/PH/CM/MC/MD/PI
Community Medical Services,,,2559 East 7th A venue,,Flagstaff,AZ,86004-3722,,TX/ML/OS/DT/OD/OR/IO/DD/SS/MD/
The Guidance Center,,,2187 North Vickey Street,,Flagstaff,AZ,86004,(520)527-1899,TX/PV/OS/DT/OD/OR/IO/RD/RR/AD/DD/PH/CM/MC/MD/PI/
Fort Defiance Outpatient Treatment Ctr,Fort Defiance Agency,,25 Saint A venue Drive,,Fort Defiance,AZ,86504,(520)729-4012,TX/PV/OS/OR/IO/RR/AD/DD/PW/SS/MD/
Fort McDowell Indian Community,Family and Community Services,,Yavapai Road,,Fort McDowell,AZ,85264,(480)816-7131,TX/PV/OS/OR/IO/AD/SS/CM/CO/
Community Care Network (CCN),Jewish Family and Childrens Services,,6376 West Bell Road,,Glendale,AZ,85308,(602)395-8900,TX/OS/IO/AD/DD/SS/
Maverick House,,,7022 North 48th Avenue,,Glendale,AZ,85301,(623)931-5810,TX/PV/OS/OR/RR/DD/SS/TC/MC/MD/PI/
Thunderbird Samaritan Behavioral Hlth,,,5555 West Thunderbird Road,,Glendale,AZ,85306,(602)588-4799 Hotline: (602)230-4357,TX/OS/DT/ID/GW/MC/MD/PI/
La Frontera Center,,,1151 South La Canada,Suite 105,Green Valley,AZ,85614,(602)625-0876,TX/PV/OS/DT/OD/IO/ID/DD/PW/CM/
Community Counseling Centers Inc,,,105 North 5th Avenue,,Holbrook,AZ,86025,Hotline:,TX/PV/OS/DT/OD/OR/IO/CM/
Kayenta Outpatient Treatment Center,,,,,Kayenta,AZ,86033,(520)697-5570,TX/PV/OS/OR/AD/DD/SS/
Copper Communities Resource and,Development Inc,,1116 Tilbury Street,,Kearny,AZ,85237,(602)363-5561,TX/PV/OS/OR/AD/DD/CO/
Mohave Mental Health Clinic,Substance Abuse Services,,1750 Beverly Street,,Kingman,AZ,86401,(520)757-811l,TX/OS/IO/DD/SS/SG/
Mohave Mental Health Clinic,Substance Abuse Services,,2187 Swanson Street,,Lake Havasu City,AZ,86403,(520)855-7806,TX/PV/OS/OR/IO/AD/DD/SS/CM/CH/
Luke Air Force Base,Substance Abuse Program,,7219 North Litchfield Road,,Luke AFB,AZ,85309-1525,(623)856-7580,TX/PV/OS/OR/IO/SS/GH/CM/FG/
Mental Health Clinic,Substance Abuse Control,,7219 North Litchfield Road,,Luke AFB,AZ,85309-1525,(623)856-4185,TX/PV/OS/OR/IO/DD/SS/GW/FG/
Centro De Amistad Inc,Mesa Office,,734 East Broadway,Suite C,Mesa,AZ,85204,(480)833-0227,TX/PV/OS/OR/IO/AD/DD/SS/CM/
East Valley Addiction Council Inc,,,554 South Bellview Street,,Mesa,AZ,85204,(480)962-7922,TX/PV/OS/DT/OR/IO/RD/
East Valley Catholic Social Services,,,430 North Dobson Road,Suite I 10,Mesa,AZ,85201,(480)964-8771,TX/OS/OR/CO/MD/
New Hope Behavioral Health Center Inc,,,6550 Broadway,Suite IOI,Mesa,AZ,85206,(480)981-1022,TX/ML/OS/DT/OD/OR/SS/SG/
Prehab of Arizona Inc,Center for Family Enrichment,,1655 East University Drive,,Mesa,AZ,85203,(480)969-6955,TX/OS/OR/AD/DD/HV/PW/SS/
Prehab of Arizona Inc,Helaman House,,2613 South Power Road,,Mesa,AZ,85206,(480)461-5075,TX/PV/OS/RR/AD/DD/SS/FG/
Prehab of Arizona Inc,Homestead Residence,,1131 East University Drive,,Mesa,AZ,85203,(480)969-8961,TX/PV/OS/RR/AD/DD/SS/TC/SC/CJ/FG/
Samaritan Behavioral Health Desert,,,2225 West Southern Avenue,,Mesa,AZ,85202,(480)464-414l Hotlines: (800)254-4357 (602)254-4357,TX/OS/DT/OD/OR/IO/ID/DD/HV/SS/GH/PH/
Women in New Recovery,,,540 West 1st Street,,Mesa,AZ,85201,(480)464-5764 Hotline: (480)464-5764,TX/PV/OS/RR/DD/HV/SS/HH/
Administrative Office,,,Burro Alley and Coronado Boulevard,,Morenci,AZ,85540,(520)865-4531 Hotline: (800)586-9161,TX/PV/OS/OR/IO/AD/DD/SS/CM/FG/
Santa Cruz Family Guidance,Center Division Inc (SEABHS),,489 North Arroyo Boulevard,,Nogales,AZ,85621,(520)287-4713 Hotlines: (520)287-9009 (800)586-9161,TX/PV/OS/OD/OR/IO/AD/DD/HV/PW/SS/CM/MD/PI/
Tri Community Resource Center,,,980 Mount Lemmon Road,,Oracle,AZ,85623,(520)896-9240,TX/PV/OS/OR/DD/CM/MD/PI/
Kaibeto Outpatient Treatment Center,,,337 North Navajo Street,,Page,AZ,86040,(520)645-2109 Hotline: (520)673-3267,TX/PV/OS/OR/IO/AD/SS/OH/CM/SC/CJ/
Colorado River Indian Tribes,Behavioral Health Services,,Route I,,Parker,AZ,85344,(520)669-6093,TX/OS/DT/RD/RR/SS/TC/CM/CJ/
New Life Guidance Center,,,1200 Arizona Avenue,,Parker,AZ,85344,(520)669-6161 Hotline: (520)453-0286,TX/OS/OR/SS/CM/CJ/PI/
Public Health Service,Indian Hospital Substance Abuse Servs,,Route I,,Parker,AZ,85344,,TX/PV/OS/DT/OD/OR/ID/DD/SS/GH/CM/FG/
Rim Guidance Center,,,404 West Aero Drive,,Payson,AZ,85547,(520)474-3303,TX/OS/OR/IO/CM/MC/MD/PI/
Hualapai Health Department,Alcoholism and Drug Abuse Program,,960 Rodeo Way,,Peach Springs,AZ,86434,(520)769-2207,TX/PV/OS/OR/IO/RR/AD/DD/SS/FG/
Behavioral Systems Southwest,,,2846 East Roosevelt Street,,Phoenix,AZ,85008,(602)273-6293,TX/PV/OS/OR/RR/DD/HH/
Calvary Rehabilitation Center,,,720 East Montebello A venue,,Phoenix,AZ,85014,(602)279-1468,TX/PV/OS/OR/IO/RR/DD/SS/TC/PI/
Carl T Hayden YA Medical Center,Substance Abuse Treatment Program,,650 East Indian School Road,Suite l l-A9,Phoenix,AZ,85012,,TX/OS/OR/IO/DD/GH/FG/
Casa De Amigas,,,1648 West Cotler Street,Suite 8,Phoenix,AZ,85015,(602)265-9987,TX/OS/RR/PW/SS/MD/
Chicanos Por La Causa Inc,Centro De La Familia,,4622 West Indian School Road,Suite D-12,Phoenix,AZ,85009,(623)247-0464,TX/PV/OS/OR/IO/AD/DD/HV/SS/CM/CO/CJ/MD/PI/
Community Medical Services Inc,Larkspur Medical Center,,12426 North 28th Drive,,Phoenix,AZ,85029,(602)866-9378,TX/ML/PV/OS/DT/OD/OR/DD/HV/PW/SS/MD/
Corazon/CPLC,Corazon,,3639 West Lincoln Street,,Phoenix,AZ,85009,(602)233-9747,TX/OS/RR/SS/TC/PI/
Crossroads,,,1845 East Ocotillo Road,,Phoenix,AZ,85016,(602)279-2585,TX/PV/OS/RR/HH/FG/
Drug and Alcohol Treatment Institute,Clarence Lawson Foundation,,2230 North 24th Street,,Phoenix,AZ,85008,(602)275-3233,TX/ML/OS/DT/OD/OR/SS/PI/
Ebony House Inc,,,6222 South 13th Street,,Phoenix,AZ,85040,,TX/OS/IO/RR/DD/SS/TC/MD/
Family Service Agency,,,1530 East Flower Street,,Phoenix,AZ,85014,(602)264-9891,TX/PV/OS/OR/AD/DD/PW/CM/
Hohokam Room,,,1501 East Washington Street,,Phoenix,AZ,85034,(602)253-6553,TX/ML/DT/OD/OR/SS/SG/MC/
Indian Rehabilitation Inc,,,650 North 2nd Avenue,,Phoenix,AZ,85003,(602)254-3247,TX/PV/OS/OR/IO/RR/PW/SS/TC/MD/FG/
Intensive Treatment Systems Inc,,,651 West Coolidge Street,,Phoenix,AZ,85013,(602)248-0550,TX/ML/OS/DT/OD/OR/SS/
Jewish Family and Childrens Service,,,2033 North 7th Street,,Phoenix,AZ,85006,(602)257-1904,TX/OS/OR/CO/MD/FG/PI/
National Council on Ale and Drug Depnd,Central and Northern Arizona,,2701 North 16th Street,Suite 103,Phoenix,AZ,85006,(602)264-6214 Hotline: (602)285-1064,TX/PV/OS/OR/IO/PW/SS/SC/MD/
New Arizona Family II,SMI Dual Diagnosis Program,,302 East Southern A venue,,Phoenix,AZ,85040,(602)243-0562 Hotline: (602)243-0562,TX/PV/OS/OR/IO/RR/DD/SS/TC/
New Arizona Family Inc,New Arizona Family I,,3301 East Pinchot Avenue,,Phoenix,AZ,85018,(602)381-0686 Hotline: (602)381-0686,TX/PV/OS/OR/IO/RR/DD/HV/PW/SS/TC/
New Life for Girls,,,6216 North 27th Avenue,,Phoenix,AZ,85017,(602)246-2704,TX/OS/DT/RD/RR/SS/TC/CO/
Pheonix LARC Meta Center,Public Inebriate Program,,2770 East Vanburen Street,,Phoenix,AZ,85008-6039,(602)273-9999 Hotlines: (602)222-9444 (800)631-1314,TX/DT/RD/RR/SS/CH/MD/
Phoenix Indian Center,,,2601 North 3rd Street,Suite 100,Phoenix,AZ,85004,(602)263-1017,TX/OS/OR/CM/MD/
Progress Valley Phoenix,,,4430 North 23rd Avenue,,Phoenix,AZ,85015,(602)274-5424,TX/OS/RR/DD/PW/SS/TC/
Saint Lukes Behavioral Health Center,Chemical Dependency Treatment,,1800 East Van Buren Street,,Phoenix,AZ,85006,(602)251-8484 Hotline: (602)251-8535,TX/PV/OS/DT/OD/OR/IO/ID/IR/AD/DD/SS/PH/MC/MD/FG/PI/
Saint Lukes Behavioral Health Center,,,1800 East Van Buren Street,,Phoenix,AZ,85006,(602)251-8535 Hotline: (602)251-8535,TX/PV/OS/DT/OD/OR/IO/ID/IR/AD/DD/SS/PH/
Salvation Army Recovery Center,Adult Rehabilitation Center,,1625 South Central Avenue,,Phoenix,AZ,85004,(602)253-1161,TX/PV/OS/RR/SS/TC/HH/CO/
Salvation Army Recovery Center,,,2707 East Van Buren Street,Treatment Center,Phoenix,AZ,85008-6020,(602)267-1404,TX/OS/RR/HV/PW/SS/TC/FG/
Southwest Behavioral,,,1714 East Broadway Street,,Phoenix,AZ,85040,(602)254-6200 Hotline: (602)258-3600,TX/ML/PV/OS/DT/OD/IO/HV/SS/MC/MD/
Southwest Behavioral Health Inc,,,1424 South 7th Avenue,,Phoenix,AZ,85007,(602)258-3600,TX/OS/IO/AD/DD/SS/
Southwestern Childrens Health Services,AKA Pare Place,,5 116 East Thomas Road,,Phoenix,AZ,85018,(602)840-4774 Hotline: (602)840-4774,TX/OS/DT/OR/IO/ID/IR/AD/DD/OH/PI/
Terros Inc,,,320 East Virginia Street,,Phoenix,AZ,85004,Hotlines: (602)248-8336 (602)222-9444,TX/PV/OS/DT/OD/OR/IO/AD/DD/HV/CM/MD/FGPI/
Treatment Assessment Screening Center,,,2234 North 7th Street,Suite A,Phoenix,AZ,85006,(602)254-7328,TX/PV/OS/OR/IO/AD/DD/SS/CM/CJ/
Valle Del Sol Inc,Behavioral Health Program,,1209 South First Avenue,,Phoenix,AZ,85003,(480)966-1414,TX/PV/OS/DT/OD/OR/IO/DD/HV/PW/SS/
Veterans Affairs Medical Center,,,500 Highway 89 North,Room 208,Prescott,AZ,86313,,TX/PV/OS/DT/OD/OR/DD/SS/GH/FG/
West Yavapai Guidance Clinic,Hillside Center,,642 Dameron Drive,,Prescott,AZ,86301,(520)445-5211,TX/OS/DT/OR/IO/ID/RR/SS/PH/
Yavapai/Prescott Tribe,Social Services Department,,530 East Merritt Street,,Prescott,AZ,86301,(520)445-8790 Hotline: (520)717-3472,TX/PV/OS/OR/IO/AD/FG/
Gila River Indian Community,Alcohol and Drug Abuse Program,,315 West Casa Blanca Road,,Sacaton,AZ,85247,(520)562-3356,TX/PV/OS/IO/AD/SS/OH/CM/
SEABHS Graham/Greenlee Counseling Ctr,Safford Outpatient,,620 Central A venue,,Safford,AZ,85546,(520)428-4550 Hotline: (800)586-9161,TX/PV/OS/OR/IO/AD/DD/SS/CM/
Little Colorado Behavioral,Health Centers Inc,,470 West Cleveland Street,,Saint Johns,AZ,85936,(623)337-4301,TX/PV/OS/OR/AD/SS/OH/CM/MD/PI/
San Carlos Apache Tribe,San Carlos Tribal Alcohol Program,,,,San Carlos,AZ,85550,(520)475-2413,TX/PV/OS/OR/IO/AD/SS/MD/SC/DT/TS/DA/LE
Jewish Family and Childrens Services,,,7770 East Roosevelt Street,,Scottsdale,AZ,85257,(480)820-0825 Hotline: (602)222-9444,TX/OS/OR/CM/
New Foundation,,,,,Scottsdale,AZ,85271,(480)945-3302,TX/PV/OS/OR/RR/AD/SS/
Salt River Pima/Maricopa,Behavioral Health Program,,I 0005 East Osborn Road,,Scottsdale,AZ,85256,(602)850-8430,TX/PV/OS/DT/OR/IO/RD/AD/DD/SS/CM/CJ/FG/
Samaritan Behavioral Health,Scottsdale,,7575 East Earll Drive,,Scottsdale,AZ,85251,(480)941-7500 Hotlines: (602)254-4357 (480)941-7565,TX/PV/OS/DT/OD/OR/IO/ID/IR/RD/RR/AD/DD/HV/PW/SS/PH/OH/TC/CM/CH/SC/CJ/MD/FGPI/
Teen Reach,,,5718 East Sharron Drive,,Scottsdale,AZ,85254,(510)404-8336,TX/PV/OS/DT/OD/RD/RR/AD/SS/
Hopi Behavioral Health and,Social Services Program,,,,Second Mesa,AZ,86043,(520)737-2586,TX/PV/OS/OR/IO/AD/DD/SS/CM/CH/CO/FG/
Verde Valley Guidance Clinic Inc,,,2880 Hopi Drive,,Sedona,AZ,86336,(520)634-2236 Hotline: (520)634-2236,TX/PV/OS/DT/OD/OR/IO/AD/DD/CM/
Tohono Oodham Human Services,Alcoholism and Substance Abuse Branch,,,,Sells,AZ,85634,(520)383-6165,TX/PV/OS/IO/AD/DD/PW/SS/FG/
Community Counseling Centers Inc,Outpatient Unit,,2500 Show Low Lake Road,,Show Low,AZ,85901,(520)537-2951 Hotline: (520)537-2951,TX/PV/OS/DT/OD/OR/IO/CM/PI/
SEABHS Coronado Behavioral Health,Division Sierra Vista Outpatient,,185 South Moorman Street,,Sierra Vista,AZ,85635,(520)458-3932,TX/PV/OS/OR/AD/DD/PI/
Cocopah Alcohol and Drug Abuse,Prevention Program,,County 15 and Avenue,Suite G,Somerton,AZ,85350,(520)627-2161,TX/PV/OS/OR/AD/SS/OH/CH/
Little Colorado Behav Hlth Centers Inc,,,50 North Hopi Street,,Springerville,AZ,85938,(520)333-2683,TX/PV/OS/OR/AD/SS/OH/CM/
Havasupai Indian Health Center,,,,,Supai,AZ,86435,(520)448-264l,TX/PV/OS/OR/AD/OH/CH/
Center for Behavioral Health,Special Services,,2123 East Southern A venue,Suite 2,Tempe,AZ,85282,(480)897-7044,TX/PV/OS/DT/OD/OR/HV/PW/SS/
Contact,,,1400 East Southern Street,Suite 301,Tempe,AZ,85282,(480)730-3023 Hotline: (602)254-4357,TX/PV/OS/OR/IO/SS/PI/
Tempe Saint Lukes Hospital,,,1500 South Mill Avenue,,Tempe,AZ,85281,(480)784-5600 Hotline: (480)784-5600,TX/ML/OS/DT/ID/GH/MD/PI/
Valle Del Sol Inc,East Clinic,,509 South Rockford Drive,,Tempe,AZ,85281,(480)966-1414,TX/ML/OS/DT/OD/OR/IO/DD/HV/PW/SS/MD/
Tuba City Outpatient Treatment Center,Behavioral Health Scrviccs/DBHS,,Main Street,Building 25,Tuba City,AZ,86045,,TX/PV/OS/IO/AD/DD/PW/SS/
Amity Inc,,,10500 East Tanque V crde Road,,Tucson,AZ,85749,(520)749-5980,TX/PV/OS/RR/SS/TC/
CODAC Behavioral Health Services,,,333 West Fort Lowell Street,Suite 219,Tucson,AZ,85705,(520)327-4505 Hotline: (520)323-9373,TX/ML/DT/OD/OR/SS/
CODAC Behavioral Health Services of,Pima County lnc/CODAC Counseling Ctr,,333 West Fort Lowell Street,,Tucson,AZ,85705,(520)327-4505 Hotline: (520)323-9373,TX/OS/OR/IO/AD/DD/HV/PW/SS/MD/
CODAC Behavioral Health Services of,Pima County Inc/Wildflowers,,700 North 7th Avenue,,Tucson,AZ,85705,(520)622-0292,TX/OS/RR/HV/PW/SS/
Compass Health Care,,,1230 East Broadway Street,,Tucson,AZ,85719,(520)620-6615,TX/PV/OS/OR/IO/SS/
Compass Health Care,,,2475 North Jack Rabbit Street,,Tucson,AZ,85745,(520)882-5608,TX/PV/OS/DT/OD/OR/IO/RD/RR/AD/DD/HV/SS/HH/CJ/FG/PI/
Cope Behavioral Services,,,IO I South Stone Street,Suite 200,Tucson,AZ,85701,(520)884-0707,TX/PV/OS/DT/OD/OR/IO/DD/HV/SS/MD/
Cottonwood De Tucson,,,4110 West Sweetwater Drive,,Tucson,AZ,85745,(520)743-0411,TX/PV/OS/DT/RD/RR/AD/DD/SS/TC/FG/PI/
Davis Monthan Air Force Base,,,,,Tucson,AZ,85707-4923,(520)228-4926,TX/PV/OS/DT/OD/OR/DD/GH/FG/
Haven Inc,The Haven,,I 107 East Adelaide Drive,,Tucson,AZ,85719,(520)623-4590,TX/OS/OR/RR/SS/TC/
La Frontera Center,East Clinic,,2222 North Craycroft Road,Suite 120,Tucson,AZ,85712,,TX/PV/OS/OR/AD/DD/CM/
La Frontera Center,Hope Center,,260 South Scott Street,,Tucson,AZ,85701,(520)884-8470,TX/ML/PV/OS/DT/OD/OR/DD/HV/PW/SS/MD/
La Frontera Center,Substance Abuse Outpatient Services,,502 West 29th Street,,Tucson,AZ,85711,(520)884-9920 Hotline: (520)323-9373,TX/PV/OS/OR/IO/DD/CM/
Mark Youth and Family Care Campus Inc,,,4653 East Pima Street,,Tucson,AZ,85712,(520)326-6182 Hotlines: (520)977-7573,TX/PV/OS/OR/IO/AD/SS/SG/FG/PI/
Pascua Yaqui,Chemical Dependency Program,,7490 South Camino De Oeste,,Tucson,AZ,85746,(520)883-5000,TX/PV/OS/OR/IO/AD/DD/SS/
Portable Prep Behavioral Health Servs,Alcoholism Treatment Unit,,806 East 46th Street,,Tucson,AZ,85713,(520)792-5706,TX/OS/OR/ISS/
Saint Josephs Hospital,O'Rielly Care Center,,350 North Wilmont Road,,Tucson,AZ,85711,,TX/OS/OR/IO/DD/GH/MC/PI/
Salvation Anny,Adult Rehabilitation Center,,2717 South 6th A venue,,Tucson,AZ,85713,(520)624-1741,TX/PV/OS/RR/AD/DD/SS/TC/
Sierra Tucson LLC,Lago Del Oro Parkway,,,,Tucson,AZ,85739,(520)624-4000,TX/PV/OS/DT/ID/IR/DD/PH/PI/
Tucson Alcoholic Recovery Home Inc,,,1809 East 23rd Street,,Tucson,AZ,85713,(520)884-5180,TX/PV/OS/RR/HH/
Veterans Affairs Medical Center,Substance Abuse Treatment Program,,360 I South 6th A venue,,Tucson,AZ,85723,(520)792-1450,TX/PV/OS/DT/OD/OR/IO/SS/GH/FG/PI/
Westcenter,,,2105 East Allen Road,,Tucson,AZ,85719,(520)795-0952,TX/ML/OS/DT/OD/IO/ID/IR/DD/OH/MC/MD/PI/
Rainbow Center,White Mountain Apache Tribe,,,,Whiteriver,AZ,85941,(520)338-4858,TX/PV/OS/OR/RR/SS/FG/
Meadows Holdings,,,1655 North Tegner Road,,Wickenburg,AZ,85390,(520)684-3926,TX/OS/DT/ID/IR/RD/RR/DD/SS/TC/CM/
The Guidance Center Inc,,,30 I South 7th Street,,Williams,AZ,86046,(520)635-4272,TX/PV/OS/OR/IO/AD/DD/SS/CM/
Community Counseling Centers Inc,Outpatient Clinic,,211 East 3rd Street,,Winslow,AZ,86047,(520)289-4658 Hotline: (520)289-4658,TX/PV/OS/IO/DD/SS/CM/
Navajo Nation Dilkon,Outpatient Treatment Center,Dilkon Chapter House,,,Winslow,AZ,86047,(520)871-6235,TX/PV/OS/IO/SS/OH/CM/CJ/
Quapaw House Inc,,,401 Crittenden Street,,Arkadelphia,AR,71923-6139,(870)246-7636,TX/OS/OR/SS/
Counseling Clinic Inc,Outpatient Substance Abuse Program,,307 East Servier Street,,Benton,AR,72015,(50l)778-0404 Hotline: (501)315-2415,TX/PV/OS/OR/AD/SS/OH/CM/FG/
Dept of Corrections Benton I Unit,Substance Abuse Treatment Prog (SA TP),,670 I Highway 67,,Benton,AR,72015-8488,(501)315-2252,TX/PV/OS/OR/SS/CJ/
East Arkansas Regional Unit,,,Route I Highway 131,,Brickeys,AR,72320,(870)295-4700,TX/PV/OS/IO/SS/CJ/
SATP North Central Unit,,,,,Calico Rock,AR,72519,(870)297-4311,TX/PV/OS/IO/SS/CJ/
Ouachita Medical Center,Chemical Dependency Unit,,638 California Street,,Camden,AR,71701,(870)836-1289 Hotlines: (800)232-1298 (870)836-1289,TX/PV/OS/DT/OR/IO/ID/IR/SS/GH/MC/PI/
Counseling Associates Inc,,,1021 Poplar Street,,Clarksville,AR,72830-4428,(501)754-8610,TX/OS/IO/AD/SS/CM/
Counseling Associates Inc,,,350 Salem Road,Suite I,Conway,AR,72032-6135,Hotline: (800)844-2066,TX/PV/OS/DT/OD/IO/RD/AD/DD/CM/CO/MC/MD/PI/
Dept of Corrections/Delta Reg Unit,Substance Abuse Treatment Prog,,880 East Gaines Street,,Dermott,AR,71638,,TX/PV/OS/IO/SS/CJ/
South Arkansas Regional Health Center,Recovery Center,,710 West Grove Street,,El Dorado,AR,71730,(501)864-2475,TX/PV/OS/OR/IO/RR/DD/SS/
Charter Behavioral Health System of,Northwest Arkansas,,4253 Crossover Road,,Fayetteville,AR,72703,Hotlines: (800)847-8220 (800)242-7837,TX/PV/OS/DT/OR/IO/ID/DD/SS/PH/
Veterans Affairs Medical Center,,,1100 North College Street,,Fayetteville,AR,72703,(501)443-4301,TX/PV/OS/DT/OD/OR/ID/SS/GH/FG/
Gateway House Inc/June Bailey Center,,,3900 North Armour A venue,,Fort Smith,AR,72904-4317,(501)783-8849,TX/PV/OS/DT/OD/OR/IO/RD/RR/DD/PW/SS/TC/HH/FG/
Harbor House Inc,,,615 North 19th Street,,Fort Smith,AR,72901,Hotline:,TX/PV/OS/DT/OD/OR/IO/RD/RR/DD/HV/SS/
Harbor View Mercy Hospital,Chemical Dependency Program,,10301 Mayo Drive,,Fort Smith,AR,72917,(50l)484-5550,TX/OS/DT/OR/IO/ID/IR/DD/SS/PH/
Horizon,,,3113 South 70th Street,,Fort Smith,AR,72903,(501)478-6664,TX/OS/DT/OD/OR/IO/RD/RR/AD/DD/SS/CM/MD/PI/
Sparks Care for Alcohol and,Drug Addiction,,1311 South I Street,,Fort Smith,AR,72901,(501)441-5500,TX/PV/OS/DT/OR/IO/ID/IR/DD/GH/MC/MD/
Western Arkansas Counseling and,Guidance Ctr/Horizon Adolescent Prog,,3113 South 70th Street,,Fort Smith,AR,72903,(501)478-6664,TX/PV/OS/DT/OD/OR/IO/RD/RR/AD/DD/SS/MD/PI/
Omart Inc,,,116 Snowball Drive,,Gassville,AR,72635,(870)435-6200,TX/OS/DT/OR/IO/RD/RR/AD/SS/TC/HH/PI/
Dept of Corrections/Cummins Unit,. Substance Abuse Treatment Prog,,,,. Grady,AR,71644,,TX/OS/RR/SS/TC/CJ/
Dept of Corrections/Varner Unit,Substance Abuse Treatment Prog,,,,Grady,AR,71644,,TX/PV/OS/RR/SS/CJ/
218 East Ridge A venue,,,,,Hanison,AR,72601-4307,(870)432-6200 Hotline: (870)435-6200,TX/PV/OS/OR/JO/SS/
Southwest Arkansas Counseling and,Mental Health Center,,220 East 20th Street,,Hope,AR,71801,(870)773-4655,TX/OS/OR/CM/
Quapaw House Inc,,,812 Mount Pine Road,,Hot Springs,AR,71913,(501)767-4456,TX/OS/DT/OR/IO/RD/RR/SS/PI/
Barbs Place,,,276 Linden A venue,,Hot Springs National Park,AR,71901-3308,(501)624-6185,TX/PV/OS/RR/PW/SS/PI/
Crowleys Ridge Development Council,Northeast Arkansas Womens Recovery,,417 West Jefferson Street,,Jonesboro,AR,72401,(870)932-0228,TX/PV/OS/OR/IO/RR/AD/SS/
Mid/South Health Systems,,,2920 McClellan Drive,,Jonesboro,AR,72401,(870)972-4000 Hotlines: (870)972-4032 (800)356-3035,TX/PV/OS/DT/OD/OR/AD/DD/CM/
Saint Bernards Behavioral Health,Substance Abuse Treatment Unit,,2712 East Johnson Avenue,,Jonesboro,AR,72401,(870)932-2800 Hotline: (800)800-0496,TX/PV/OS/DT/OD/OR/IO/ID/IR/AD/DD/SS/PH/MC/PI/
Addiction Treatment Centers Inc,,,2021 Main Street,,Little Rock,AR,72206,(501)375-7585,TX/OS/OR/IO/RR/SS/FG/PI/
BHC Pinnacle Pointe Hospital,Substance Abuse Services,,11501 Financial Center Parkway,,Little Rock,AR,72211,(501)223-3322,TX/PV/OS/DT/IO/AD/DD/SS/PH/MC/MD/PI
Baptist Medical Center,Recovery,,9601 Interstate 630 Exit 7,,Little Rock,AR,72205,Hotline: (501)202-7507,TX/OS/DT/OR/IO/ID/IR/AD/DD/SS/GH/MC/MD/PI
Catar Clinic,,,1401 South University Avenue,,Little Rock,AR,72204,(501)664-7833,TX/ML/PV/OS/DT/OD/IO/DD/SS/
Gyst House Inc,,,810 I Frenchman Lane,,Little Rock,AR,72219,,TX/PV/OS/OR/IO/RR/AD/DD/SS/OH/TC/
Living Hope Institute,,,600 South McKinley Street,Suite 400,Little Rock,AR,72205-5583,,OS/DT/ID/OH/MC/MD/FG/PI/
Mid Arkansas Substance Abuse Services,,,4601 West 7th Street,,Little Rock,AR,72205,Hotline:,TX/OS/DT/RD/RR/DD/CM/CJ/MD/
Recovery 2005 Inc,,,1920 South Broadway,,Little Rock,AR,72204,(501)372-4006,TX/OS/OR/IO/SS/
Serenity House,DBA Serenity Park Inc,,280 I Roosevelt Road,,Little Rock,AR,72204,(501)663-7627,TX/PV/OS/OR/RR/DD/HV/SS/OH/TC/PI/
Supervised Treatment and Educ Program,Step Court,,715 West 2nd Street,,Little Rock,AR,72201,(501)374-7837,TX/PV/OS/IO/SS/FG/
UAMS/Substance Abuse Treatment Clinic,,,4313 West Markham Street,Unit 3 Lower North Side,Little Rock,AR,72205,Hotlines: (501)686-5000,TX/ML/PV/OS/DT/OD/OR/DD/SS/OH/SC/
Univ of Arkansas for Medical Sciences,Arkansas Cares,,5821 West 20th Street,,Little Rock,AR,72204,,TX/PV/OS/OR/IO/RR/DD/PW/SS/CM/PI/
Women and Childrens Recovery Center,Arkansas CARES,,2002 South Fillmore Street,Cottage 6,Little Rock,AR,72204-4909,,TX/PV/OS/RR/DD/SS/FG/
Department of Corrections,Mississippi County Work Release,,,,Luxora,AR,72358,(870)762-1979,TX/PV/OS/OR/SS/CJ/
Charter Behavioral Health System,,,1601 Murphy Drive,,Maumelle,AR,72113,(501)851-8700,TX/PV/OS/DT/OR/IO/ID/IR/AD/DD/PH/MC/FG/PI
The Bridgeway,,,21 Bridgeway Road,,Maumelle,AR,72113,(501)771-1500,TX/OS/DT/OD/IO/ID/IR/DD/SS/PH/MC/FG/PI
Ozark Counseling Services Inc,,,8 Medical Plaza,,Mountain Home,AR,72653,Hotlines: (870)425-6901 (800)946-1111,TX/OS/OR/DD/CM/MD/PI/
Central Arkansas Veterans Healthcare,Special Treatment Section,,2300 Fort Roots Drive,North Little Rock Division,North Little Rock,AR,72214,,TX/OS/DT/OD/OR/IO/RD/RR/SS/OH/FG/PI/
Family Service Agency,,,628 West Broadway Street,Suite 300,North Little Rock,AR,72114,(501)372-4242 Hotlines: (800)255-2227 (877)432-5368,TX/PV/OS/OR/IO/SS/
Riverbend Recovery Center,,,1201 River Road,,North Little Rock,AR,72114,(501)372-4611 Hotline: (501)372-4611,TX/PV/OS/OR/IO/RR/AD/DD/HV/SS/HH/FG/
Crowleys Ridge Development Council,Northeast Ark Regional Recovery Center,,5882 Highway 135 South,,Paragould,AR,72451,(870)239-4384,TX/PV/OS/OR/IO/RR/AD/SS/
Western Arkansas Counseling,,,415 South 6th Street,,Paris,AR,72855-4511,(501)963-2140,TX/PV/OS/OR/IO/RR/AD/CM/
Department of Corrections Pine Bluff,Diagnostic Unit SPU,,8001 West 7th Street,,Pine Bluff,AR,71603,,TX/PV/OS/OR/DD/SS/CJ/
Human Development and,Research Services Inc,,6841 West 13th Street,,Pine Bluff,AR,71602,(870)879-1051,TX/OS/DT/RD/RR/AD/DD/SS/
Human Development and Research Scrvs,Pregnant Parenting Women Living Ctr,,3100 West 34th Avenue,,Pine Bluff,AR,71603-5504,(870)535-3535,TX/OS/RR/AD/DD/PW/SS/
Human Development and Research Servs,,,2801 Olive Street,Suite 23,Pinc Bluff,AR,71611,(870)535-3535,TX/OS/OR/IO/AD/DD/HV/SS/
Southeast Arkansas,Behavioral Healthcare Inc,,2500 Rike Drive,,Pine Bluff,AR,71613,,TX/PV/OS/OR/IO/CM/
Black River Area Development Corp,Treatment Program Substance Abuse,,1403 Hospital Drive,,Pocahontas,AR,72455,(870)892-4547 Hotline: (800)234-0420,TX/PV/OS/OR/IO/SS/
Arkansas River Valley Area Council,Freedom House,,400 Lake Front Drive,,Russellville,AR,72802,(501)968-7086,TX/PV/OS/OR/IO/RR/AD/HV/SS/HH/CJ/FG/
Wilbur Mills Center,,,3204 East Moore A venue,,Searcy,AR,72143,(501)268-7777 Hotline: (800)592-9503,TX/PV/OS/DT/OD/OR/IO/RD/RR/DD/HV/SS/TC/HH/CM/CH/CJ/
A Little Bit of Recovery,,,640 North Mill Street,,Springdale,AR,72764,,TX/OS/OR/IO/SS/PI/
Decision Point Inc,,,301 Holcomb Street,,Springdale,AR,72765,(501)756-1060,TX/PV/OS/DT/OR/IO/RD/RR/HV/SS/TC/HH/
Ozark Guidance Center,,,219 South Thompson Street,,Springdale,AR,72766-6430,(501)751-7052 Hotline:,TX/PV/OS/OR/AD/DD/SS/CM/
SW Arkansas Counseling,Mental Health Center Inc,,2904 Arkansas Boulevard,,Texarkana,AR,71854,(870)773-4655,TX/OS/OR/AD/CM/PI/
AR Dept of Corrections,Tucker Maximum Security Unit,,250 I State Farm Road,,Tucker,AR,72168,(501)842-3800,TX/PV/OS/OR/SS/CJ/
AR Department of Corrections,Boot Camp,,,,Wrightsville,AR,72183,,TX/PV/OS/RR/DD/CJ/
Los Angeles Cnty Dept of Health Servs,Acton Rehabilitation Center,,30500 Arrastre Canyon Road,,Acton,CA,93510,,TX/PV/OS/RR/HV/SS/TC/
Xanthos,,,1335 Park Avenue,,Alameda,CA,94501,(510)521-4153,TX/PV/OS/OR/AD/CM/
San Gabriel Valley,Driver Improvement,,25 South Raymond A venue,Suite 301,Alhambra,CA,91801,(626)289-6302,TX/OS/OR/SS/
Orange County Health Care Agency,Aliso Viejo Alcohol/Drug Abuse Servs,,5 Mareblu Street,Suite 100,Aliso Viejo,CA,92656,(949)643-6930,TX/PV/OS/OR/AD/DD/HV/PW/SS/CM/SC/PI/
MODOC County,Alcohol and Drug Services,,128 Henderson Street,,Alturas,CA,96101,(530)233-6319,TX/PV/OS/OR/AD/PW/SS/
CA Hispanic Commission Ale/Drug Abuse,Casa Elena,,832 South Anaheim Boulevard,,Anaheim,CA,92805,(714)285-1985,TX/PV/OS/OR/RD/RR/SS/
Counseling Concepts,,,1815 East Center Street,,Anaheim,CA,92805,(714)778-6495,TX/OS/OR/IO/SS/
Hope House,,,707 North Anaheim Boulevard,,Anaheim,CA,92805,(714)776-7490 Hotlines: (714)776-7490 (714)776-6090,TX/PV/OS/RR/DD/HV/PW/SS/TC/
Oasis Treatment Center,West Coast Detox,,956 South Flore Street,,Anaheim,CA,92805,(714)991-4673 Hotline: (800)550-0467,DT/RD/SS/PI/
Oasis Treatment Center,,,222 West Ball Road,,Anaheim,CA,92805-6046,(714)991-4673 Hotline: (714)635-6112,TX/OS/IO/RR/SS/
Western Medical Center,,,1025 South Anaheim Boulevard,,Anaheim,CA,92805,(714)772-4463 Hotline: (888)428-7828,TX/PV/OS/DT/ID/IR/AD/DD/PW/GH/
Changing Echoes,,,7632 Pool Station Road,,Angels Camp,CA,95222,(209)785-3667,TX/PV/OS/DT/OR/IO/RD/RR/HV/SS/PI/
Criminal Justice Service,East Location,,2400 Sycamore Drive,Suite 36,Antioch,CA,94509,(925)427-8630,TX/OS/OR/SS/
Reach Project Inc,,,1915 D Street,,Antioch,CA,94509,(925)754-3673,TX/PV/OS/OR/AD/SS/
Starting Point,,,11726 Deep Creek Road,,Apple Valley,CA,92308-7570,(760)247-2507,TX/OS/RR/AD/SS/TC/
Acacia Associates,,,9055 Soquel Drive,Suite E,Aptos,CA,95003,(831)476-4656,TX/OS/OR/SG/
Mad River Community Hospital/,Chemical Dependency,,3800 Janes Road,,Arcata,CA,95521,,TX/OS/OR/IO/GH/FG/
Life Steps,Pasos De Vida,,1431 Pomeroy Road,,Arroyo Grande,CA,93420,(805)481-2505,TX/OS/RR/DD/SS/TC/FG/
San Luis Obispo County,Drug and Alcohol Services,,1106 Grand A venue,,Arroyo Grande,CA,93420,(805)473-7080,TX/PV/OS/DT/OD/OR/IO/AD/DD/HV/PW/SS/
Traffic and Alcohol Awareness,School of Kem (TAASK),,525 Bear Mountain Boulevard,,Arvin,CA,93203,(661)832-3283,TX/OR/
Aegis Medical Systems Inc,,,6500 Morro Road,Suite D,Atascadero,CA,93422,(805)461-5212,TX/ML/PV/OS/DT/OD/SS/MC/MD/
San Luis Obispo County,Drug and Alcohol Services,,3556 El Camino Real,,Atascadero,CA,93422,(805)461-6080,TX/PV/OS/DT/OD/OR/IO/AD/DD/HV/PW/SS/
Community and Social Model Advocates,Tranquility Village,,599 Mendocino Court,,Atwater,CA,95301,(209)357-5200,TX/OS/RR/SS/
Eagle Recovery Programs,,,12183 Lockslcy Lane,,Auburn,CA,95602,(530)823-0777,TX/OS/OR/RR/SS/TC/HH/CJ/FG/
Pacific Educational Services,,,11795 Education Street,Suite 220,Auburn,CA,95602,(530)888-1010,TX/PV/OS/OR/AD/SS/CJ/
Sierra Council on Ale and Drug Dep,Auburn Service Center,,610 Auburn Ravine Road,Suite A,Auburn,CA,95603,(530)885-1961,TX/OS/OR/SS/MD/
Sierra Council on Alcohol and Drug Dep,South Placer Residential Trt Programs,,11417 D Avenue,,Auburn,CA,95603,(530)885-1917,TX/DT/RD/RR/SS/
Sierra Family Services,Auburn,,991 Lincoln Way,,Auburn,CA,95603,(530)885-0441,TX/PV/OS/OR/IO/AD/DD/PW/SS/MD/
Social Model Recovery Systems,River Community,,23701 East Fork Road,,Azusa,CA,91702,(626)910-1202,TX/OS/RR/DD/SS/CM/PI/
Stepping Stones Home,Colby House II,,18417 Orkney Street,,Azusa,CA,91702,(626)967-1263,TX/PV/OS/RR/PW/SS/
Aegis Medical Systems,,,1018 21st Street,,Bakersfield,CA,93301,(661)86,-9/96/7TX/ML/OS/DT/OD/OR/PW/SS/
Citizens for The Betterment of,Community and Country/Capistrano Women,,3316 Laverne Street,,Bakersfield,CA,93309,(661)832-8504 Hotlines: (661)325-1817 (661)396-7275,TX/PV/OS/DT/RD/RR/DD/PW/SS/TC/PI/
Citizens for the Betterment of,Community and Country/Jasons Retreat,,504 Bernard Street,,Bakersfield,CA,93305,(661)325-8510,TX/OS/DT/IO/RD/RR/SS/CJ/MD/PI/
Community Service Organization (CSO),Brotherhood,,715 Lake Street,,Bakersfield,CA,93305,(661)327-9376,TX/OS/OR/PW/SS/
Desert Counseling,Womens Services,,2913 South H Street,,Bakersfield,CA,93304,(661)397-2826,TX/PV/RR/SS/TC/CJ/
Desert Counseling Clinic,Teen Recovery Program,,1617 30th Street,,Bakersfield,CA,93301,(661)282-4600 Hotline: (661)322-1539,TX/OS/OR/IO/AD/DD/PW/SS/MD/FG/PI/
Ebony Counseling Center,,,1301-1309 California Avenue,,Bakersfield,CA,93304,(661)324-4756 Hotline: (661)324-4756,TX/PV/OS/OR/IO/AD/PW/SS/
Family and Sub Abuse Counseling Agency,I 009 Chester A venue,,,,Bakersfield,CA,93301,(661)323-6285,TX/PV/OS/OR/IO/DD/SS/SG/
Kem Co Hispanic Com on Ale/Drug Abuse,Casa Serena,,2300 18th Street,,Bakersfield,CA,93303-2219,(661)323-0801,TX/OS/RR/SS/
Kem County Dept of Mental Hlth Servs,Judicial Services,,1401 L Street,2nd Floor,Bakersfield,CA,93301,,TX/OS/OR/AD/PW/SS/CJ/MD/PI/
Recovery Network,Biofeedback Center,,2100 24th Street,Suite 4,Bakersfield,CA,93301,(661)835-4843,TX/OS/OR/DD/SS/SG/PI/
Salvation Army,Adult Rehabilitation Center,,200 19th Street,,Bakersfield,CA,93301,,TX/OS/OR/IO/AD/DD/HV/SS/HH/
Sierra Tribal Consortium,,,1527 19th Street,Suite 418,Bakersfield,CA,93301,(661)327-7007,TX/PV/OS/OR/AD/SS/
Substance Abuse Alternatives,,,1101 Union Avenue,Suite 100,Bakersfield,CA,93304,(661)631-1483,TX/PV/OS/OR/DD/SS/CM/CJ/
Traffic and Alcohol Awareness,School of Kem (T AASK ),,324 Oak Street,Suite A,Bakersfield,CA,93304,(661)832-3283,TX/OR/
Vinesman Ponderosa,Christian Recovery Ranch,,3231 East Panoma Lane,,Bakersfield,CA,93307,(661)832-6202 Hotline: (661)832-6202,TX/PV/OS/OR/IO/RR/DD/HV/PW/SS/TC/CO/CJ/
Aegis Medical Systems,Baldwin Park,,14418 East Pacific Avenue,,Baldwin Park,CA,91706,,TX/ML/OS/DT/OD/OR/SS/MD/
Ettie Lee Homes,,,4100 Baldwin Park Boulevard,,Baldwin Park,CA,91706,,TX/PV/OS/OR/AD/DD/CO/MD/
Industry Comm Interface Enterprises,ICI Enterprises,,13922 East Ramona Street,Suite B,Baldwin Park,CA,91706,(818)856-8981,TX/OS/OR/DD/SS/
Koalacare of California,ACE Program,,45 South 1st Street,,Banning,CA,92220,(909)849-5564,TX/OR/
Riverside County Substance Abuse,2nd Chance Program,,1626 South Hargrove Street,,Banning,CA,92220,(909)922-7300 Hotline: (800)499-3008,TX/OS/RR/CJ/FG/
Riverside San Bernardino County,Indian Health,,11555 1/2 Potrero Road,,Banning,CA,92220,Hotlines: (909)849-4761 (909)487-9627,TX/PV/OS/DT/OD/OR/JO/AD/DD/HV/PW/SS/CM/FG/
Soroptimist House of Hope,,,628 South 8th Street,,Banning,CA,92220,(909)849-9491,TX/OS/RR/SS/
Civilian Employee Assistance Programs,Family Services Center B -170,Marine Corps Logistics Base,,,Barstow,CA,92311,(760)577-7444,TX/PV/OS/OR/FG/
Jackson/Bibby Awareness Group,DUI Services,,222 Main Street,Suite 218,Barstow,CA,92311,(760)256-6114,TX/PV/OS/CJ/
Oasis Counseling Centers,,,500 Melissa Street,,Barstow,CA,92311,(760)256-0376,TX/PV/OS/OR/IO/HV/SS/CM/CJ/PI/
Southern California Alcohol/Drug Prog,Casa Libre,,6635 Florence A venue,Suites 10 I and 102,Bell Gardens,CA,90201,(562)927-1656,TX/PV/OS/OR/IO/AD/SS/
Berkeley Addiction Treatment Services,,,2975 Sacramento Street,,Berkeley,CA,94702,(510)644-0200,TX/ML/OS/DT/OD/OR/DD/PW/SS/MD/PI/
Berkeley Mental Health Court Program,,,2640 Martm Luther King Jr Way,,Berkeley,CA,94704,(510)644-8562,TX/PV/OS/OR/DD/CM/
Bonita House,Res Trt Facility for Dual Diagnosis,,1410 Bonita Avenue,,Berkeley,CA,94709-1909,(510)923-1099,TX/PV/OS/DT/RD/RR/DD/SS/TC/PI/
New Bridge Foundation,,,1820 Scenic A venue,,Berkeley,CA,94709,(510)548-7270,TX/OS/DT/OR/JO/RD/RR/AD/DD/HV/PW/SS/TC/FG/PI/
A Los Angeles Driver Education Center,of Beverly Hills,,147 North San Vicinte Avenue,,Beverly Hills,CA,90211,(213)388-7135,TX/OS/IO/CJ/
Operation Breakthrough,,,40880 Pedder Road,,Big Bear Lake,CA,92315,(909)866-5437 Hotline: (909)866-5723,TX/PV/OS/OR/IO/SS/
Inyo County Alcohol and,Other Drug Services,,162 Grove Street,Suite J,Bishop,CA,93514,(760)873-5888,TX/PV/OS/OR/AD/DD/HV/PW/SS/CM/FG/
Toiyabe Indian Health Project,Family Service Depatrrnent,,52 Tu Su Lane,,Bishop,CA,93514,(760)873-6394,TX/PV/OS/OR/AD/CM/FG/
Cedar House Rehabilitation Center,,,18612 Santa Ana Avenue,,Bloomington,CA,92316,(909)421-7120,TX/OS/DT/RD/RR/AD/DD/SS/PI/
Riverside County Substance Abuse Prog,,,1267 West Hobson Way,,Blythe,CA,92225,(760)921-7870 Hotline: (800)499-3008,TX/PV/OS/OR/DD/HV/PW/CM/MD/
Veterans Alcoholic Rehab Prog (VARP),Metcalf Recovery Ranch,,9826 I 8th A venue,,Blythe,CA,92225,(760)922-8625,TX/PV/OS/RR/SS/
La Posta Substance Abuse Center,Substance Abuse Services,,8 Crestwood Place,,Boulevard,CA,91905,(619)478-2264,TX/PV/OS/OR/JO/AD/DD/PW/SS/
Latino Comm on Ale/Drug Abuse Servs of,San Mateo County/Casa Maria,,105 McLain A venue,,Brisbane,CA,94005,(415)468-9020,TX/OS/IO/RR/SS/
New Way Foundation,A ware Program,,207 North Victory Boulevard,,Burbank,CA,91502,(818)842-9416,TX/PV/OS/RR/HV/SS/HH/PI/
Padre,,,2410 West Olive Avenue,,Burbank,CA,91506,(818)843-7375,TX/OR/SS/
Insights,Youth and Family Assistance,,1860 El Camino Real,Suite 400,Burlingame,CA,94010,Hotline: (650)573-3950,TX/PV/OS/OD/OR/IO/AD/DD/SS/
Mills Peninsula Health Services,Chemical Dependency Center,,1783 El Camino Real,,Burlingame,CA,94010,(650)259-8268,TX/PV/OS/DT/OD/OR/JO/ID/JR/AD/DD/GH/MC/PI/
Radiant Recovery,,,530 El Camino Real,Suite B,Burlingame,CA,94010,(650)579-3970,TX/PV/OS/OR/IO/SS/
Womens Recovery Association,Residential and Outpatient,,1450 Chapin Avenue,1st Floor,Burlingame,CA,94010,(650)348-6603,TX/OS/OR/IO/RR/DD/HV/PW/SS/PI/
Crossroads Clinic,,,20597 Commerce Way,,Burney,CA,96013,(916)335-3800,TX/PV/OS/OR/SS/GH/PI/
Pit River Health Services,Substance Abuse Services,,36977 Park A venue,,Burney,CA,96013,(916)335-5090,TX/PV/OS/OR/AD/DD/HV/PW/OH/CH/
Imperial Valley Methadone Clinic,,,535 Cesar Chavez Boulevard,,Calexico,CA,92231,(858)357-6566,TX/ML/OS/DT/OD/OR/SS/MC/
Duffys Myrtledale Inc,Alcohol Recovery Facility,,3076 Myrtledale Road,,Calistoga,CA,94515,(707)942-6888,TX/PV/OS/DT/RD/RR/SS/PI/
Gateway Recovery and Intervention Prog,,,200 Horizon Circle,,Camarillo,CA,93010,(805)388-4436,TX/OS/IO/AD/DD/PW/SC/
Palmer Drug Abuse Program of,Ventura County,,155 Granada Street,Suite K,Camarillo,CA,93010-7725,(805)482-1265,TX/OS/OR/AD/SS/MD/
Camp Recovery Centers,Outpatient Services,,65 West Hamilton A venue,,Campbell,CA,95008,(408)378-1799,TX/PV/OS/IO/AD/SS/PI/
Office of Children Adolescent and,Family Services (OCAFS),,595 Millich Drive,Suite 100,Campbell,CA,95008,(408)299-2304,TX/PV/OS/OR/AD/DD/SS/SC/MD/
Support System Homes Inc,Support Systems Homes I,,2000-A White Oaks Drive,,Campbell,CA,95008,(408)370-9688,TX/OS/RR/DD/HV/SS/TC/CJ/
Support Systems Homes Inc,Support Systems Homes II,,2015 White Oaks Drive,,Campbell,CA,95008,(408)370-9688,TX/OS/RR/DD/HV/SS/CJ/
San Diego Freedom Ranch,,,1777 Buckman Springs Road,,Campo,CA,91906,,TX/OS/RR/SS/FG/
Consolidated Substance Abuse,Counseling Center,Marine Corps Base,,"B,1,1_i,Iding 16105",Camp Pendleton,CA,92055-5016,(760)725-5539,TX/PV/OS/OR/IO/SS/FG/
Naval Hospital,Naval Addictions Rehab/Educ Department,,Building H-49,,Camp Pendleton,CA,92055,(760)725-1561,TX/PV/OR/IO/RR/DD/SS/
Cabrito Foundation,Cabrito House,,7552 Remmel Avenue,,Canoga Park,CA,91303,(818)704-5175,TX/RR/SS/
Pine Grove Hospital,,,7011 Shoup Avenue,,Canoga Park,CA,91307,(818)348-0500 Hotline: (818)348-0500,TX/PV/OS/DT/ID/IR/AD/DD/PH/
27225 Camp Plenty Road,,,Suite 4,,Canyon Country,CA,91351-2654,(661)251-7691 Hotline: (800)540-4673,TX/PV/OS/OR/IO/AD/DD/HV/PW/SS/
Community Counseling Center of,San Juan Capistrano/Casa Del Cerro I,,26882-26884 Avenida Las Palmas South,,Capistrano Beach,CA,92624,(949)493-7388,TX/OS/DT/RD/RR/DD/SS/
Associated Rehab Program for Women,,,8400 Fair Oaks Boulevard,,Carmichael,CA,95608,(530)944-3920,TX/OS/DT/RD/RR/DD/SS/
Bivalley Medical Clinic,Carmichael,,6127 Fair Oaks Boulevard,,Carmichael,CA,95608,(530)974-8090,TX/ML/OS/DT/OD/OR/IO/DD/HV/PW/
Salvation Army,Adult Rehabilitation Center,,6410 Cindy Lane,,Carpinteria,CA,93014,(805)684-6999,TX/PV/OS/RR/SS/
Fred Brown Recovery Services,Carson House,,329 West 218th Street,,Carson,CA,90745,(310)519-8723 Hotlines: (310)519-1117 (310)519-8723,TX/PV/RR/DD/SS/TC/
Kaiser Permanente,Chemical Dep Recovery Program/Carson,,23621 South Main Street,,Carson,CA,90745,(310)513-6707,TX/DT/OD/OR/IO/ID/DD/SS/OH/
Antelope Valley Rehabilitation Centers,Warm Springs Rehabilitation Center,,38200 North Lake Hughes Road,,Castaic,CA,91310,(661)257-2342,TX/PV/OS/RR/DD/HV/SS/TC/
HAART/Castro Valley,,,2457 Grove Way,Suite 103A,Castro Valley,CA,94546,(510)727-9755,"Ch/ar/te/rBe/ha/vi/or/aIHe/aI/thSy/st/emof/So/ut/he/rnCa/Ii/fo/rn/iaPa/ImSp/ri/ng/s69/69/6Ra/mo/nRo/adCa/th/ed/ra/ICi/ty/,CA/92/23/4(7/6O/)3/2I/-2/OO/OTX/OS/DT/OR/IO/ID/IR/DD/SS/PH/"
Riverside County Substance Abuse Prog,Cathedral Canyon Clinic,,68-615 Perez Road,Suite 8,Cathedral City,CA,92234,(760)770-2222 Hotline: (800)499-3008,TX/PV/OS/OR/IO/AD/DD/HV/PW/CM/MD/
Pajo Corporation,Tri City Institute,,2080 Century Park East,Suite 1802,Century City,CA,90067,(310)553-9500,TX/ML/OS/DT/OD/OR/IO/DD/SS/MD/PI/
Nirvana Drug and Alcohol,Treatment Program,,2524 Leslie Lane,,Ceres,CA,95307,(209)537-7635 Hotlines: (209)537-7635 (209)529-6925,TX/PV/OS/DT/IO/RD/RR/DD/SS/TC/HH/CM/
Southern California,Alcohol and Drug Programs,,13205 South Street,,Cerritos,CA,90703,(562)402-2466,TX/OS/OR/SS/CJ/
Aegis Medical Systems,Chico,,1166 Esplanade Street,Suite 1,Chico,CA,95926,(916)345-3491,TX/ML/OS/DT/OD/OR/SS/OH/
Butte County Department of,Behavioral Health Youth Services/Chico,,564 Rio Lindo A venue,Suite 103,Chico,CA,95926,(530)891-2795 Hotline: (800)371-4373,TX/OS/OR/AD/CM/
Butte County Department of Behavioral,Health Adult Services/Chico,,584 Rio Lindo A venue,,Chico,CA,95926,(530)891-2984 Hotline: (800)334-6622,TX/OS/OR/DD/HV/CM/MD/FG/
Chico Recovery Center,,,2565 Zanella Way,Suite E,Chico,CA,95928,(530)343-6566 Hotline: (530)343-6566,TX/PV/OS/OR/IO/SS/PI/
Addiction Recovery,,,1224 Mangrove A venue,Suite 7,Chico,CA,95926,(916)891-5571,TX/PV/OS/OR/AD/DD/SS/FG/
Solutions,,,2059 Forest A venue,Suite 2,Chico,CA,95928,(530)898-8333,TX/PV/OS/OR/AD/SS/
Touch Stone,,,1390 East Lassen A venue,,Chico,CA,95973,(530)898-1123,TX/PV/OS/OR/JO/PW/SS/OH/MD/
Jericho Outreach,Mens Home,,5151 F Street,,Chino,CA,91710,(909)591-9077 Hotlines: (909)591-9077 (909)591-1465,TX/PV/OS/DT/RD/RR/DD/SS/
Jericho Outreach,Womens Home,,12591 Benson Avenue,,Chino,CA,91710,(909)628-9132 Hotlines: (909)628-9132 (909)591-1465,TX/PV/OS/DT/RD/RR/DD/SS/
San Bernardino County,Chino Multiple Diagnosis Clinic,,6180 Riverside Drive,Suite H,Chino,CA,91710,(909)590-5355 Hotline: (800)968-2636,TX/PV/OS/OR/IO/AD/DD/PW/SS/CM/MD/
Acupuncture Institute for,Addiction Free Life,,236 F Street,,Chula Vista,CA,91910,(619)422-1200,DT/OD/OR/JO/HV/PW/SS/SG/
Bayview Hospital,Mental Health Systems,,330 Moss Street,,Chula Vista,CA,91911,(619)426-6310 Hotline: (800)585-2767,TX/PV/OS/DT/ID/JR/AD/DD/PH/MC/PI/
MAAC Project,Health Services Division,,1180 3rd A venue,,Chula Vista,CA,91911,(619)425-9171,TX/OS/OR/CJ/
MAAC Project,Nosotros,,73 North 2nd A venue,Building B,Chula Vista,CA,91910,(619)426-4801,TX/OS/RR/SS/
McAlister Institute for Treatment and,Education (MITE) Options South Bay,,251 Pal mar A venue,Suite A,Chula Vista,CA,91911,(619)498-0908,TX/PV/OS/OR/JO/DD/PW/SS/
Mental Health Systems,Kinesis South,,835 3rd A venue,Suite E,Chula Vista,CA,91911,(619)425-8590,TX/PV/OS/OR/DD/CM/MD/
San Diego Treatment Service,Third A venue Clinic,,1161 3rd Avenue,,Chula Vista,CA,91911,(619)498-8260,TX/ML/OS/DT/OD/OR/IO/SS/
Oak House Recovery Programs,Oak House I and II,,7919 Oak A venue,,Citrus Heights,CA,95610,(916)721-9699 Hotlines: (916)721-9694 (916)786-0255,TX/PV/OS/DT/RD/RR/DD/SS/TC/
Crossroads,,,1269 North Harvard Avenue,,Claremont,CA,91711,(909)626-7847,TX/PV/OS/RR/HH/
Bi Bett Corp/Diablo Valley Ranch,Male Recovery Community,,11540 Marsh Creek Road,,Clayton,CA,94517,(510)672-5700 Hotline: (800)846-1652,TX/OS/RR/DD/HV/SS/TC/FG/
Alcohol and Other Drug Services,Southshore,,7000 B South Center Drive,,Clearlake,CA,95422,(707)994-7617,TX/PV/OS/OR/IO/AD/SS/MD/
Drug Abuse Allematives Center,,,14709 Lakeshore Drive,,Clearlake,CA,95422,(707)995-3235,TX/OS/OR/IO/PW/SS/MD/PI/
Central Valley Indian Health Program,Subst Abuse Servs/Family Wellness,,20 North Dewitt Street,,Clovis,CA,93612,(559)299-2578,TX/PV/OS/OR/CH/FG/PI/
Progress House Incorporated,Mens Facility,,838 Beach Court Road,,Coloma,CA,95613,(530)626-7252,TX/OS/RR/DD/SS/TC/FG/PI/
Western Clinical Health Servs WCHS,Inland Health Services IHS/Colton,,2275 East Cooley Drive,,Colton,CA,92324-6324,(909)370-1777,TX/ML/OS/DT/OD/OR/SS/MD/
Colusa County Behavioral,Health Services,,85 East Webster Street,,Colusa,CA,95932,(530)458-0520,TX/PV/OS/OR/IO/AD/SS/
City of Compton,Special Services Center,,404 North Alameda Street,,Compton,CA,90221,(310)605-5693,TX/PV/OS/DT/OD/OR/IO/AD/PW/SS/OH/CJ/
Get Off Drugs Treatment Center,Womens Home,,1416 South Tamarind Street,,Compton,CA,90220,(310)635-9740,TX/PV/OS/DT/RD/RR/HV/SS/TC/
Kazi House,Residential Drug Program,,930 West Compton Boulevard,,Compton,CA,90220,(310)639-6393,TX/OS/RR/DD/HV/PW/SS/TC/
King/Drew Substance Abuse Trt Program,,,3221 North Alameda Street,Building 4 Suite J,Compton,CA,90222,(310)631-5992,TX/PV/OS/OR/IO/SS/
Mini Twelve Step House,The Solution Drop In Center,,200 North Long Beach Boulevard,,Compton,CA,90221,(310)608-1505 Hotline: (800)262-2463,TX/PV/OS/OR/IO/SS/CJ/
Shields for Families,Exodus,,1500 East Kay Street,,Compton,CA,90221,(310)603-2654,TX/OS/IO/RR/HV/PW/SS/MD/
Affordable Detox,,,2481 Pacheco Street,,Concord,CA,94520-2019,(925)680-8933,PV/DT/OD/OR/SS/SG/
Bi Bett Corporation,Frederic Ozanam Center,,2931 Prospect Street,,Concord,CA,94518,(925)676-4840,TX/RR/SS/FG/
Bi Bett Corporation,Shennum Center,,2090 Commerce A venue,,Concord,CA,94520,(925)676-2580,TX/PV/OS/DT/RD/SS/
Mount Diablo Medical Pavilion,Center for Recovery,,2740 Grant Street,,Concord,CA,94520,(925)674-4160,TX/PV/OS/DT/OD/OR/IO/ID/IR/DD/PH/
New Connections,The Keller House,,1760 Clayton Road,,Concord,CA,94520,Hotlines: (800)846-1652 (925)472-0999,TX/PV/OS/OR/AD/DD/HV/SS/PI/
New Leaf Treatment Center,,,2151 Salvio Street,SuiteT,Concord,CA,94520-2458,(925)688-0500 Hotline: (800)846-1652,TX/PV/OS/DT/OD/OR/IO/DD/SS/MC/MD/PI
Recovery Management Services,Crossroads Recovery Center II,,2480 Pacheco Street,,Concord,CA,94520,(925)682-5704,TX/OS/RR/DD/SS/
Recovery Management Services,Crossroads Recovery Center Ill,,2118 East Street,,Concord,CA,94520,(925)682-5704,TX/PV/OS/DT/OD/RR/DD/SS/PI/
Recovery Management Services,Crossroads Recovery Center IV,,2080 East Street,,Concord,CA,94520,(925)682-5704,TX/PV/OS/DT/OD/RR/DD/SS/PI/
Recovery Management Services,Crossroads Treatment Center I,,2449 Pacheco Street,2nd Floor,Concord,CA,94520,(925)682-5704,TX/PV/OS/DT/OD/OR/IO/RR/DD/SS/PI/
Sunrise House,,,135 Mason Circle,UnitM,Concord,CA,94520,(925)825-7049,TX/OS/IO/RR/SS/PI/
Tehama Recovery Center,,,Right Road,275 Solano Street,Corning,CA,96021,(916)824-0669,TX/OS/DT/RD/RR/DD/HV/PW/SS/FG/
Charter Behavioral Health System of,Southern California/Corona,,2055 Kellogg A venue,,Corona,CA,91719,Hotline: (800)533-4673,TX/PV/OS/DT/OR/IO/ID/IR/AD/DD/HV/SS/PH/MC/MD/FG/PI/
Riverside County Substance Abuse Prog,,,623 Noth Main Street,Suite D-11,Corona,CA,91720,(909)737-2962 Hotline: (800)499-3008,TX/PV/OS/OR/DD/HV/PW/SS/CJ/MD/FG/
Coronado Recovery Center,,,830 Orange A venue,Suite J,Coronado,CA,92118,(619)435-8378,TX/PV/OS/OR/IO/DD/SS/CM/SG/CJ/FG/PI/
Addiction Institute of Costa Mesa,,,3151 Airway A venue,Suite C-1,Costa Mesa,CA,92626,(714)545-7114 Hotline: (800)557-2966,TX/PV/OS/OR/IO/DD/SS/SG/PI/
Breakaway Health Corporation,Breakthrough,,3151 Airway Avenue,Suite D-1,Costa Mesa,CA,92626,(714)957-8229 Hotline: (714)957-8229,TX/PV/OS/OR/IO/AD/SS/SG/PI/
Cope Center,,,440 Fair Drive,Suite K,Costa Mesa,CA,92626,(714)545-7732 Hotline: (714)545-7732,TX/OS/DT/OD/OR/IO/ID/AD/DD/SS/PH/SG/PI/
First Step House of Orange County,,,2015 Charle Street,,Costa Mesa,CA,92627,(714)642-2941,TX/PV/DT/RD/RR/SS/HH/
Gold Coast Counseling Center Inc,,,2950 Airway A venue,Suite B-3,Costa Mesa,CA,92626,(714)641-0532,TX/PVOS/OR/
Hope Institute Center for Recovery and,Family Education Inc,,2900 Bristol Street,Suite C-206,Costa Mesa,CA,92626,(714)432-0020,TX/PV/OS/OR/IO/AD/DD/SS/PI/
Matrix Center at Costa Mesa,,,275 Victoria Street,Suite 2-F,Costa Mesa,CA,92627,,TX/PV/OS/IO/DD/HV/SS/
New Directions for Women Inc,,,2601 Willo Lane,,Costa Mesa,CA,92627,(949)548-8754 Hotline: (800)939-6636,TX/PV/OS/RR/DD/HV/SS/TC/PI/
Newport Mesa Halfway House,,,1865 Anaheim Street,,Costa Mesa,CA,92627,(949)584-1655,TX/RR/OH/HH/
Orange County Health Care Agency,Newport Mesa Alcohol and Drug House,,3115 Redhill Avenue,,Costa Mesa,CA,92626,(714)850-8431 Hotlines: (714)850-8437 (714)850-8431,TX/PV/OS/OR/IO/AD/DD/HV/SS/
South Coast Counseling Inc,,,693 Plumer Street,,Costa Mesa,CA,92627,(714)642-0180,TX/OS/RR/HH/FG/
Southern California Alcohol and Drug,Programs Heritage House,,2212 Placentia Avenue,,Costa Mesa,CA,92627,(949)646-2271 Hotlines: (949)646-2271 (800)646-2271,TX/PV/OS/RR/DD/PW/SS/FG/
The Rap Center,,,666 West Baker Street,Suite 421,Costa Mesa,CA,92626,(714)432-0727,TX/PV/OS/OD/OR/IO/SS/PI/
A Step Up,,,420 East Cotati A venue,,Cotati,CA,94931,(707)795-4336,TX/OS/IO/RR/DD/SS/TC/HH/
Yuki Trails Substance Abuse Program,,,,,Covelo,CA,95428,(707)983-6648 Hotline: (707)983-6715,TX/PV/OS/OR/IO/AD/DD/SS/OH/CM/
National Council on Ale and Drug Dep,East San Gabriel and Pomona Valleys,,754 East Arrow Highway,Suite F,Covina,CA,91722,(626)331-5316,TX/PV/OS/OR/AD/PW/SS/
Santa Anita Family Services,Pathways,,716 North Citrus Avenue,,Covina,CA,91723,(626)966-1755,TX/OS/IO/DD/SS/CM/
Stepping Stones Home I and II,,,17727 East Cypress Street,,Covina,CA,91722,(626)967-2677,TX/OS/RR/PW/SS/CO/
Del Norte County,Drug and Alcohol Services,,384 Elk Valley Road,,Crescent City,CA,95531,(707)464-4813,TX/PV/OS/OR/IO/DD/PW/SS/
Humboldt Addictions Services Programs,,,200 Marine Way,,Crescent City,CA,95531,(707)464-7849,TX/PV/OS/OR/IO/SS/
Driver Safety Schools,AM/PM Culver City Budget School,,4244 Overland A venue,,Culver City,CA,90230,(310)837-1818,TX/PV/OS/IO/SS/CH/SG/CJ/
Asian American Recovery Services,Project ODASA,,244 92nd Street,,Daly City,CA,94015,(650)301-3240,TX/OS/OR/SS/
Witts Inn,Christina House,,33025 Christina Street,,Dana Point,CA,92629,(949)443-0700,TX/PV/OS/OR/IO/RR/AD/DD/SS/TC/HH/CM/SG/PI/
Witts Inn,,,24901 Dana Point Harbor Drive,Suite 220 and 230,Dana Point,CA,92629,(949)443-0700,TX/PV/OS/IO/RR/AD/DD/SS/TC/HH/SG/SC/CJ/PI/
Discovery Counseling Center of,The San Ramon Valley Inc,,530 La Gonda Way,Suite A,Danville,CA,94526,(925)837-0505,TX/PV/OS/OR/AD/DD/CM/MC/FG/PI/
San Ramon Valley,Discovery Center,,530 Lagonda Way,Suite A,Danville,CA,94526,(925)837-0505,TX/PV/OS/OR/AD/DD/SS/CM/
Crutchers Serenity House,,,50 Hillcrest Drive,,Deer Park,CA,94576,(707)963-3192 Hotlines: (800)794-9008 (877)274-4968,TX/PV/OS/DT/OD/OR/IO/RD/RR/SS/TC/PI/
Saint Helena Hospital,Alcohol and Chemical Recovery,,650 Sanitarium Road,,Deer Park,CA,94576,(707)963-6204,TX/OS/DT/ID/IR/RR/GH/MC/PI/
Aegis Medical Systems Inc,,,1019 Jefferson Street,,Delano,CA,93215,(661)721-0463,TX/ML/OS/DT/OD/OR/SS/
Traffic and Alcohol A warencss,School of Kern (T AASK),,623 Main Street,,Delano,CA,93215,(661)832-3283,TX/OR/
Phoenix House San Diego,Residential Drug Free Program,,23981 Sherilton Valley Road,,Descanso,CA,91916,(619)445-0405 Hotline: (800)378-4435,TX/PV/OS/RR/AD/DD/HV/SS/TC/SC/FG/
Desert Rehabilitation Services,Hacienda Valdez,,12890 Quinta Way,,Desert Hot Springs,CA,92240,(760)329-8434,TX/PV/OS/RR/HH/
Desert Rehabilitation Services Inc,D BA The Ranch,,7885 Annandale A venue,,Desert Hot Springs,CA,92240,(760)329-2924,TX/PV/OS/DT/RD/RR/DD/SS/OH/PI/
Soroptimist House of Hope,,,13525 Cielo Azul Way,,Desert Hot Springs,CA,92240,(760)329-4673,TX/OS/RR/SS/
Dixon Family Services,,,155 North 2nd Street,,Dixon,CA,95620,(707)678-0442,TX/PV/OS/OR/IO/AD/DD/HV/CO/
Kaiser Permanente/Bellflower Med Ctr,Imperial Outpatient Clinic,,9449 East Imperial Highway,,Downey,CA,90242,,TX/PV/OS/DT/OD/OR/IO/ID/IR/RR/AD/DD/PW/SS/
Southern CA Alcohol and Drug Programs,Awakenings Program,,11500 Paramount Boulevard,,Downey,CA,90241,(562)923-4545,TX/PV/OS/OR/SS/
Southern California Ale/Drug Prog Inc,La Casita De Las Mamas of Downey,,10615 Downey Avenue,,Downey,CA,90241,(562)622-2268,TX/PV/OS/DT/RD/RR/DD/SS/TC/
Occupational Health Services,Drinking Driver Program,,6670 Amador Plaza Road,Suite 203,Dublin,CA,94568,(510)829-4730,TX/PV/OS/OR/SS/
Rancho L Abri,,,18091 Bee Canyon Road,,Dulzura,CA,91917,(619)468-9333,TX/PV/OS/DT/RD/RR/DD/SS/OH/PI/
Free at Last/Intensive Outpatient Unit,,,1946 University A venue,,East Palo Alto,CA,94303,(650)462-6999,TX/PV/OS/OR/IO/AD/HV/SS/CH/CO/CJ/
Edwards Air Force Base,Substance Abuse Program,,10 Hospital Road,,Edwards AFB,CA,93523-5000,(661)277-5291,TX/PV/OS/OR/CM/FG/
El Cajon Drug Court,,,1357 Broadway,Suite 100,El Cajon,CA,92021,(619)588-1989,TX/OR/IO/SS/CJ/
McAlister Institute for Treatment and,Education (MITE) East County Regional,,1365 North Johnson A venue,Suite 108,El Cajon,CA,92020,(619)440-4801,TX/PV/OS/DT/OD/OR/IO/AD/DD/HV/SS/
McAlister Institute for Treatment and,Education MITE Pregnant Inmate Program,,1365 North Johnson Avenue,Suite 111,El Cajon,CA,92020,(619)442-0277x101,TX/OS/IO/PW/CJ/
San Diego Health Alliance,East Office,,234 North Magnolia Avenue,,El Cajon,CA,92020,(619)579-8373,TX/ML/OS/DT/OD/OR/DD/SS/MD/
Imperial County MH Ale and Drug Progs,Outpatient Clinic,,1030 Broadway Street,Suite 104,El Centro,CA,92243,(760)353-0763 Hotlines: (760)339-4504 (760)352-7873,TX/PV/OS/OR/AD/SS/
Imperial County MH/ Ale and Drug Progs,Healthy New Life/Perinatal Trt Program,,1331 Clark Road,Building 3,El Centro,CA,92243,(760)353-0763 Hotlines: (760)339-4504 (760)352-7873,TX/ML/OS/IO/DD/PW/
Sober Roads,,,395 Broadway Street,Suite 11,El Centro,CA,92243,(760)352-8888,TX/OS/OR/SS/
Volunteers of America,Alcohol and Drug Service Center,,1331-B Clark Road,,El Centro,CA,92243,(760)353-8482 Hotline: (760)353-8482,TX/PV/OS/DT/RD/RR/DD/SS/TC/CO/
CA Hispanic Commission Ale/Drug Abuse,Casa Blanca Latino Ale/DA Servs Center,,12042 Ramona Boulevard,,El Monte,CA,91732-2422,(626)444-6204,TX/PV/OS/OR/IO/AD/SS/
Community Health Projects Med Group,,,11041 Valley Boulevard,,El Monte,CA,91731,(626)442-4177,TX/ML/OS/DT/OD/OR/SS/
Mid Valley Recovery Services,Omni Center Casa de Paz,,3430 Cogswell Road,,El Monte,CA,91732,(626)453-3460 Hotline: (626)453-3460,TX/OS/DT/RD/RR/SS/TC/
Twin Palms Recovery Center,,,3574 Lexington Avenue,,El Monte,CA,91731,(626)443-4008,TX/PV/OS/OR/SS/
Phoenix House,Impact Program,,345 Saxony Road,Suite 104,Encinitas,CA,92024,(760)634-7610 Hotline: (800)378-4357,TX/PV/OS/IO/AD/SS/
Phoenix House,,,335 Saxony Road,,Encinitas,CA,92024,(760)944-8204 Hotline: (800)378-4357,TX/OS/RR/AD/SS/TC/SC/
San Luis Rey Hospital,,,335 Saxony Road,,Encinitas,CA,92024,(760)753-1245,TX/PV/OS/DT/IO/ID/IR/AD/DD/SS/PH/
Fellowship Center,Alcohol Services Programs,,737 East Grand Avenue,,Escondido,CA,92025-4404,(760)745-8478,TX/PV/OS/OR/RR/SS/FG/PI/
Mental Health Systems,Kinesis North,,474 West Vermont Avenue,,Escondido,CA,92025,(760)480-2255,TX/PV/OS/IO/DD/CM/MD/
Mental Health Systems,North Inland Regional Recovery Center,,620 North Ash Street,,Escondido,CA,92025,(760)741-7708,TX/PV/OS/OR/IO/AD/DD/SS/MD/
North County Serenity House,Serenity Too,,117 North Elm Street,,Escondido,CA,92027,(760)741-6297,TX/OS/OR/IO/DD/PW/SS/MD/
North County Serenity House,,,123 South Elm Street,,Escondido,CA,92025,(760)741-6297,TX/OS/RR/SS/PI/
Vietnam Veterans of San Diego,New Resolve Program,,1207 South Escondido Boulevard,,Escondido,CA,92025,(760)745-7829,TX/PV/OS/OR/DD/SS/FG/
Alcohol Drug Care Service Inc,,,1335 C Street,,Eureka,CA,95501,(707)445-3869,TX/PV/OS/DT/OR/RD/
Healthy Moms Program,,,2944 D Street,,Eureka,CA,95501,(707)441-5742,TX/PV/OS/OR/IO/PW/SS/FG/
Humboldt County,Alcohol and Other Drug Programs,,2922 I Street,,Eureka,CA,95501,(707)445-6250 Hotline: (707)445-7715,TX/PV/OS/OR/IO/AD/DD/SS/MD/
North Coast Substance Abuse Council,Crossroads,,1205 Myrtle Avenue,,Eureka,CA,95503,(707)445-0869,TX/OS/RR/SS/TC/
Saint Joseph Hospital,Family Recovery Services,,2700 Dolbeer Street,,Eureka,CA,95501,(707)445-9251,TX/PV/OS/DT/OD/OR/IO/ID/SS/GH/MC/PI/
United Indian Health,Child and Family Services Department,,2 I 20 Campton Road,,Eureka,CA,95503,(707)441-3100,TX/PV/OS/OR/IO/AD/DD/SS/CM/FG/
United Indian Lodge,,,1116 9th Street,,Eureka,CA,95501,(707)445-3071,TX/PV/OS/OR/IO/RR/SS/FG/
Courage to Change,,,1230 North Anderson Street,,Exeter,CA,93221,(559)594-4855,TX/PV/OS/OR/RR/AD/DD/SS/TC/SC/
Solano County Health/Social Services,Freedom Outreach and SCOP,,1735 Enterprise Drive,Building I Suite 104,Fairfield,CA,94533-0677,,TX/PV/OS/OR/IO/DD/PW/SS/MD/FG/
Youth and Family Services,Womens Substance Abuse Programs,,934 Missouri Street,Suite A,Fairfield,CA,94533,(707)645-7380,TX/PV/OS/OR/IO/DD/PW/CM/
Messenger Clinic,,,4009-A Bridge Street,,Fair Oaks,CA,95628-7503,(916)863-0123,TX/PV/OS/DT/OD/OR/IO/AD/DD/HV/SS/SG/MD/PI
Social Health and Addiction Recov Prog,Fair Oaks Recovery Center,,8312 Madison A venue,,Fair Oaks,CA,95628,(916)863-1606,TX/PV/OS/OR/IO/RR/DD/HV/PW/SS/TC/PI/
Santa Clara Valley Alcoholism,Service United,,524 1/2 Sespe Avenue,,Fillmore,CA,93015,(805)524-4926,TX/PV/OS/OR/IO/AD/DD/SS/
Recovery Continuum Services,A Womans Walk,,50 I and 505 Coloma Street,,Folsom,CA,95630,(916)985-8586,TX/OS/DT/IO/RD/RR/DD/SS/PI/
Kaiser Permanente Hospital,Chemical Dependency Recovery Program,,17046 Mangold A venue,,Fontana,CA,92335,(909)427-5128 Hotlincs: (909)427-5128 (800)900-3277,TX/PV/OS/DT/OD/OR/IO/ID/AD/DD/SS/GH/PI/
Merrill Community Services,,,16846 Merrill A venue,Suite 202,Fontana,CA,92335,(909)823-0609,TX/PV/OS/OR/AD/SS/
San Bernardino Mental Health,Fontana Perinatal Treatment,,8621 Juniper A venue,Suite IOI,Fontana,CA,92335,(909)428-846,TX/OS/DT/OD/OR/IO/DD/HV/PW/SS/CM/CH/CJ/
Serenity Knolls,Chemical Dependency Recovery Program,,145 Tamai Road,,Forest Knolls,CA,94933,(415)488-0400,TX/PV/OS/DT/RD/RR/DD/SS/
Growth Advocates Healing Center,Whole Person/Growth for Adv Healing,,200 South Franklin Street,,Fort Bragg,CA,95437,(707)964-3073,TX/OS/OR/IO/RR/DD/HV/SS/TC/
Mendocino County Alcohol and,Other Drug Programs/Fort Bragg,,120 West Fir Street,,Fort Bragg,CA,95437,(707)964-4713,TX/OS/OR/CH/MD/
Center for Individual Recovery Servs,,,173 South Fortuna Boulevard,,Fortuna,CA,95540,(707)725-6499 Hotline: (707)725-6499,TX/PV/OS/OR/IO/SS/
Fortuna Community Services,Humboldt Alcohol Recovery Treatment,,2331 Rohnerville Road,,Fortuna,CA,95540,(707)725-9381,TX/PV/OS/OR/IO/AD/CO/PI/
Avalon Family Counseling,,,225 Bonita Lane,,Foster City,CA,94404,(650)368-6355,TX/OS/OR/AD/SS/SG/
Pathways to Discovery,,,18350 Mount Langley Street,Suite 205,Fountain Valley,CA,92708,(714)964-2267,TX/PV/OS/OR/DD/SS/OH/SG/PI/
BHC Fremont Hospital,,,39001 Sundale Drive,,Fremont,CA,94538,(510)796-1100 Hotlines: (888)796-1101 (510)796-1100,TX/OS/DT/OR/IO/ID/IR/AD/HV/PH/MC/FG/PI/
Camales Unidos Reformando Adictos,(CURA) Therapeutic Community,,37437 Glenmore Drive,,Fremont,CA,94536,(510)713-3204,TX/OS/RR/DD/HV/SS/TC/
Second Chance,Phoenix Womens Program,,37957 Fremont Boulevard,,Fremont,CA,94536,(510)792-4357 Hotline: (510)792-4357,TX/OS/OR/IO/PW/SS/
Solidarity Fellowship,Alameda House,,34413 Blackstone Way,,Fremont,CA,94555,(510)796-7120,TX/PV/OS/RR/SS/TC/HH/SG/
Alcohol and Drug Awareness Program,DBA New Directions,,999 West Mathews Road,,French Camp,CA,95231,(209)982-1214,TX/ML/OS/DT/RD/RR/SS/TC/
San Joaquin County,Methadone Maintenance Clinic,,500 West Hospital Road,,French Camp,CA,95231,(209)468-6840,"Sa/Jo/aq/ui/nCo/un/tyOu/tp/at/ie/ntMe/th/ad/on/eDe/to/xCI/in/ic5O/We/stHo/sp/it/aIRo/adFr/en/chCa/mp/,CA/95/23/I(2/O9/)4/68/-6/84/2TX/ML/OS/DT/OD/GH/MC/MD/"
San Joaquin County,Recovery House,,500 West Hospital Road,,French Camp,CA,95231,(209)468-6857,TX/PV/OS/RR/DD/HV/SS/TC/CJ/
San Joaquin County,Residential Drug Program/D Ward,,500 West Hospital Road,,French Camp,CA,95231,(209)468-6208 Hotline: (209)468-6880,TX/ML/OS/RR/DD/SS/
Addiction Research/freatment,CAL Detox/East Cartwright Clinic,,3103 East Cartwright Street,,Fresno,CA,93725,(559)498-7100,TX/ML/OS/DT/OD/OR/IO/HV/PW/SS/MD/
Addiction Research/freatment,CAL Detox/Van Ness Clinic,,539 North Van Ness Street,,Fresno,CA,93728,(559)266-9581,TX/ML/DT/OD/OR/JO/DD/PW/SS/MD/
Aegis Medical Systems,,,34 East Minarets Avenue,,Fresno,CA,93650,(559)431-6070,TX/ML/PV/DT/OD/OR/SS/
Alcoholism and Drug Abuse Council of,Fresno,,4411 North Cedar A venue,Suite 108,Fresno,CA,93726,(559)248-1548,TX/PV/OS/OR/JO/AD/DD/SS/
Bay Area Addiction Research/frt,(BAART)/Cal Detox/South Orange Clinic,,1235 E Street,,Fresno,CA,93706,(559)268-6261,TX/ML/DT/OD/JO/PW/SS/MD/
California Substance Abuse Institute,,,2913 Tulare Street,,Fresno,CA,93721,(559)442-3733 Hotlines: (559)442-3733 (559)696-6994,TX/OS/OR/JO/SS/
Cedar Vista Hospital,,,7171 North Cedar Avenue,,Fresno,CA,93720,(559)449-8000 Hotlines: (559)435-7669 (800)822-8448,TX/PV/OS/DT/IO/ID/IR/RR/AD/DD/PH/
Comprehensive Ale Program Residential,,,2445 West Whitesbridge Road,,Fresno,CA,93706,(559)264-5096 Hotlines: (559)485-6364 (559)264-5096,TX/PV/OS/DT/RD/RR/SS/TC/
Eleventh Hour,,,5639 East Park Circle Drive,,Fresno,CA,93727,(559)454-18l9,TX/OS/IO/RR/SS/PI/
Family Communication Center,Fresno Youth Advocates,,1039 U Street,,Fresno,CA,93721,(559)237-8304,TX/OS/OR/IO/AD/DD/CM/
Focus to Life,Extended Service Program,,440 North Blackstone Street,,Fresno,CA,93701,(559)268-6508,TX/PV/OS/OR/IO/DD/SS/MC/PI/
Fresno County Hispanic Commission on,Alcohol and Drug Abuse Services Inc,,1444 Fulton Street,,Fresno,CA,93721,(559)268-6475,TX/PV/OS/OR/
Genesis Group Home,Spirit of Woman,,728 North Echo A venue,,Fresno,CA,93728,(559)225-9548,TX/PV/OS/IO/RR/HV/PW/SS/TC/CO/
Kaiser Permanente,Chemical Dependency Services,,4785 North 1st Street,2nd Floor,Fresno,CA,93726,(559)448-4765 Hotline: (800)559-8460,TX/OS/DT/OD/IO/ID/RD/AD/DD/HV/PW/SS/
King of Kings,Mens Recovery Home,,2267 South Geneva Street,,Fresno,CA,93706,(559)266-6449 Hotline: (559)266-6449,TX/OS/RR/DD/H/SS/
King of Kings,Outpatient Services/West Fresno,,2385 South Fairview A venue,Suite 17,Fresno,CA,93706,(559)237-4116 Hotline: (559)266-6449,TX/OS/OR/IO/DD/SS/MD/
King of Kings,Pregnant Post Partum Womens Program,,1350 East Annadale A venue,,Fresno,CA,93706,(559)486-8200 Hotline: (559)266-6449,TX/OS/OR/IO/PW/SS/
King of Kings/Alcohol and Drug Free,Resid Preg and Post Partum Visions Prg,,1530 West Whitesbridge Road,,Fresno,CA,93706,(559)264-4663 Hotline: (559)266-6449,TX/OS/RR/PW/SS/
N uestra Casa Recovery Home,,,1414 West Kearney Boulevard,,Fresno,CA,93704,Hotline:,TX/PV/OS/OR/RR/SS/TC/CJ/
Sierra Tribal Consortium,Turtle Lodge Recovery Home,,610 West McKinley Avenue,,Fresno,CA,93728,(559)445-2691 Hotline: (888)567-6237,TX/PV/OS/OR/RR/SS/TC/
The Third Floor/Comm Involvement Ctr,,,4969 East Clinton Street,,Fresno,CA,93727,(559)251-4800,TX/PV/OS/OR/IO/DD/HV/PW/SS/
The Third Floor/West Whitesbridge,Klise Center,,2855 West Whitesbridge Road,,Fresno,CA,93706,(559)265-4800 Hotline: (559)265-4800,TX/PV/OS/DT/OR/RD/RR/DD/HV/PW/SS/TC/HH/
Tower Recovery Center,,,1028 North Fulton Street,Suite IOI,Fresno,CA,93728,(559)486-6080 Hotline: (559)486-6080,TX/OS/IO/SS/MC/
Turning Point,Substance Abuse Treatment Unit,,2904 East Belgravia Street,,Fresno,CA,93721,(559)264-2932,TX/PV/OS/RR/SS/TC/CJ/
Turning Point After Care,,,1638 L Street,,Fresno,CA,93721,(559)237-0846,TX/PV/OS/OR/DD/SS/CM/FG/
VA Central CA Health Care System,Chemical Dependence Treatment Program,,2615 East Clinton Avenue,Room 116-D,Fresno,CA,93703,(559)228-5331,TX/OS/DT/OR/ID/IR/DD/GH/FG/
California Institution for Women,,,16756 Chino-Corona Road,,Frontera,CA,91720,,TX/PV/OS/RR/SS/TC/CJ/
Addiction Treatment Center,,,1105 East Commonwealth Street,,Fullerton,CA,92831,(714)992-1677,TX/PV/OS/OR/SS/
KC Services Inc,,,80 I South Euclid Street,,Fullerton,CA,92832,(714)449-1339,TX/PV/OS/OR/CJ/
Orange County Health Care Agency,North Alcohol and Drug Abuse Services,,211 West Commonwealth Avenue,Suite 204,Fullerton,CA,92832,(714)447-7099,TX/PV/OS/OR/DD/SS/PI/
Saint Jude Medical Center,Outpatient Family Recovery Services,,251 East Imperial Highway,Suite 440,Fullerton,CA,92835,(714)447-0621 Hotline: (800)367-7595,TX/PV/OS/IO/DD/SS/
Western Pacific Fullerton Program,Outpt Detox and Methadone Maintenance,,218 East Commonwealth A venue,,Fullerton,CA,92832,(714)992-4770,TX/OS/OR/IO/AD/DD/HV/SS/CM/SG/MD/FG/PI
Woodglen Recovery Junction,,,771 West Orangethorpe Avenue,,Fullerton,CA,92832,(714)879-0929,TX/OS/DT/RD/RR/SS/CJ/
Singing Trees Recovery Center,,,2061 Highway IOI,,Garberville,CA,95542,(707)247-3495,TX/DT/RD/RR/SS/TC/PI/
Behavioral Health Services,Omni,,15519 Crenshaw Boulevard,,Gardena,CA,90249,(310)679-9031,TX/ML/OS/DT/OD/OR/HV/PW/SS/MD/
Special Services for Groups,Pacific Asian Alcohol and Drug Program,,14112 South Kingsley Drive,,Gardena,CA,90247,(310)327-7501,TX/PV/OR/IO/DD/PW/SS/
CA Hispanic Commission Ale/Drug Abuse,Unidos Recovery Home,,9842 West 13th Street,Suite B,Garden Grove,CA,92844,(714)531-4624,TX/PV/OS/DT/RD/RR/DD/HV/SS/
Roque Center,Residential,,9842 West 13th Street,Suite A,Garden Grove,CA,92844,(714)839-0607 Hotlines: (714)839-0608 (714)839-0609,TX/PV/OS/RR/SS/
Progress House II,,,5607 Mount Murphy Road,,Garden Valley,CA,95633,(916)333-9460 Hotlines: (530)333-9460 (888)544-0900,TX/OS/RR/PW/SS/TC/MD/FG/PI/
El Dorado Council on Alcoholism,Lifeskills/Divide Wellness Center,,6065 Highway 193,,Georgetown,CA,95634,(530)622-8193 Hotline:,TX/PV/OS/DT/OD/OR/IO/AD/DD/HV/SS/CM/MC/MD/FG/PI/
Community Solutions,,,8475 Forest Street,,Gilroy,CA,95020,(408)842-7138 Hotline: (800)488-9919,TX/PV/OS/OR/AD/DD/HV/SS/CM/CO/CJ/PI/
Glendale Memorial Hospital/Health Ctr,Alpha Recovery Center,,1330 South Glendale A venue,,Glendale,CA,91205,(818)502-2300 Hotlines: (800)300-8040,TX/OS/DT/OD/OR/IO/ID/DD/SS/GH/CM/MC/PI/
New Insights,Specialized Treatment for Subst Abuse,,431 North Brand Boulevard,Suite 304,Glendale,CA,91203,(818)242-2308,TX/PV/OS/IO/SS/
Right On Programs,,,522 East Broadway Street,Suite 101,Glendale,CA,91205,,TX/PV/OS/OR/CJ/
Verdugo Mental Health Center,Positive Directions Com Counseling Ctr,225-D North Maryland A venue,,,Glendale,CA,91206,(818)247-8180,TX/PV/OS/OR/SS/CM/
Verdugo Mental Health Center,Substance Abuse Program,,1540 East Colorado Street,,Glendale,CA,91205-1514,(818)244-7257,TX/OS/OR/DD/HV/SS/CM/
Project Info Community Services Inc,,,1505 South Sunflower Avenue,,Glendora,CA,91740,(626)335-8153,TX/PV/OS/OR/AD/PW/SC/
Aegis Medical Systems,,,5710 Hollister A venue,,Goleta,CA,93117,(805)681-7242,TX/ML/OS/DT/OD/OR/SS/FG/
Isla Vista Health Projects,Isla Vista Medical Clinic,,970 Embarcadero Del Mar,,Goleta,CA,93117,(805)968-15)iX110,TX/DT/OD/OR/PW/CH/MD/
Drug Alternative Program,,,11810 Kingston Street,,Grand Terrace,CA,92313,(909)783-1094 Hotlines: (800)784-1094,TX/RR/SS/
Nevada County Council on Alcoholism,NV Cnty Sub Abuse Trt and Rec Prog,,440 Henderson Street,Suite C,Grass Valley,CA,959451,(530)273-9541 Hotline: (530)273-9541,TX/PV/OS/OR/IO/AD/SS/
Team III Family Counseling Center,,,256 Buena Vista Drive,Suite 210,Grass Valley,CA,95945,(530)477-7025,TX/PV/OS/OR/CM/MD/PI/
Ross Hospital,Chemical Dependency Services,,1111 Sir Francis Drake Boulevard,,Greenbrae,CA,94904,(415)258-6960 Hotline: (800)767-7677,TX/OS/DT/OR/IO/ID/IR/DD/HV/SS/PH/OH/CM/PI/
Butte County Behavioral Health,Gridley Family Counseling Center,,995 Spruce Street,,Gridley,CA,95948,(530)891-2984 Hotlines: (800)371-4373 (800)334-6622,TX/OS/OR/AD/DD/CM/
Casa Solana,,,383 South 13th Street,,Grover Beach,CA,93433,(805)481-8555,TX/PV/RR/SS/FG/
Alcohol and Drug Education and,Counseling Center,,289 East 8th Street,,Hanford,CA,93230,(559)582-4481,TX/PV/OS/OR/AD/SS/CJ/PI/
Cornerstone Comm Ale/Drug Rec Systems,Cornerstone Mens Recovery,,801-805 West 7th Street,,Hanford,CA,93230,(559)583-2033 Hotline: (559)583-2034,TX/OS/DT/RD/RR/SS/
Cornerstone Recovery Systems,Womens Program,,817 West 7th Street,,Hanford,CA,93230,(559)583-2030 Hotline: (559)583-2031,TX/OS/DT/IO/RD/RR/PW/SS/
River of Wellness and Recovery of,The Karuk Tribal Health Program,,64236 2nd A venue,,Happy Camp,CA,96039,,TX/PV/OS/OR/SS/
Western Health Harbor City Clinic,,,1647 West Anaheim Street,,Harbor City,CA,90710-3213,(310)534-5590,TX/ML/PV/OS/DT/OD/OR/IO/DD/PW/SS/SG/MD/PI/
Behavioral Health Services,Pacifica House,,2501 West El Segundo Boulevard,,Hawthorne,CA,90250,(323)754-2816,TX/OS/RR/DD/PW/SS/TC/FG/PI/
Behavioral Health Services,Patterns,,12917 Cerise A venue,,Hawthorne,CA,90250,(310)675-4431,TX/OS/RR/DD/PW/SS/
Horizon Services,Cronin House,,2595 Depot Road,,Hayward,CA,94545,(510)784-5883,TX/RR/DD/HV/PW/SS/
Second Chance,Hayward Community Center,,22297 Mission Boulevard,,Hayward,CA,94541,(510)886-8696 Hotline: (510)792-4357,TX/PV/OS/OR/AD/DD/SS/MC/FG/
Successful Alternatives for,Addiction and Counseling Services,,409 Jackson Street,Suite 201,Hayward,CA,94544,(510)247-8300,TX/ML/PV/OS/IO/DD/SS/CH/MC/PI/
Terra Firma Diversion/Education Servs,,,26785 Mission Boulevard,,Hayward,CA,94544,(510)537-8118,TX/PV/OS/OR/AD/SS/
Double Check Retreat,,,47552 East Florida Avenue,,Hemet,CA,92544,(909)927-2567 Hotlines: (909)927-2567 (909)927-5967,TX/PV/OS/RR/SS/TC/
I Am New Life Ministries,,,38400 San Ignacio Road,,Hemet,CA,92543,(909)767-2575,TX/OS/RR/SS/
Koalacare of California,Ace Program,,413 East Latham A venue,Suite 108,Hemet,CA,92543,(909)929-4462,TX/OR/
Riverside County Substance Abuse Prog,Hemet,,1005 North State Street,,Hemet,CA,92543,(909)765-1551 Hotline: (800)499-3008,TX/PV/OS/OR/IO/AD/DD/HV/PW/SS/CM/MD/
Riverside Recovery Resources,First Step House,,40329 Stetson A venue,,Hemet,CA,92544,(909)658-4466 Hotline: (800)801-4673,TX/PV/OS/DT/RD/RR/SS/
Riverside Recovery Resources,Our House,,41040 Acacia A venue,,Hemet,CA,92544,(909)766-7969 Hotline: (800)801-4673,TX/PV/OS/RR/PW/SS/
Sun Ray Addictions,,,980 North State Street,Suite 2,Hemet,CA,92543,(909)652-3560,TX/OS/OR/SS/
River City Recovery,,,12490 Alta Mesa Road,,Herald,CA,95638,(916)442-3979,TX/OS/RR/SS/FG/PI/
San Bernardino County,Perinatal Treatment Program,,11951 Hesperia Road,,Hesperia,CA,92345,(760)955-7367,TX/PV/OS/OR/IO/DD/PW/SS/MD/
San Bernardino Dept of Behavioral Hlth,Victor Valley Multi-Diag Clinic,,11951 Hesperia Road,,Hesperia,CA,92345,(760)955-1777,TX/PV/OS/OR/IO/AD/DD/SS/CM/MD/
San Benito County,Substance Abuse Program,,1111 San Felipe Road,Suite 108,Hollister,CA,95023,(831)637-5594,TX/PV/OR/IO/AD/DD/PW/SS/
Hoopa Valley Tribal Council,Division of Human Services,Orchard A venue,,,Hoopa,CA,95546,(530)625-4236 Hotline: (530)625-4510,TX/PV/OS/OR/IO/AD/DD/SS/CM/FG/
Diversion Safety Program Inc,Escuela Latina De Alcohol,,6606 Pacific Boulevard,Suite 215,Huntington Park,CA,90255,(323)585-0764,TX/PV/OS/OR/CJ/
ABC Recovery Center Inc,,,44-374 Palm Street,,Indio,CA,92201-3117,(760)342-6616,TX/PV/OS/DT/RD/RR/PW/SS/FG/
Awareness Program Drinking Driver,,,45-561 Oasis Street,,Indio,CA,92201,(760)342-1233,TX/PV/OS/OR/SS/
Riverside Colatino Com Ale/Drug Abuse,Casa Las Palmas,,,,Indio,CA,92201,,"In/di/o,'C/92/2O/I(7/6O/)3/47/-9/44/2TX/OS/RR/HH/"
Riverside County Substance Abuse,,,83-912 Avenue'45,Suite 9,Indio,CA,92201,(760)347-0754 Hotline: (800)499-3008,TX/ML/PV/OS/OR/IO/AD/DD/HV/PW/SS/MD/
Aegis Medical Systems,Inglewood Clinic,,614 West Manchester Boulevard,Suite 104,Inglewood,CA,90301,(310)412-0879,TX/ML/DT/OD/DD/PW/SS/
Behavioral Health Services Inc,Inglewood Prevention and Recovery Ctr,,279 West Beach Avenue,,Inglewood,CA,90302,(310)673-5750,TX/OS/OR/AD/SS/
Community Information and,Resource Center,,1630 Centinela A venue,Suite I,Inglewood,CA,90302,(310)645-4991,TX/PV/OS/OR/IO/AD/DD/HV/SS/
El Dorado Community Service Center,Inglewood Medical and MH Services,,4450 West Century Boulevard,,Inglewood,CA,90304,(310)671-0555,TX/PV/OS/DT/OD/OR/IO/AD/DD/SS/CM/MD/
Industry Comm Interface Enterprises,ICI Enterprises,,IOI North Labrea Avenue,Suite 402,Inglewood,CA,90301,(310)671-8708,TX/OS/OR/DD/SS/
Inglewood Substance Abuse,Traffic Violators Agency,,400 South La Brea A venue,Suite 202,Inglewood,CA,90301,(310)673-5882,TX/PV/OS/IO/AD/DD/HV/PW/SS/
Los Angeles Vets,Welfare to Work Program,,733 South Hindry A venue,,Inglewood,CA,90301,(310)348-7600,TX/PV/OS/RR/SS/TC/CH/CO/FG/
Pride Health Services,,,8619 Crenshaw Boulevard,,Inglewood,CA,90305,(310)677-9019,TX/PV/OS/OR/IO/AD/PW/SS/MD/
Working Alternatives,Century Community Correctional Center,,4026 West Century Boulevard,,Inglewood,CA,90304,(310)671-3629,TX/OS/OR/RR/DD/HH/FG/
Department of the Youth Authority Pres,Manzanita Substance Abuse Program,,201 Waterman Road,,lone,CA,95640,,TX/PV/OS/IO/AD/DD/PW/SS/CJ/
Amador County Alcohol and Drug Servs,,,1001 Broadway,Suite 106,Jackson,CA,95642,Hotline: (209)223-2600,TX/PV/OS/OR/IO/RD/RR/AD/PW/SS/
Morongo Basin Mental Health,Panorama Ranch,,65675 Sullivan Road,,Joshua Tree,CA,92252,(619)366-9100,TX/OS/OR/RR/SS/
Brandys Friends Family Counseling Ctr,,,362 Third Street,Suite 200,Laguna Beach,CA,92651,(949)494-8100,TX/PV/OS/OR/IO/AD/DD/SS/CM/SG/SC/MD/PI/
Carequest Program,,,25431 Cabot Road,Suite 111,Laguna Hills,CA,92653,(714)454-2314,TX/OS/IO/SS/SG/PI/
Gold Coast Counseling Center,,,28052 Camino Capistrano,Suite 214,Laguna Niguel,CA,92677,(949)347-8885,TX/PV/OS/OR/SS/
Practical Recovery Services,,,8950 Villa La Jolla Drive,Suite 1130,La Jolla,CA,92037-1705,(858)453-4777,TX/OS/OR/IO/SG/PI/
Scripps Memorial Hospitals,McDonald Center,,9904 Genesee A venue,,La Jolla,CA,92037,(858)626-4300,TX/OS/DT/OR/IO/ID/IR/RR/AD/GH/MC/PI/
Riverside Recovery Resources,Community Recovery Center,,323 North Main Street,,Lake Elsinore,CA,92530,(909)674-7354 Hotline: (800)801-4673,TX/PV/OS/OR/AD/CM/
Chapman Counseling,Adolescent Program,,23361 El Toro Road,Suite 207,Lake Forest,CA,92630,(949)472-0533,TX/PV/OS/OR/IO/AD/SS/PI/
Ale and Other Drug Services/Northlake,,,858 Lakeport Boulevard,,Lakeport,CA,95453,(707)263-8162,TX/PV/OS/OR/IO/AD/SS/MD/
Lake County Tribal Health Consortium,,,925 Berins Court,,Lakeport,CA,95453,(707)262-1009,TX/PV/OS/OR/AD/DD/PW/CH/FG/
Lakewood Regional Medical Center,New Beginnings,,3700 East South Street,,Lakewood,CA,90712,(800)451-1131 Hotline: (800)451-1131,TX/PV/OS/DT/OR/IO/ID/IR/DD/SS/GH/PH/MC/PI/
Charter Behavioral Health System of SD,Alvarado Parkway Institute,,7050 Parkway Drive,,La Mesa,CA,91942,(619)465-4411,TX/OS/DT/OR/IO/ID/IR/RD/DD/PH/MC/PI/
Federal Probation Program,,,7808 El Cajon Boulevard,Building I Suite H,La Mesa,CA,91941,(619)463-6394,TX/OS/OR/SS/CJ/FG/
Mental Health Systems,Pegasus East,,7841 El Cajon Boulevard,Suite C,La Mesa,CA,91941,(858)689-2633 Hotline: (619)697-2388,TX/PV/OS/OR/IO/DD/CM/MD/
Recovery Leaming Centers,,,4670 Nebo Drive,Suite 200,La Mesa,CA,91941,(619)461-6162 Hotline: (800)614-4357,TX/PV/OS/DT/OD/OR/IO/ID/IR/RD/RR/AD/DD/HV/SS/HH/CM/CO/SG/CJ/
Vista Hill Foundation,Parent Care Family Recovery Center,,5360 Jackson Drive,Suite 120,La Mesa,CA,91942,(619)698-1663,TX/OS/OR/IO/DD/PW/SS/SG/
Community Service Organization (CSO),De Colores,,8000 Segrue Street,,Lamont,CA,93241,(661)327-9376,TX/OS/OR/DD/PW/SS/
Alcohol Drug Abuse Center,,,43423 Division Street,Suite 108,Lancaster,CA,93535,(661)945-9421 Hotline: (661)945-9421,TX/PV/OS/DT/OD/OR/IO/SS/PI/
Antelope Valley Council on,Alcoholism and Drug Dependency,,44815 Fig Avenue,Suite 206,Lancaster,CA,93534,(661)274-1062 Hotline: (661)948-5046,TX/PV/OS/OR/AD/SS/
High Road Program,,,44823 Date A venue,,Lancaster,CA,93534,(661)942-2241,TX/PV/OS/OR/SS/OH/CJ/
Miracle Star,Womens Recovering Community,,44664 North Cedar Avenue,,Lancaster,CA,93534,(661)726-7177,TX/PV/OS/IO/RR/DD/SS/OH/HH/CJ/
Tarzana Treatment Center,,,44447 North 10th Street,,Lancaster,CA,93534,(661)726-2630,TX/PV/OS/OR/IO/AD/DD/HV/PW/SS/HH/CM/CH/FG/PI/
Western Pacific Med/Corp,Antelope Valley Medical Clinic,,45335 Sierra Highway,,Lancaster,CA,93534,(661)949-8599,TX/ML/OS/DT/OD/OR/IO/AD/DD/HV/PW/SS/CJ/
Addiction Research/Tri,Cal Detox/La Puente,,15229 East Amar Road,,La Puente,CA,91744,(626)855-5090,TX/ML/PV/OS/DT/OD/OR/SS/MD/
Bay Arca Community Resources,,,375 Doherty Drive,,Larkspur,CA,94939,(415)924-8500 Hotline: (415)924-8500,TX/OS/OR/AD/PW/SS/
Marin Services for Women,Outpatient Unit,,444 Magnolia A venue,Suite IOI,Larkspur,CA,94939,(415)924-5995,TX/OS/OR/IO/SS/OH/MC/FG/PI/
Marin Services for Women,,,127 King Street,,Larkspur,CA,94939,(415)924-5995,TX/OS/RR/PW/SS/FG/
Lawndale Medical and,Mental Health Services,,4429 West 147th Street,,Lawndale,CA,90260,(310)675-9555,TX/PV/OS/DT/OD/OR/SS/CM/MD/
McAlister Institute for Treatment and,Education (MITE) Options Residential,,2049 Skyline Drive,,Lemon Grove,CA,91945,(619)442-0277,TX/OS/DT/RD/RR/PW/SS/
Naval Hospital/Lemoore,Counseling and Assistance Center,Barracks 1,,,Lemoore,CA,93246-5040,(559)998-4789,TX/PV/OS/OR/IO/SS/FG/
Valley Community Counseling Services,,,301 West Locust Street,,Lodi,CA,95240,,TX/PV/OS/OR/AD/DD/SS/CM/CH/CO/CJ/
Jerry L Pettis Memorial VA Med Center,Alcohol and Drug Treatment Program,,11201 Benton Street,Room 116Al,Loma Linda,CA,92357,,TX/PV/OS/DT/OD/OR/IO/DD/HV/SS/GH/FG/
Aegis Medical Systems,Medical Group,,200 East College Street,,Lompoc,CA,93436,(805)737-1855,TX/ML/DT/OD/OR/SS/MD/
Family Life Counseling Service Inc,,,410 East Ocean Avenue,,Lompoc,CA,93436,(805)346-8118,TX/PV/OS/OR/AD/DD/HV/PW/SS/MD/PI/
Vandenberg AFB Mental Health,30th Medical Group,,338 South Dakota A venue,Building 13-850,Lompoc,CA,93437,,TX/PV/OS/OR/DD/PW/SS/OH/CM/CO/SC/CJ/FG/
Behavioral Health Services,Redgate Memorial Hospital,,1775 Chestnut Avenue,,Long Beach,CA,90813,(562)599-8444,TX/DT/RD/RR/DD/HV/OH/
Cambodian Association of America,,,2501 Atlantic Avenue,,Long Beach,CA,90806,(562)426-6002,TX/PV/OS/OR/AD/SS/CH/CO/
Church at Long Beach,House of Levi Christian Mens Home,,725 Rose A venue,,Long Beach,CA,90813-5125,(562)599-3119,TX/OS/RR/SS/TC/CJ/
Family Services of Long Beach,,,1043 Pine Avenue,,Long Beach,CA,90813,(562)436-9893,TX/OS/OR/SS/
Flossie Lewis Recovery Center,Alcoholism Recovery Center,,351 East 6th Street,,Long Beach,CA,90802,(562)435-7350 Hotline: (562)435-7350,TX/PV/OS/DT/RD/RR/DD/HV/SS/
Flossie Lewis Recovery Center,New Life Center,,615 Elm Street,,Long Beach,CA,90802,(562)435-7350 Hotline: (562)435-7350,TX/PV/OS/DT/RD/RR/PW/SS/
Flossie Lewis Recovery Center,Transitional Sober Living Center,,351 East 6th Street,,Long Beach,CA,90802,(562)435-7350 Hotline: (562)435-7350,TX/PV/OS/RR/DD/HV/SS/
Harbor Area High Gain,,,330 East 3rd Street,,Long Beach,CA,90802,,TX/PV/OS/OR/SS/
Industry Comm Interface Enterprises,ICI Enterprises,,555 East Artesia Street,Suite B,Long Beach,CA,90805-1400,(562)984-5015,TX/OS/OR/DD/SS/
Long Beach Ale and Drug Rehab Program,Central Clinic,,I I 33 East Rhea Street,,Long Beach,CA,90806,(562)570-4440,TX/PV/OS/IO/AD/DD/HV/PW/SS/
Long Beach Ale and Drug Rehab Program,Grand A venue Clinic,,2525 Grand A venue,Suite 2IO,Long Beach,CA,90815,,TX/PV/OS/OR/AD/DD/HV/PW/SS/
Long Beach Ale and Drug Rehab Program,North Clinic,,6335 Myrtle A venue,,Long Beach,CA,90805,(562)570-4540,TX/PV/OS/OR/AD/DD/HV/PW/SS/
National Council on Ale and Drug Dcp,Woman to Woman Residential,,836 Atlantic A venue,,Long Beach,CA,90807,(562)426-8262 Hotline: (562)426-8262,TX/PV/OS/OR/IO/RR/AD/PW/SS/MD/
National Council on Alcoholism and,Other Drug Dependcncies/W oman to,Woman,3750 Long Beach Boulevard,,Long Beach,CA,90807,(562)426-8262 Hotline: (562)426-8262,TX/PV/OS/OR/IO/AD/DD/PW/SS/
New Found Life,,,221 I and 2137 East Ocean Boulevard,,Long Beach,CA,90803,(562)434-4060,TX/OS/RR/SS/TC/
Palm House,Alcoholism Recovery Home,,25 I 5 East Jefferson Street,,Long Beach,CA,90810,,TX/PV/OS/RR/SS/
Salsido Recovery Center,Freedom House,,250 East Louise Street,,Long Beach,CA,90805,,TX/OS/RR/DD/SS/OH/TC/
Southern CA Alcohol and Drug Programs,Baby Step Inn,I 755 Freeman A venue,,,Long Beach,CA,90804,(562)986-5525,TX/OS/RR/PW/SS/MD/
Substance Abuse Foundation of,Long Beach,,3 I 25 East 7th Street,,Long Beach,CA,90804,(562)439-7755 Hotline: (888)476-2743,TX/PV/OS/DT/OR/IO/RD/RR/DD/HV/PW/SS/TC/FG/
Tarzana Treatment Center,Long Beach,,2 IO I Magnolia A venue,,Long Beach,CA,90806,(562)218-1868,TX/PV/OS/OR/IO/RR/AD/DD/HV/PW/SS/OH/HH/CM/MD/
Veterans Affairs Medical Center,Substance Abuse Treatment Program,,590 I East 7th Street,Ward K-2 116-A,Long Beach,CA,90822,(562)494-5880,TX/PV/OS/OR/IO/RR/DD/HV/SS/GH/PH/FG/
West County Medical Clinic,Substance Abuse Program,,I 00 East Market Street,,Long Beach,CA,90805,(562)428-4222,TX/ML/PV/OS/DT/OD/DD/SS/SG/
Western Health Long Beach Clinic,,,2933 East Anaheim Street,,Long Beach,CA,90804,(562)438-3087,TX/ML/PV/OS/DT/OD/OR/IO/RR/DD/PW/SS/SG/MD/PI/
Twin Town Treatment Center,,,I0741 Los Alamitos Boulevard,,Los Alamitos,CA,90720,(562)594-8844,TX/PV/OS/IO/AD/SS/PI/
A Los Angeles Driver Education Center,Eagle Rock,,2607 Colorado Boulevard,Suite 104,Los Angeles,CA,90041,(323)257-8701,TX/OS/OR/SS/SG/SC/
Addiction Alternatives,,,1125 South Beverly Drive,Suite 401,Los Angeles,CA,90035,,TX/PV/OS/OR/SG/
Addiction Research/Treatment,CAL Detox/Hollywood Clinic,,6411 Hollywood Boulevard,2nd Floor,Los Angeles,CA,90028,(323)957-0604,TX/ML/PV/OS/DT/OD/OR/SS/MD/
Addiction Research/Treatment,CAL Detox/West Olympic,,1926 West Beverly Boulevard,,Los Angeles,CA,90057,(213)747-2267,TX/ML/OS/DT/OD/OR/HV/PW/SS/MD/
Alcoholism Center for Women,Unit 1 and 2,,1147 South Alvarado Street,,Los Angeles,CA,90006,(213)381-8500,TX/PV/OS/IO/RR/SS/TC/
Alcoholism Center for Women,,,1147 South Alvarado Street,,Los Angeles,CA,90006,(213)381-8500,TX/PV/OS/OR/RR/SS/TC/
Alta Med Health Services,Buena Care,,1701 Zonal Avenue,,Los Angeles,CA,90033,,TX/ML/OS/DT/OD/OR/HV/SS/MD/
Alternative Action Programs,,,25 I 1 South Barrington A venue,,Los Angeles,CA,90064,Hotlines: (800)472-5999 (800)731-1550,TX/PV/OS/OR/AD/SS/
Alternatives Unit,,,2530 Hyperion Avenue,,Los Angeles,CA,90027,(800)342-5429 Hotline: (800)342-5429,TX/PV/OS/RR/DD/HV/OH/HH/
American Health Services,Hollywood Medical and MH Services,,8348 Beverly Boulevard,,Los Angeles,CA,90048,(323)653-1677,TX/PV/OS/DT/OD/OR/DD/SS/CM/MD/
Asian American Drug Abuse Program,Special Deliveries/Perinatal Services,,3850 Martin Luther King Boulevard,Suite 202,Los Angeles,CA,90008,(323)295-0262,TX/OS/OR/IO/DD/PW/SS/
Asian American Drug Abuse Program,Therapeutic Community Residential,,5318 South Crenshaw Boulevard,,Los Angeles,CA,90043,(323)293-6284 Hotline: (323)293-6284,TX/OS/RR/HV/PW/SS/OH/TC/
A val on/Carver Community Center,Drug Abuse Program,,4920 South A val on Boulevard,,Los Angeles,CA,90011,(323)232-4391,TX/PV/OS/OR/IO/AD/DD/HV/PW/SS/CO/MC/MD/PI/
Bay Area Addiction Research/Treatment,(BAART) Cal Detox/Southeast Clinic,,4920 South A val on Boulevard,,Los Angeles,CA,90011,(323)235-5035,TX/ML/OS/DT/OD/OR/IO/HV/PW/SS/MD/
Behavioral Health Services,Boyle Heights,,3421 East Olympic Boulevard,,Los Angeles,CA,90032,(323)262-1786 Hotline: (800)564-6600,TX/OS/OR/IO/AD/SS/
Behavioral Health Services,Hollywood Family Recovery Center,,6838 Sunset Boulevard,,Los Angeles,CA,90028,(323)461-3161,TX/OS/IO/AD/DD/HV/PW/SS/
Behavioral Health Services,Unit 2,,4099 North Mission Road,Building A,Los Angeles,CA,90032,(323)221-1746,TX/OS/OR/AD/DD/SS/
Beverlywood Mental Health Center,,,8926 Sawyer Street,,Los Angeles,CA,90035,(310)837-0146,TX/PV/OS/OR/DD/CM/MD/
CA Hispanic Commission Ale/Drug Abuse,Aguila Recovery Home,,6157 North Figueroa Street,,Los Angeles,CA,90042,(323)258-2921,TX/OS/RR/AD/SS/
CA Hispanic Commission Ale/Drug Abuse,Latinas Recovery Home,,327 Saint Louis Street,,Los Angeles,CA,90033,(323)261-7810,TX/OS/RR/SS/CO/
CA Hispanic Commission Ale/Drug Abuse,Latino Alcohol/Drug Abuse Service Ctr,,5801 East Beverly Boulevard,,Los Angeles,CA,90022,(323)722-4529,TX/PV/OS/OR/IO/AD/SS/
CA Hispanic Commission Ale/Drug Abuse,Latinos Recovery Home/Wabash,,2436 Wabash Avenue,,Los Angeles,CA,90033,(323)780-8756,TX/OS/RR/SS/
CA Hispanic Commission Ale/Drug Abuse,Mujeres Recovery Home,,530 North A venue,Suite 54,Los Angeles,CA,90042,(323)254-2423,TX/OS/RR/SS/
CA Hispanic Commission Ale/Drug Abuse,Paloma Recovery Home,,328 North A venue,Suite 59,Los Angeles,CA,90042,(323)257-9227,TX/OS/RR/AD/SS/
Canon Human Services Center,Brown Scapular Program,,9705 South Holmes Avenue,,Los Angeles,CA,90002,(323)249-9097,TX/OS/OR/RR/HV/SS/TC/
Casa De Hermandad,West Area Opportunity Center,,11821 West Pico Boulevard,,Los Angeles,CA,90064,(310)477-8272 Hotline: (800)564-6600,TX/PV/OS/OR/IO/SS/CO/
Chabad Residential Treatment Center,for Men,,5675 West Olympic Boulevard,,Los Angeles,CA,90029,(310)204-3196,TX/OS/RR/SS/TC/
Childrens Hospital of Los Angeles,Div of Adolescent Med/SA Trt Program,,5000 Sunset Boulevard,4th Floor,Los Angeles,CA,90027,(323)669-2463,TX/PV/OS/OR/AD/DD/HV/PW/SS/OH/CM/CO/SC/
Childrens Institute International,,,711 South New Hampshire A venue,,Los Angeles,CA,90005,(213)385-5100,TX/OS/OR/PW/CO/
Community Health Foundation,Perinatal CPRP,,1904 Bailey Street,,Los Angeles,CA,90033,(323)780-6336,TX/OR/PW/
Covenant House California,,,1325 North Western Avenue,,Los Angeles,CA,90027,(323)461-3131 Hotlines: (800)999-9999 (323)461-3131,TX/PV/OS/DT/OD/OR/IO/RD/RR/AD/HV/SS/CO/
Cri Help,Socorro RDF,,5110 South Huntington Drive,,Los Angeles,CA,90032,(323)222-1440 Hotline: (323)222-1440,TX/OS/RR/SS/TC/
Cri Help/Socorro,Socorro Drug Free Outpatient Program,,4966 South Huntington Drive,,Los Angeles,CA,90032,(323)343-9525,TX/OS/OR/IO/SS/CJ/
Dare U to Care Outreach Ministry,,,316 West 120th Street,,Los Angeles,CA,90061,(323)756-3208,TX/PV/OS/RR/AD/DD/HV/SS/TC/PI/
Didi Hirsch CMHC,Dignity Center,,672 South Lafayette Park Place,Suite 6,Los Angeles,CA,90057,(213)385-3752,TX/OS/OR/SS/CM/
Do It Now Foundation of,Southern California,,6565 Sunset Boulevard,Suite 417,Los Angeles,CA,90028-7218,(323)465-3784,TX/OS/OR/SS/
East LA Rehabilitation Center,,,4629 Cesar Chavez Avenue,,Los Angeles,CA,90022,(323)261-7070.. Hotline: (323)261-7070,TX/PV/OS/DT/OR/IO/RD/RR/DD/SS/TC/SG/CJ/
East Los Angeles Health Task Force,Comprehensive Substance Abuse Program,,630 South Saint Louis Street,,Los Angeles,CA,90023,(323)261-2171,TX/PV/OS/DT/OR/RD/RR/SS/CO/CJ/
East Los Angeles Womens Health Center,MELA Counseling Service Center,,5240 East Beverly Boulevard,2nd Floor,Los Angeles,CA,90022,(323)728-0100,TX/OS/OR/IO/AD/PW/SS/SC/MD/
El Centro De Ayuda,El Centro Subst Abuse Treatment Center,,1972 East Cesar Chavez Avenue,,Los Angeles,CA,90033,(323)265-9228,TX/PV/OS/OR/IO/AD/DD/HV/SS/PI/
El Centro Del Pueblo/Alvarado,,,2501 West 7th Street,,Los Angeles,CA,90057,(213)483-6335,TX/PV/OS/IO/SS/
Felicity House,,,3701 Cardiff Avenue,,Los Angeles,CA,90034,(310)837-3042,TX/PV/OS/RR/SS/HH/
Higher Goals,,,10510 South Vermont Avenue,,Los Angeles,CA,90044,(323)755-9702,TX/PV/OS/RR/DD/HV/CO/
His Sheltering Arms,Family Services Center,,112 West I I Ith Street,,Los Angeles,CA,90061,(323)755-6646,TX/PV/OS/IO/RR/HV/PW/SS/
His Sheltering Arms,Recovery Home,,11101 South Main Street,,Los Angeles,CA,90061,(323)755-6646 Hotline: (800)754-7030,TX/PV/OS/DT/IO/RD/RR/HV/PW/SS/
Homeless Health Care of Los Angeles,,,1010 South Flower Street,Suite 500,Los Angeles,CA,90015,(213)744-0724,TX/OS/OR/SS/
Industry Comm Interface Enterprises,ICI Enterprises,,2126 South La Brea Avenue,Suite 203,Los Angeles,CA,90016-2271,(323)935-7014,TX/OS/OR/DD/SS/
Jeff Grand Medical Group,Outpt Methadone Maintenance and Detox,,3130 South Hi II Street,,Los Angeles,CA,90007,(213)747-7267 Hotline: (213)747-7267,TX/ML/PV/OS/DT/OD/IO/SS/MD/
Jewish Family Service of Los Angeles,,,6380 Wilshire Boulevard,Suite 1200,Los Angeles,CA,90048,(323)247-1180,TX/PV/OS/OR/SS/CO/CJ/
Kaiser Permanente/Culver Marina,Chemical Dependency Recovery Program,,12001 West Washington Boulevard,,Los Angeles,CA,90066,(310)915-4515 Hotline: (800)900-3277,TX/PV/OS/DT/OD/OR/IO/AD/DD/SS/
Korean Community Services,,,4416 West Beverly Boulevard,,Los Angeles,CA,90004,(323)668-9007 Hotline: (800)427-4929,TX/PV/OS/OR/CO/
LA Gay and Lesbian Center,Mental Health Services,,1625 North Schrader Boulevard,,Los Angeles,CA,90028,(323)993-7640,TX/PV/OS/OR/HV/SS/CM/CO/
Living in Recovery,,,951 North Mariposa Avenue,,Los Angeles,CA,90029,(323)660-8396,TX/OS/RR/DD/HV/SS/TC/
Los Angeles Ctrs for Ale/Drug Abuse,LACADA/Homeless Outreach Project,,333 South Central A venue,,Los Angeles,CA,90013,(323)906-2676,TX/OS/OR/DD/HV/SS/PI/
Los Angeles Treatment Services,,,11427 South Avalon Boulevard,,Los Angeles,CA,90061,(323)757-0251,TX/ML/PV/OS/DT/OD/IO/DD/HV/SS/OH/FG/
MJB Transitional Recovery,,,11152 South Main Street,,Los Angeles,CA,90061,(323)777-2491,TX/PV/OS/OR/AD/DD/HV/SS/CO/
Mary Lind Foundation,Bimini Recovery Home,,155 South Bimini Place,,Los Angeles,CA,90004,(213)388-5423,"TX/OS/RR/,D/DSS/FG/"
Mary Lind Foundation,Rena B Recovery Home,,4445 Bums A venue,,Los Angeles,CA,90029,(323)664-8940,TX/OS/RR/SS/FG/
Mary Lind Foundation Royal Palms,Recovery Home,,360 South Westlake A venue,,Los Angeles,CA,90057,,TX/PV/OS/RR/SS/FG/
Matrix Center,Matrix Center/West Los Angeles,,12304 Santa Monica Boulevard,Suite 200,Los Angeles,CA,90025,(310)207-4322 Hotline: (800)310-7700,TX/OS/IO/DD/SS/PI/
Matrix Institute on Addictions,,,5220 West Washington Boulevard,Suite IOI,Los Angeles,CA,90016,(323)933-9186 Hotlines: (800)999-3784,TX/OS/DT/OD/OR/SS/MC/
Mid Valley Recovery Services,Mariposa Recovery Home,,453 South Indiana Street,,Los Angeles,CA,90063,(323)266-3564 Hotline: (323)266-3564,TX/OS/RR/PW/SS/TC/
Mini Twelve Step House,,,303 East 52nd Street,,Los Angeles,CA,90011,(323)232-6228 Hotline: (800)339-6993,TX/OS/RR/SS/TC/CO/
Narcotics Prevention Project,Methadone Maintenance Treatment Prag,,942 South Atlantic Boulevard,,Los Angeles,CA,90022,(323)263-9700,TX/ML/OS/DT/OD/IO/DD/SS/MD/
National Council on Ale and Drug Dep,Main Directions,,958 East I 08th Street,,Los Angeles,CA,90059,(323)357-7390,TX/PV/OS/OR/AD/SS/CO/
Natural High,,,3801 South Western Avenue,,Los Angeles,CA,90062-1102,(323)737-9241,TX/PV/OS/OR/SS/
Ness Counseling Center,,,85 I 2 Whitworth Drive,Suite 102,Los Angeles,CA,90035,(310)360-8512,TX/PV/OS/OR/DD/PW/SS/
People in Progress,Nonresidential Recovery Services,,2500 Wilshire Boulevard,Suite 1155,Los Angeles,CA,90057,(213)384-6689,TX/PV/OS/OR/SS/
Pizarro Treatment Center,Outpatient Methadone Maintenance,,I 525 Pizarro Street,,Los Angeles,CA,90026-5020,(213)484-9919,TX/ML/OS/DT/OD/OR/SS/
Plaza Community Center,The Esperanza Project,,648 South Indiana Street,,Los Angeles,CA,90023,(323)268-1107,TX/PV/OS/OR/IO/PW/SS/
Principles,,,510 New High Street,,Los Angeles,CA,90012,(213)626-6422 Hotline: (626)798-0884,TX/OS/OD/IO/IR/RR/HV/PW/SS/GH/HH/CJ/FG/PI/
Salvation Army,Harbor Light Center,,809 East 5th Street,,Los Angeles,CA,90013,,TX/OS/DT/RD/RR/DD/SS/TC/CO/CJ/FG/
Salvation Army,Harmony Hall,,3107 South Grand A venue,,Los Angeles,CA,90007,(213)626-4786,TX/OS/RR/SS/TC/CO/d
Salvation Army,Safe Harbor,,721 East 5th Street,,Los Angeles,CA,90013,(213)622-5253,TX/PV/OS/DT/RD/RR/DD/HV/SS/TC/
Shields for Families,Eden,,I 721 East 120 Street,Trailer 6,Los Angeles,CA,90059,(310)668-8311,TX/PV/OS/IO/DD/HV/PW/SS/FG/
Shields for Families,Genesis Family Day Treatment Program,,12021 South Wilmington Street,Lot C,Los Angeles,CA,90059,(310)668-8260,TX/PV/OS/IO/HV/PW/SS/
Soledad Enrichment Action Program,,,161 South Fetterly A venue,,Los Angeles,CA,90022,(323)261-9258,TX/OS/OR/AD/SS/SC/
Special Services for Groups,Pacific Asian Alcohol and Drug Program,,532 South Vermont Avenue,Suite 102,Los Angeles,CA,90020,(213)738-3361,TX/PV/OS/OR/IO/AD/PW/SS/MD/
Sunrise Community Counseling Center,,,537 South Alvarado Street,,Los Angeles,CA,90057,(213)207-2770 Hotline: (213)207-2770,TX/OR/IO/AD/DD/HV/PW/SS/OH/
Union Rescue Mission,Christian Life Discipleship Program,,226 South Main Street,,Los Angeles,CA,90012,(213)347-6300,TX/OS/RR/DD/SS/TC/
United American Indian Involvement,,,1125 West 6th Street,Suite 400,Los Angeles,CA,90017,(213)625-2565 Hotline: (213)625-2565,TX/PV/OS/OD/OR/IO/SS/CM/CH/FG/
United Women in Transition,,,5001 Budlong Avenue,,Los Angeles,CA,90037,(323)291-5818,TX/PV/OS/RR/SS/CH/SG/CJ/
Van Ness Recovery House,,,1919 North Beachwood Drive,,Los Angeles,CA,90068,(323)463-4266,TX/PV/OS/RR/HV/SS/OH/TC/
Veterans Affairs Outpatient Clinic,Drug Dependence Treatment Program,,35 l East Temple Street,l lC,Los Angeles,CA,90012-3328,,TX/ML/PV/OS/OR/IO/DD/HV/SS/FG/
Volunteers of America,Screening and Evaluation Services,,541 South Crocker Street,,Los Angeles,CA,90013,(323)660-8042,TX/PV/OS/DT/OR/RD/DD/HV/PW/SS/
Volunteers of America of Los Angeles,Alcohol Services,,515 East 6th Street,,Los Angeles,CA,90021,,TX/OS/DT/RD/RR/DD/HV/SS/CO/
Volunteers of America of Los Angeles,Central City Recovery Program,,515 East 6th Street,9th Floor,Los Angeles,CA,90021,(213)627-8002 Hotline: (213)236-0874,TX/PV/OS/DT/RD/RR/DD/SS/
Washington Medical Center and,Recovery Center,,12101 West Washington Boulevard,,Los Angeles,CA,90066,(310)391-0577 Hotlines: (310)391-0577 (800)824-6423,TX/PV/OS/DT/ID/IR/DD/HV/GH/MC/PI/
Watts Health Foundation,House of Uhuru,,8005 South Figueroa Street,,Los Angeles,CA,90003-2749,Hotline: (800)564-6600,TX/OS/IO/RR/DD/HV/SS/
Weingart Center Association,Stairs II Program,,566 South San Pedro Street,,Los Angeles,CA,90013,(213)627-9000,TX/PV/OS/RR/DD/HV/SS/
West Los Angeles Treatment Program,Clinic I and Clinic II,,2321 Pontius Avenue,,Los Angeles,CA,90064,(310)477-2951,TX/ML/OS/DT/OD/OR/HV/PW/SS/MD/
Wilshire Treatment Center,,,11704 Wilshire Boulevard,Suite D-228,Los Angeles,CA,90025,(310)268-2446,TX/ML/PV/OS/DT/OD/OR/DD/SS/SG/
South Bay Teen Challenge,,,16735 Lark A venue,,Los Gatos,CA,95032,(408)358-3435,TX/PV/OS/OR/PW/SS/
West Valley Treatment and Recovery Ctr,,,375 Knowles Drive,,Los Gatos,CA,95030,(408)378-7620 Hotline: (800)488-9919,TX/OS/OR/IO/DD/SS/MD/
Sierra County Human Services,Alcohol and Drug Department,,704 Mill Street,,Loyalton,CA,96118,(530)993-6746,TX/PV/OS/OR/PW/SS/OH/CM/
True Vines Training Center for Men,,,10180 Banta Road,,Lucerne Valley,CA,92356,(760)248-6072 Hotline: (909)875-2227,TX/PV/OS/RR/SS/
Los Angeles Health Services,,,11315 South Atlantic Avenue,,Lynwood,CA,90262,(310)537-5883,TX/ML/OS/DT/OD/OR/IO/DD/HV/PW/
ss,Lynwood Women and Children Center,Watts Women and Children,3598 Martin Luther King Jr Boulevard,,Lynwood,CA,90262,,TX/OS/RR/DD/HV/PW/SS/TC/FG/
One Nation Under God Christian Church,Living High in the Lord Ministries,,12526 Waldorf Drive,,Lynwood,CA,90262,(310)639-8581 Hotline: (800)463-6762,TX/PV/OS/RR/SS/
Principles,California Regional Detention Facility,,11705 Alameda Street,,Lynwood,CA,90262,(323)567-8350,TX/OS/IR/RR/SS/TC/CJ/
Shields for Families,Ark Comprehensive Child Development Pg,,11705 Deputy Yamamoto Place,Suite A,Lynwood,CA,90262,(323)357-6930,TX/OS/IO/HV/PW/SS/
Madera Counseling Center,Substance Abuse Services,,14277 Road 28,,Madera,CA,93638,(559)673-3508 Hotline: (559)673-3508,TX/PV/OS/OR/IO/AD/DD/HV/SS/MC/MD/FG/PI/
Madera Counseling Center,Yosemite Womens Center,,126 North B Street,,Madera,CA,93638,(559)661-0296 Hotline: (559)673-3508,TX/PV/OS/OR/IO/HV/PW/SS/MD/
Westside Sober Living Centers,Promises Residential Treatment Center,,20725 Rockcroft Drive,,Malibu,CA,90265,(323)525-1967,TX/PV/OS/DT/OR/IO/RD/RR/SS/
Mono County Alcohol and Drug Program,Eastern Sierra Passages Lodge,,71 Davison Street,,Mammoth Lakes,CA,93546,(760)934-8221,TX/OS/DT/RD/RR/DD/HV/PW/SS/
Mono County Alcohol and Drug Program,Sierra Centre Mall,3rd Floor,,,Mammoth Lakes,CA,93546,(760)934-8221,TX/PV/OS/OR/IO/AD/DD/PW/SS/CM/
San Pedro Penisula Hospital,Chemical Dependency Treatment Center,,1022 Sepulveda Boulevard,,Manhattan Beach,CA,90266,,TX/OS/DT/OD/OR/IO/AD/SS/GH/
San Joaquin Council for the,American Indian/Three Rivers Lodge,,13505 Union Road,,Manteca,CA,95336,(209)858-2421,TX/PV/OS/IO/RR/AD/SS/TC/CH/FG/
Valley Community Counseling Services,,,110 Sherman A venue,,Manteca,CA,95336,(209)956-4240,TX/PV/OS/OR/AD/DD/PW/SS/SG/SC/CJ/
Daniel Freeman Marina Hospital,Exodus Recovery Center,,4650 Lincoln Boulevard,,Marina Del Rey,CA,90292,(310)827-4427,TX/OS/DT/ID/IR/DD/HV/GH/MC/PI/
Kings View Community Services,Mariposa Counseling Center,,5085 Bullion Street,,Mariposa,CA,95338,(209)966-2000 Hotline: (209)966-2000,TX/PV/OS/OR/RR/AD/DD/PW/SS/OH/CM/CH/SC/CJ/
Alpine County Mental Health Department,Alcohol and Drug Program,,260 Laramie Street,,Marklccville,CA,96120,(916)694-2146,TX/PV/OS/OR/IO/RR/DD/SS/CM/SC/FG/
Born Free/Central,,,111 Allen Street,,Martinez,CA,94553,(925)646-1165 Hotline: (800)846-1652,TX/PV/OS/OR/PW/SS/MD/
Discovery House,,,4639 Pacheco Boulevard,,Martinez,CA,94553,Hotline: (800)846-1652,TX/OS/RR/SS/
UJIMA Family Recovery Services,La Casa Ujima,,904 Melius Street,,Martinez,CA,94553,(510)229-0230,TX/OS/RR/PW/SS/
Aegis Medical Systems,,,320 H Street,Suite 2,Marysville,CA,95901,(530)742-7747,TX/ML/PV/OS/DT/OD/OR/SS/FG/
Center for Behavioral Health of,Marysville,,1496 North Beale Road,,Marysville,CA,95901,(530)749-8640,TX/ML/OS/DT/OD/IO/HV/SS/
McChord Air Force Base,Substance Abuse Program,,160 G Street,,McChord AFB,CA,98438-1130,,TX/PV/OS/OR/IO/SS/CM/FG/
McClellan AFB Substance Abuse Program,Social Actions Office,,77 Medical Group/SGOHA,5727 Perrin Street Suite I Bldg 1042,McClellan AFB,CA,95652-1231,(916)643-3000,TX/PV/OS/OR/IO/SS/FG/
VA Palo Alto Health Care System,Addiction Trt Service Psychiatry Servs,,795 Willow Road,,Menlo Park,CA,94025,,TX/PV/OS/DT/OD/OR/IO/ID/IR/DD/SS/GH/TC/HH/CM/FG/PI/
Central Valley Addiction Center,,,17 East Main Street,,Merced,CA,95340-5044,(209)722-8791,TX/PV/OS/OR/IO/AD/HV/PW/SS/
Community and Social Model Advocates,Hobie House,,1301 Yosemite Parkway,,Merced,CA,95340,(209)722-6335,TX/OS/RR/SS/
Lifestyle Management,Drinking Driver Program,,1521 West Main Street,,Merced,CA,95340,(209)383-7797,TX/PV/OS/OR/SS/
Merced County Ale and Drug Abuse Servs,The Perinatal Center,,658 West Main Street,,Merced,CA,95340,(209)381-6880,TX/OS/OR/PW/SS/MD/
Merced County Ale and Drug Services,Recovery Assistance for Teens RAFT,,1836 K Street,,Merced,CA,95340,(209)381-6860,TX/PV/OS/OR/AD/SS/MD/
Charter Behavioral Health System of,Southern California/_Mission Viejo,,23228 Madero Street,,Mission Viejo,CA,92691,(949)830-4800 Hotline: (800)242-7837,OS/DT/OD/OR/IO/ID/IR/AD/DD/SS/PH/CM/MD/PI/
Aegis Medical Systems Inc,,,80 I 17th Street,Suite E,Modesto,CA,95350,(209)527-4597,TX/ML/OS/DT/OD/IO/DD/HV/PW/SS/
Family Service Agency (First Step),,,707 14th Street,,Modesto,CA,95354,(209)544-3408,TX/OS/OR/IO/PW/SS/
New Hope Recovery House,,,1406 Fordham Avenue,,Modesto,CA,95350,(209)527-9797 Hotline: (209)527-9797,TX/OS/DT/OR/IO/RD/RR/SS/PI/
Public Safety Center,Women of Wisdom,,200 East Hackett Road,,Modesto,CA,95358,(209)525-5616,TX/PV/OS/IO/DD/CJ/
Recovery Crossroads,,,1024 J Street,Suite 427,Modesto,CA,95354-0844,(209)576-8117,TX/PV/OS/OR/IO/AD/SS/SO/CJ/
Recovery Systems Associates,,,330 McHenry A venue,Suite C,Modesto,CA,95354,(209)527-2046 Hotline: (209)527-2046,TX/PV/OS/OR/IO/AD/SS/PI/
Stanislaus Behavioral Health Center,,,1501 Claus Road,,Modesto,CA,95355,(209)558-4700,TX/PV/OS/DT/ID/IR/AD/DD/PH/
Stanislaus Cnty Dept of Mental Health,Juvenile Drug Court,,2215 Blue Gum Street,Main Building,Modesto,CA,95350,(209)558-8060,TX/PV/OS/OR/AD/SS/CJ/
Stanislaus County Department of MH,Men in Recovery,,8224 West Grayson Road,,Modesto,CA,95358,(209)541-2908,TX/PV/OS/DT/RD/RR/DD/CJ/
Stanislaus County Dept of Mental Hlth,Genesis Narcotic Replacement Therapy,,800 Scenic Drive SW,Building D South,Modesto,CA,95350,(209)525-6146,TX/ML/OS/DT/OD/OR/PW/SS/MD/
Stanislaus County Reality,Alcohol and Drug Treatment Program,,800 Scenic Drive,Building D North,Modesto,CA,95350,(209)525-6243,TX/RR/DD/HV/PW/SS/
Stanislaus County Subst Abuse Services,,,150 I F Street,,Modesto,CA,95354,(209)558-7466,TX/PV/OS/OR/IO/DD/HV/SS/
Santa Anita Family Services,Pathways,,605 South Myrtle A venue,,Monrovia,CA,91016,(818)359-9358,TX/OS/OR/DD/SS/
Spencer Recovery Hospital,Monrovia,,345 West Foothill Boulevard,,Monrovia,CA,91016,(626)358-3662 Hotline: (800)252-6465,TX/PV/OS/DT/OR/IO/RD/RR/SS/TC/PI/
Next Step Perinatal Services,,,211 South 13th Street,,Montague,CA,96064,(530)459-5907 Hotline: (800)842-8979,TX/OS/OR/IO/PW/SS/PI/
Western Clinical Health Servs WCHS,Inland Health Services IHS/Montclair,,4761 Arrow Highway,,Montclair,CA,91763,(909)625-3818,TX/ML/OS/DT/OD/OR/SS/MD/
Community Hospital Recovery Center,,,576 Hartnell Street,,Monterey,CA,93940,(800)528-8080 Hotlines: (831)625-4600 (800)528-8080,TX/PV/OS/DT/OD/OR/IO/AD/DD/HV/SS/OH/CM/MC/MD/FG/PI/
Alhambra Safety Services,,,926 East Garvey A venue,Suite A,Monterey Park,CA,91755,(818)571-6988,TX/OS/OR/IO/SO/
Wilderness Recovery Center,,,19650 Cove Road,,Montgomery Creek,CA,96065,(530)246-0117,TX/OS/RR/AD/SS/SO/SC/
Turning Point Counseling,,,3939 Hitch Boulevard,,Moorpark,CA,93021-8706,(805)529-4467,TX/PV/OS/OR/SO/
Community Health Awareness Council,,,711 Church Street,,Mountain View,CA,94041,(415)965-2020,TX/PV/OS/OR/IO/AD/CM/
El Camino Hospital,Chemical Dependency Recovery Center,,2500 Grant Road,ECHl33,Mountain View,CA,94039,(415)940-7250 Hotline: (650)940-7250,TX/PV/OS/DT/OD/OR/IO/DD/OH/MC/PI/
Siskiyou County Mental Health,Alcohol and Drug Abuse Services,,909 Ream A venue,,Mount Shasta,CA,96067,(530)926-2668 Hotline: (530)842-8979,TX/PV/OS/OR/DD/PW/SS/PI/
Anderson and Associates,Counseling Services,,26811 Hobie Circle,Suite 02,Munieta,CA,92562,(909)677-0777,TX/PV/OS/DT/IO/RD/RR/DD/SS/SO/CJ/
Dr Raese and Associates,,,25095 Jefferson Avenue,Suite 202,Munieta,CA,92562,(909)696-3522,TX/PV/OS/OD/OR/IO/AD/DD/PW/SS/SO/
Alternatives For Better Living,,,1100 Lincoln Avenue,Suite 204,Napa,CA,94558,(707)226-1248,TX/PV/OS/OR/AD/SS/
Napa County Drinking Driver Program,,,900 Coombs Street,Suite M-16,Napa,CA,94559,(707)253-4264,TX/PV/OS/OR/IO/DD/HV/PW/SS/
Napa County Health and Human Services,Alcohol and Drug Program,,2344 Old Sonoma Road,,Napa,CA,94559,(707)253-4412,TX/PV/OS/OR/IO/DD/HV/PW/SS/MD/
Our Family Corporation,Jefferson House,,3552 Jefferson Street,,Napa,CA,94558,(707)252-1366,TX/RR/AD/DD/SS/TC/FG/
Our Family Corporation,Redwood House,,2033 Redwood Road,,Napa,CA,94558,(707)252-1366,TX/RR/AD/DD/PW/SS/TC/FG/
Our Family Corporation,Napa State Hospital,Evergreen Drive/D Ward,,,Napa,CA,94559,(707)252-1366,TX/OS/RR/AD/DD/SS/TC/SC/FG/
Healthy Beginnings,Paradise Valley Hospital,,2345 East 8th Street,Suite 110,National City,CA,91950,(619)470-4384 Hotline: (619)472-4306,TX/PV/OS/IO/DD/PW/SS/OH/FG/
Nevada County,Mental Health Services,,10433 Willow Valley Road,Suite A,Nevada City,CA,95959,(530)265-1437,TX/PV/OS/OR/IO/AD/DD/PW/CM/MD/
Nevada County Dept of Mental Health,Lovett Residential Center,,145 Bost A venue,,Nevada City,CA,95959,(530)265-9045 Hotline: (530)265-9045,TX/PV/OS/RR/SS/
Second Chance,Tri Cities Program,,6330 Thornton A venue,,Newark,CA,94560,(510)792-4357 Hotline: (510)792-4357,TX/PV/OS/OR/AD/DD/SS/MD/FG/
Ventura County DDP,Conejo Valley DDP,,2824 Camino Dos Rios,Suite IOI,Newbury Park,CA,91320,(805)376-1290,TX/OS/OR/AD/DD/SS/
ACT Behavioral Center,,,24876 Apple Street,Suite C,Newhall,CA,91321,(661)254-0339,TX/PV/OS/OR/IO/AD/SS/PI/
El Dorado Community Service Center,Santa Clarita Med and Mental Hlth Svcs,,24625 Arch Street,,Newhall,CA,91321,(661)288-2644,TX/PV/OS/DT/OD/OR/IO/AD/DD/SS/CM/MD/
National Council on Ale/Drug Dep of,San Fernando Valley/Newhall,,24779 Valley Street,,Newhall,CA,91321,(661)254-0700 Hotline: (661)254-0700,TX/PV/OS/OR/AD/SS/
Alternative Sentencing,Relapse Prevention,,471 Old Newport Boulevard,Smte IOI,Newport Beach,CA,92663,(949)631-0550,TX/PV/OS/RR/SS/HH/SG/CJ/
Hoag Memorial Hospital,Chemical Dependency Center,,I Hoag Drive,,Newport Beach,CA,92658,,TX/OS/DT/IO/ID/IR/GH/MC/PI/
Sober Living By The Sea,,,2811 Villa Way,,Newport Beach,CA,92663,(949)673-6696 Hotline: (800)647-0042,TX/PV/OS/IO/RR/DD/SS/TC/
Sober Living By The Sea,,,4504 Sea Shore Drive,,Newport Beach,CA,92663,(949)673-6696 Hotline: (800)647-0042,TX/OS/IO/RR/DD/SS/TC/
California Rehabilitation Center,Civil Addict Program,5th and Western Streets,,,Norco,CA,91760,(909)273-2956,TX/OS/RR/DD/CJ/
Walden House Therapeutic Community at,The California Rehabilitation Center,,5th and Western Street,,Norco,CA,91760,(909)736-5261,TX/OS/RR/CJ/
Sierra Tribal Consortium,,,57128 Road 225,,North Fork,CA,93643,(559)877-4699 Hotline:,TX/PV/OS/OR/AD/SS/CJ/
Mexican American Alcoholism Program,MAAP Sacramento DDP and Drug,Diversion,3437 Myrtle Avenue,Suite 420,North Highlands,CA,95660,(916)338-6835,TX/PV/OS/OR/CJ/
Veterans Affairs Medical Center,Chemical Dependency Treatment Program,,16111 Plummer Street,Ward 41-C 116-A,North Hills,CA,91343,(818)895-9480,TX/ML/PV/OS/DT/OD/OR/IO/DD/SS/
Chandler Lodge Foundation,,,11455 Chandler Boulevard,,North Hollywood,CA,91601,(818)766-4534,TX/OS/RR/SS/
The George T Pfleger Center,Cri/Help Inc,,11027 Burbank Boulevard,,North Hollywood,CA,91601,(818)985-8323 Hotline: (818)985-8323,TX/PV/OS/OR/IO/RR/DD/HV/SS/TC/PI/
Western Pacific,North Hollywood,,11321 Camarillo Street,,North Hollywood,CA,91602,(818)506-4455,TX/PV/OS/DT/OD/OR/HV/PW/SS/
Southern CA Alcohol and Drug Programs __ .,Cider House,,11400 Norwalk Boulevard,Suite 209,Norwalk,CA,90650,(562)864-7724 Hotline: (562)864-7724,TX/PV/OS/DT/RD/RR/SS/
Western Pacific Med/Corp,Western Pacific Norwalk Medical Clinic,,11902 Rosecrans Boulevard,,Norwalk,CA,90650,(562)929-7188,TX/IO/AD/DD/SS/CM/
Henry Ohlhoff House,North,,5394 Nave Drive,,Novato,CA,94949,(415)883-2494,TX/OS/RR/SS/PI/
Sunny Hills Childrens Services,Threshold for Change,,619 Canyon Road,,Novato,CA,94947,(415)898-3316,TX/OS/RR/AD/DD/HV/SS/TC/SC/
Stanislaus County Dept of Mental Hlth,East Side Counseling Center,,631 West F Street,,Oakdale,CA,95361,(209)847-5927,TX/OS/OR/DD/CM/PI/
Kings View Community Services,Oakhurst Counseling Center,,49774 Road 426,Suite D,Oakhurst,CA,93644,(559)683-4809 Hotline: (559)673-3508,TX/PV/OS/OR/IO/AD/DD/SS/MD/FG/PI/
Adolescent Treatment Center,Thunder Road/East,,2647 East 14th Street,Suite 602,Oakland,CA,94606,(510)653-5040,TX/PV/OS/IR/RR/AD/DD/HV/SS/TC/SC/
Alameda County Healthy Infant Program,Summit Medical Center,,3012 Summer Street,Suite G-625,Oakland,CA,94609,(510)208-1600,TX/PV/OS/IO/PW/SS/GH/OH/
Allen Temple Haight Ashbury,Recovery Center/Ujima House,,9925 East 14th Street,Suite 9,Oakland,CA,94603,(510)569-8933 Hotline: (510)569-8933,TX/PV/OS/DT/OD/OR/IO/AD/DD/PW/SS/OH/FG/
Allied Fellowship Services,,,1850 9th A venue,,Oakland,CA,94606,(510)534-1986,TX/PV/OS/OR/RR/DD/HH/
American Indian Family Healing Center,New Dawn Lodge/White Cloud Lodges,,1815 39th Avenue,Suites D and C,Oakland,CA,94601,(510)534-2737,TX/PV/OS/OR/RR/PW/SS/TC/FG/
Asian Community Mental Health Services,,,310 8th Street,Suite 201,Oakland,CA,94607,(510)451-6729,TX/PV/OR/CM/
Bi Bett Corporation,East Oakland Recovery Center,,8900 International Boulevard,,Oakland,CA,94621,(510)568-2432 Hotline: (510)568-2432,TX/PV/OS/OR/HV/SS/HH/CH/CO/CJ/MC/FG/
Bi Bett Corporation,Orchid Womens Recovery Center,,1342 East 27th Street,,Oakland,CA,94606,Hotline: (510)535-0611,TX/PV/OS/IO/RR/SS/TC/SG/CJ/FG/
East Bay Community Recovery Project,Project Pride,,2551 San Pablo A venue,2nd Floor,Oakland,CA,94612,(510)832-0600,TX/PV/OS/OR/IO/DD/SS/CM/CJ/
First Step,Alcohol and Drug Crisis Center,,153 I Jefferson Street,,Oakland,CA,94612,(510)271-8080,TX/OS/RR/SS/
Harriet Tubman Recovery Center,Healthy Babies Project,,1004 36th Street,,Oakland,CA,94609,(510)450-0886,TX/PV/OS/RR/PW/SS/
Healthy Babies Project,Harriet Tubman Recovery Center II,,3328 Elm Street,,Oakland,CA,94609,(510)450-0886,TX/PV/OS/RR/PW/SS/FG/
Healthy Babies Project,Maudell Shirek,,3229 Elm Street,,Oakland,CA,94609,(510)450-0886,TX/PV/OS/OR/IO/PW/SS/FG/
Healthy Babies Project,Maudell Shirek Recovery Village,,471 34th Street,,Oakland,CA,94609,(510)450-0886,TX/PV/OS/OR/IO/PW/SS/
Herzog Short Term Recovery Home,,,6025 Herzog Street,,Oakland,CA,94608,(510)658-1041,TX/OS/DT/RD/RR/SS/FG/
Highland Hospital,Substance Abuse Program/Healthy Start,,1411 East 31st Street,,Oakland,CA,94602,(510)437-5192,TX/OS/OR/IO/DD/HV/PW/GH/MD/
Kaiser Permanente,Chemical Dependency Services,,969 Broadway Street,,Oakland,CA,94607,(510)251-0121,TX/PV/OS/DT/OD/OR/IO/ID/AD/DD/HV/PW/SS/GH/
Mandana Community Recovery Center,,,3989 Howe Street,,Oakland,CA,94611,(510)595-9690,TX/PV/OS/OR/DD/CH/
Merritt Peralta Institute,Treatment Services,,3012 Summit Street,6th Floor,Oakland,CA,94609,(510)869-8850 Hotline: (510)652-7000,j'/TX/PV/OS/DT/OD/OR/IO/ID/IR/RR/HV/GH/MC/PI/
Missionary Recovery Center,,,1739 8th Street,,Oakland,CA,94602,(510)849-9072,TX/ML/OS/RR/AD/SS/TC/CO/
Narcotic Education League,Recovery Home/El Chante,,425 Vernon Street,,Oakland,CA,94610,(510)465-4569,TX/OS/RR/SS/CM/FG/
Narcotics Education League,Si Se Puede,,3315 International Boulevard,,Oakland,CA,94601-3005,(510)535-2303,TX/PV/OS/JO/SS/
Native American Health Center,,,3124 East 14th Street,,Oakland,CA,94601,(510)532-2933,TX/PV/OS/OR/DD/SS/FG/
Occupational Health Services,DUI Education Program,,340 Pendleton Way,,Oakland,CA,94621,(510)569-9888,TX/PV/OS/OR/SS/
Praise Fellowship Ministries,Mens Recovery Facility,,7400 MacArthur Boulevard,,Oakland,CA,94605,(510)569-8066,TX/PV/OS/OR/RR/SS/TC/CO/CJ/
Saint Marys Center,Recovery 55,,635 22nd Street,,Oakland,CA,94612,(510)893-4723,TX/OS/OR/IO/DD/
Solid Foundation,Keller House,,353 Athol A venue,,Oakland,CA,94606,(510)482-6490,TX/PV/OS/RR/PW/SS/FG/
Solid Foundation,Mandela I,,6939 McArthur Boulevard,,Oakland,CA,94601,(510)482-6490,TX/PV/OS/RR/PW/SS/TC/FG/
Solid Foundation,Mandela II,,3408 Andover Street,,Oakland,CA,94610,(510)893-2614,TX/OS/RR/PW/SS/TC/
Solid Foundation,Womens Center,,4778 East 14th Street,,Oakland,CA,94621,(510)482-6490,TX/IO/PW/SS/
Thunder Road,Chemical Dependency Recovery Hospital,,390 40th Street,,Oakland,CA,94609,(510)653-5040,TX/PV/OS/IR/RR/AD/DD/HV/SS/TC/SC/
Victory Outreach Ministries,International,,3814 MacArthur Boulevard,,Oakland,CA,94605,(510)482-4656,TX/PV/OS/RR/AD/SS/CO/
West Oakland Health Center,Cocaine Recovery Center/East,,9006 MacArthur Boulevard,,Oakland,CA,94605,(510)430-1771,TX/PV/OS/OR/IO/AD/DD/SS/CJ/MC/MD/PI
Wistar R and R Program,Wistar Redemption and Recovery,,220 Wistar Road,,Oakland,CA,94603,(510)562-8370,TX/PV/OS/RR/SS/
14th Street Clinic,,,1124 International Boulevard,,Oakland,CA,94606,(510)533-0800,TX/ML/PV/OS/DT/OD/OR/IO/AD/DD/HV/PW/SS/MD/
McAlister Institute for Treatment and,Education MITE North Coastal Regional,,514 Coast Highway,,Oceanside,CA,92056,(760)721-2781,TX/PV/OS/OD/OR/IO/AD/DD/SS/
McAlister Institute for Treatment and,Education MITE North County Detox,,4010 Via Serra Street,,Oceanside,CA,92056,(760)757-7166,TX/OS/DT/RD/SS/
Mental Health Systems,Pegasus West,,560 Greenbrier Drive,Suites A B C D and E,Oceanside,CA,92054,(760)439-2785,TX/PV/OS/IO/DD/SS/PH/CM/
Rebuild,,,2103 El Camino Real,Suite 203,Oceanside,CA,92008,(760)721-6241 Hotline: (760)293-8784,TX/OS/IO/HV/SS/
Tri City Medical Center,,,4002 Vista Way,,Oceanside,CA,92056,(760)724-8411,OS/DT/ID/DD/GH/MC/PI/
Turning Point Crisis Center,,,1738 South Tremont Street,,Oceanside,CA,92054,(760)439-2800,TX/OS/RR/DD/PI/
Bilingual Family Counseling Services,Center for Recovery,,317 West F Street,,Ontario,CA,91762,(909)986-7111 Hotlines: (909)309-1290 (909)309-7209,TX/PV/OS/IO/AD/SS/CM/
Community Health Projects/Ontario,,,324 North Laurel Avenue,,Ontario,CA,91762,(909)986-4550,TX/ML/OS/DT/OD/SS/
Inland Aids Project,,,1135 North Mountain Street,,Ontario,CA,91762,(909)391-8824 Hotline: (800)499-2437,TX/PV/OS/IO/HV/SS/CO/
Inland Valley Drug/Ale Recovery Servs,Caroline House,,1646 East Caroline Street,,Ontario,CA,91764,(909)932-1069,OS/DT/RD/RR/SS/TC/
Marin Recovery Home,,,1636 North Marin Avenue,,Ontario,CA,91764,(909)932-1069 Hotline:,TX/RR/SS/TC/
Orange Recovery Home,,,1003 North Orange Avenue,,Ontario,CA,91764,(909)932-1069,TX/RR/SS/TC/
Valley Improvement Programs,,,210 West B Street,,Ontario,CA,91762,(909)983-3665,TX/OR/CJ/
Chapman House,Attn Tim Chapman,,3806 East Roberta A venue,,Orange,CA,92869,(714)288-9779,TX/OS/OR/RR/DD/SS/TC/CJ/
Mariposa Womens Center,,,812 Town and Country Road,,Orange,CA,92868,(714)547-6494,TX/PV/OS/OR/SS/
Touchstones,,,525 North Parker Street,,Orange,CA,92868,(714)639-5542,TX/OS/DT/RD/RR/AD/DD/HV/SS/SG/
Turning Point Recovery Center,,,805 West La Veta Street,Suite 103,Orange,CA,92868,(714)771-7766,TX/OS/DT/OD/OR/DD/SG/PI/
New Dawn Recovery Center,,,6043 Roloff Way,,Orangevale,CA,95662,(916)969-4300,TX/PV/OS/DT/IO/RD/RR/DD/SS/TC/PI/
Glenn County Health Services,Substance Abuse Department,,1187 East South Street,County Road 200,Orland,CA,95963,(530)865-1146 Hotlines: (800)700-3577 (530)934-6582,TX/PV/OS/OR/IO/AD/DD/PW/SS/CM/CJ/
River of Wellness and Recovery of,The Karuk Tribal Health Program,Highway96,,,Orleans,CA,95556,(530)627-3452,TX/PV/OS/OR/SS/
Behavioral Health Services,Feather River Indian Health,,2167 Montgomery Street,,Oroville,CA,95965,(916)534-3793,TX/PV/OS/OR/AD/SS/
Butte County Behavioral Health Servs,Adult Services/Oroville,,18- C County Center Drive,,Oroville,CA,95965,(530)891-2984 Hotline: (800)334-6622,TX/OS/OR/DD/CM/MD/
Butte County Behavioral Health Servs,Oroville Community Counseling Center,,2856 Olive Highway,Suite A,Oroville,CA,95965,(530)891-2984 Hotline: (800)371-4373,TX/OS/OR/AD/DD/CM/
Aegis Medical Systems Inc,,,2055 Saviers Road,Suite IO,Oxnard,CA,93033,(805)483-2253,TX/ML/PV/OS/DT/OD/IO/DD/HV/PW/SS/MD/
Aegis Medical Systems Inc,,,620 South D Street,,Oxnard,CA,93030,(805)486-4876,TX/ML/PV/OS/DT/OD/IO/HV/PW/SS/MC/MD/
Alternative Action Programs,,,2630 Saddle A venue,Suite 201,Oxnard,CA,93030-1112,(805)988-1112 Hotline: (805)988-1112,TX/OS/OR/SS/FG/
Rainbow Recovery Centers I,,,1826 East Channel Islands Boulevard,,Oxnard,CA,93033,(805)487-4663 Hotline: (805)487-4663,TX/PV/OS/RR/DD/HV/PW/SS/TC/CM/CO/CJ/
Shamrock House,,,1334 East Channel Islands Boulevard,,Oxnard,CA,93033,(805)486-8924,TX/PV/OS/OR/RR/SS/TC/HH/CH/CO/
Ventura County Dept of Ale/Drug Prog,Oxnard Center,,2651 South C Street,,Oxnard,CA,93033,"(805)385-18853,",TX/OS/OR/IO/AD/DD/SS/
Ventura County Dept of Ale/Drug Progs,A New Start for Moms,,315 North A Street,,Oxnard,CA,93030,(805)385-4114,TX/OS/OR/IO/DD/PW/SS/MD/
Ventura County Hispanic Commission on,Alcohol and Drug Services/Casa Latina,,1430 Junewood Way,,Oxnard,CA,93030,(805)988-1560,TX/PV/OS/RR/PW/ISS/TC/
Victory Outreach Oxnard,,,200 Pleasant Valley Road,,Oxnard,CA,93030,(805)486-3132,TX/PV/OS/DT/RD/RR/SS/HH/CO/CJ/
Pyramid Alternatives,,,480 Manor Plaza,,Pacifica,CA,94044,(650)355-8787,TX/PV/OS/OR/IO/AD/DD/HV/SS/SG/CJ/FG/PI
Beacon House,,,468 Pine A venue,,Pacific Grove,CA,93950,(831)372-2334,TX/PV/OS/DT/OR/IO/RD/RR/DD/SS/PI/
Didi Hirsch CMHC,Via Avanta Program,,11643 Glenoaks Boulevard,,Pacoima,CA,91331,(818)897-2609,TX/OS/RR/DD/HV/PW/SS/TC/
El Proyecto Del Barrio,Arleta,,8902 Woodman Avenue,,Pacoima,CA,91331,(818)830-7090 Hotline: (800)564-6600,TX/PV/OS/IO/PW/SS/CO/MD/
American Health Services,Palmdale Medical,,2720 East Palmdale Boulevard,Suite 129,Palmdale,CA,93550,(661)947-3333,TX/PV/OS/DT/OD/OR/IO/DD/SS/CM/MD/
Antelope Valley Council on Alcoholism,and Drug Dependency,,38345 30th Street East,Suite C-3,Palmdale,CA,93550,(661)948-5046 Hotline: (661)948-5046,TX/PV/OS/OR/AD/SS/
Midway Ranch Sober Living Center,,,40836 20th Street West,,Palmdale,CA,93551,(661)273-4318,.i/Ho/tI/in/e:(6/6I)2/66/-2/37/5TX/PV/OS/DT/RD/RR/AD/DD/HV/SS/TC/HH/CJ/
Crossroads Counseling,,,73345 U.S. Highway 111,Suite 202,Palm Desert,CA,92260-3909,(760)568-6625,TX/PV/OS/OR/DD/SS/SG/PI/
Lifes Journey Center,,,291 East Camino Monte Vista Street,,Palm Springs,CA,92262,(760)864-6363,TX/PV/OS/DT/RD/RR/DD/SS/TC/PI/
Michaels House,The Treatment Center for Men,,430 South Cahuilla Road,,Palm Springs,CA,92262,(760)320-5486,TX/OS/DT/RD/RR/DD/SS/PI/
Daytop Village,Adult Services,,2560 Pulgas A venue,,Palo Alto,CA,94303,(650)325-6466,TX/PV/OS/OR/RR/DD/HV/SS/TC/
Free at Last,Malaika House,,2043 Euclid A venue,,Palo Alto,CA,94303,(650)462-6983,TX/PV/RR/PW/SS/CJ/
Free at Last,Walker House,,1095 Weeks Street,,Palo Alto,CA,94303,(650)462-6999,TX/PV/OS/RR/DD/HV/SS/CO/
North County,Alcohol Services Center,,231 Grant A venue,,Palo Alto,CA,94306,(650)328-1441 Hotline: (800)488-9919,TX/OS/OR/IO/DD/SS/MD/
Stanford Ale and Drug Treatment Center,Dept of Psych/Behavioral Sciences,,401 Quarry Road,Room 1353,Palo Alto,CA,94305-5541,(415)723-6682,TX/PV/OS/DT/OR/IO/ID/SS/GH/MC/MD/PI/
El Proyecto Del Barrio,,,9140 Van Nuys Boulevard,,Panorama City,CA,91402,(818)895-2206 Hotline: (800)564-6600,TX/PV/OS/OR/IO/AD/PW/SS/MD/
Western Pacific Med Corp,Western Pacific Panorama Med Clinic,,9462 Van Nuys Boulevard,,Panorama City,CA,91402,(818)891-8555 Hotline: (818)891-8555,ML/PV/OS/DT/OD/IO/SS/OH/MD/
Butte County Behavioral Health,Paradise Community Counseling Center,,5910 Clarke Road,Suite W,Paradise,CA,95969,(530)891-2984 Hotline: (800)371-4373,TX/OS/OR/AD/DD/CM/
Skyway House,,,6373 Oak Way,,Paradise,CA,95967,(530)876-9436,TX/OS/DT/RD/RR/SS/OH/FG/
Creative Alternatives,,,8528 1/2 Rosecrans Avenue,,Paramount,CA,90723,(562)408-0764,TX/PV/OS/OR/AD/HV/PW/SS/CO/CJ/
Aegis Medical Systems Inc,,,1724 East Washington Boulevard,,Pasadena,CA,91104,(626)794-1161,TX/ML/OS/DT/OD/OR/SS/SG/MD/PI/
Bishop Gooden Home,,,191 North El Molino Avenue,,Pasadena,CA,91101-1804,(818)356-0078,TX/PV/OS/RR/SS/
California Drug Consultants,,,659 East Walnut Street,,Pasadena,CA,91101,(626)844-0410,TX/PV/OS/OR/AD/DD/HV/PW/SS/CJ/MD/FG
Casa de Las Amigas,,,160 North El Molino A venue,,Pasadena,CA,91101,(818)792-2770,TX/PV/OS/RR/SS/CJ/
City of Pasadena/Dept of Public Health,Pasadena Recovery Program,,1845 North Fair Oaks Avenue,,Pasadena,CA,91103,,TX/PV/OR/IO/SS/
Grandview Foundation,Marengo House,,1230 North Marengo Avenue,,Pasadena,CA,91103,(818)797-1124,TX/OS/OR/IO/RR/HV/SS/TC/CJ/MD/FG/PI/
Grandview Foundation,,,225 Grandview Street,,Pasadena,CA,91104,(626)797-3799,TX/OS/RR/HV/SS/TC/CJ/
Las Encinas Hospital,Chemical Dependency Program,,2900 East Del Mar Boulevard,,Pasadena,CA,91107,(626)356-2650 Hotlines: (800)792-2345,TX/PV/OS/DT/OR/IO/ID/IR/AD/DD/HV/PW/SS/PH/HH/SG/SC/PI/
Pasadena Council on Alcoholism and,Drug Dependency and Referral Agency,I 8 I North Hudson A venue,,,Pasadena,CA,91101,(626)795-9127 Hotline: (626)585-9355,TX/PV/OS/OR/IO/AD/SS/
Principles,Impact Drug/ Alcohol Treatment Center,,2659 and 2661 Nina Street,,Pasadena,CA,91107,(626)798-0884,TX/OS/IR/RR/SS/HH/
Principles,Impact Drug/ Alcohol Treatment Center,,1680 North Fair Oaks Avenue,,Pasadena,CA,91103,(323)681-2575 Hotlines: (626)798-0884 (323)681-2575,TX/PV/OS/IO/IR/SS/GH/TC/HH/CJ/
Principles/Pasadena,Impact Drug Treatment Center,,145 North Vista Avenue,Suite 101,Pasadena,CA,91107,(626)564-4241 Hotline: (626)798-0884,TX/OS/IO/IR/HV/PW/SS/GH/OH/CJ/
Share Unit Saint Luke Medical Center,,,2632 East Washington Boulevard,,Pasadena,CA,91107-7021,(818)791-6606,TX/OS/DT/OR/IO/ID/DD/HV/SS/GH/
Urban Revitalization Development,Corporation/Choices,,1460 North Lake Avenue,Suite 107,Pasadena,CA,91104,(626)398-3796,TX/PV/OS/OR/IO/CH/MD/
Walter Moving Home,,,218 South Madison A venue,,Pasadena,CA,91101,(626)405-0950,TX/OS/DT/RD/RR/SS/
Patton State Hospital,,,3102 East Highland Avenue,,Patton,CA,92369,(909)425-7000,TX/PV/OS/IO/IR/DD/SS/PH/
Perris Valley Recovery Programs,,,236 East Third Street,Suite B,Perris,CA,92570,(909)657-2960,TX/PV/OS/OR/SS/FG/
Comprehensive Counseling Center,,,35 Maria Drive,Suite 861,Petaluma,CA,94952,(707)763-9332,TX/DT/OD/OR/SS/CM/SG/MC/MD/PI/
Henry Ohlhoff Outpatient Programs,Petaluma Office,,35 Maria Drive,Suite 852,Petaluma,CA,94954,(707)776-4667,TX/OS/OR/IO/AD/SS/PI/
Saint Anthony Foundation,Saint Anthony Farm,,11207 Valley Ford Road,,Petaluma,CA,94952,(707)794-7120,TX/PV/OS/RR/SS/HH/
Aegis Medical Systems Inc,Phelan Clinic 20,,3777 Phelan Road,,Phelan,CA,92371,(619)868-4418,TX/ML/OS/DT/OD/OR/SS/MD/
Cornerstone Health Services,Outpatient Methadone Clinic,,8207 Whittier Boulevard,,Pico Rivera,CA,90660,(562)695-0737,TX/ML/OS/DT/OD/OR/PW/SS/MD/
Eastside Health Services,,,5200 San Gabriel Place,Suite B and C,Pico Rivera,CA,90660,(562)948-3306,TX/ML/PV/OS/DT/OD/OR/DD/SS/OH/
Doctors Hospital of Pinole,New Beginnings Program,,2151 Appian Way,,Pinole,CA,94564,(510)724-1520 Hotline: (510)724-1520,TX/OS/DT/OR/IO/ID/IR/DD/HV/GH/MC/FG/PI/
Tri Cities Discovery Center,,,2586 Appian Way,,Pinole,CA,94564,(510)374-7011,TX/PV/OS/OR/AD/DD/SS/SC/
Addiction Researchffreatment,CAL Detox/Pittsburg,,45 Civic A venue,Room 128,Pittsburg,CA,94565,(925)427-2285,TX/ML/OS/DT/OD/OR/PW/SS/MD/
Bi Belt Corporation,East County Detox Center/DUI,,500 School Street,,Pittsburg,CA,94565,(925)458-1616,TX/OS/DT/RD/SS/
Bi Beu Corporation,East County Wollam House/Perinatal,,510 Wollam Avenue,,Pittsburg,CA,94565,(925)458-1978,TX/OS/RR/PW/ISS/
Born Free/East,,,550 School Street,,Pittsburg,CA,94565,(925)427-8068 Hotline: (800)846-1652,TX/PV/OS/OR/PW/SS/MD/
East County Wollam House for Women,,,498 Wollam Avenue,,Pittsburg,CA,94565,(925)458-1978,TX/OS/RR/PW/SS/
New Connections/Pittsburg,Bay Point,,440 Railroad A venue,,Pittsburg,CA,94565,(925)676-1601,TX/PV/OS/OR/AD/DD/HV/SS/
UJIMA Family Recovery Services,UJIMA East Intensive Day Treatment,,369 East Leland Road,,Pittsburg,CA,94565,(925)427-9100,TX/OS/IO/PW/SS/
El Dorado Council on Alcoholism (EDCA),Lifeskills,,2810 Coloma Road,,Placerville,CA,95667,(530)622-8193,TX/PV/OS/DT/OD/IO/AD/DD/HV/SS/CM/CJ/MC/MD/FG/PI/
New Morning Youth and Family Services,,,6765 Green Valley Road,,Placerville,CA,95667,(530)622-5551,TX/PV/OS/OR/IO/AD/DD/PW/CM/PI/
Progress House,Outpatient Services,,2914-A Cold Springs Road,,Placerville,CA,95667,(530)642-1715,TX/OS/OR/AD/DD/SS/MD/FG/PI/
Bi Bett Corporation,Gregory Recovery Center,,270 Campbell Lane,,Pleasant Hill,CA,94523,(925)930-0553,TX/PV/OS/OR/IO/RR/SS/
Drake House,,,808 Grayson Road,,Pleasant Hill,CA,94523,(925)935-2590,TX/PV/OS/OR/IO/RR/AD/DD/SS/TC/FG/
Valley Community Health Center Inc,,,3922 Valley Avenue,Suite A,Pleasanton,CA,94566,(925)462-5544,TX/PV/OS/OR/IO/AD/CM/
West Marin Community Outreach,,,I 00 6th Street,,Point Reyes Station,CA,94956,(415)663-9441,TX/PV/OS/OR/AD/CM/
Aegis Medical Systems,,,1050 North Garcy A venue,,Pomona,CA,91767,(909)623-6391,TX/DT/OD/OR/SS/
Aegis Medical Systems Inc,,,152 West Artesia Street,,Pomona,CA,91768,(909)620-1959,TX/ML/DT/OD/OR/SS/MD/
Behavioral Health Services,American Recovery Center,,2180 West Valley Boulevard,,Pomona,CA,91768,(909)865-2336,TX/PV/OS/DT/OR/IO/RD/RR/DD/HV/SS/TC/MD/PI/
Inland Valley Drug and,Alcohol Recovery Services,,375 South Main Street,Suite 111,Pomona,CA,91766,(909)932-1069,TX/OS/OR/ISS/
National Council on Alcoholism/Drug,Dependence of East San Gabriel/Pomona,,375 South Main Street,Suite 102,Pomona,CA,91766,(909)629-4084,TX/PV/OS/OR/IO/AD/SS/
Pomona Community Crisis Center,,,221 North Palomares Street,,Pomona,CA,91767,(909)623-1588,TX/OS/OR/ISS/
Prototypes Womens Center,,,845 East Arrow Highway,,Pomona,CA,91767,(909)624-1233,TX/PV/OS/OR/IO/RR/DD/HV/PW/SS/TC/CJ/MD/FG
Alcohol and Drug Services of Tulare,Alternative Services,,215 North D Street,,Porterville,CA,93257,(559)783-2402,TX/OS/OR/IO/DD/SS/
Indian Health Services,Tule River Alcoholism Program,,Route 7,,Porterville,CA,93257,(559)781-8797 Hotline: (559)781-8797,TX/PV/OS/OR/RR/AD/SS/
PAAR Center,Porterville Halfway House,,218-232 West Belleview A venue,,Porterville,CA,93257,(559)781-0107 Hotline: (559)781-0107,TX/DT/RD/RR/SS/FG/
Porterville Halfway House,PAAR Center/South,,237 West Belleview A venue,,Porterville,CA,93257,(559)782-8982 Hotline: (559)781-0107,TX/OS/RR/SS/
38 West Morton Avenue,,,,,Porterville,CA,93257,(559)789-9881,TX/PV/OS/IO/SS/MC/
Turning Point Youth Services,Porterville Site,,288 North 2nd Street,,Porterville,CA,93257,,TX/OS/OR/AD/SS/
Anacapa Hospital,Substance Abuse Services,,307 East Clara Street,,Port Hueneme,CA,93041,(805)488-3661,TX/OS/DT/OR/IO/ID/IR/RD/RR/DD/SS/TC/HH/CM/MC/MD/FG/PI/
Plumas County Alcohol and Drug Dept,,,Courthouse Annex and Highway 70,,Quincy,CA,95971,(530)283-6316 Hotline: (530)283-4333,TX/PV/OS/OD/OR/IO/AD/PW/SS/
Broad Horizons,,,1236 H Street,,Ramona,CA,92065,(760)789-7060,TX/PV/OS/RR/AD/DD/SS/FG/PI/
Group Conscience/Pemarro,,,1482 Kings Villa Road,,Ramona,CA,92065,(760)789-8070,TX/OS/DT/RD/RR/DD/SS/TC/PI/
Mental Health Systems,North Rural Recovery Center,,323 Hunter Street,,Ramona,CA,92065,(760)788-6246,TX/PV/OS/OR/IO/AD/PW/SS/
D and A Detox Center,,,2721 Barbera Way,,Rancho Cordova,CA,95670,(916)364-7660 Hotline: (916)364-7660,TX/OS/DT/RD/SS/TC/
Matrix Institute on Addictions,,,9375 Archibald Avenue,Suite 204,Rancho Cucamonga,CA,91730,(909)989-9724 Hotline: (800)862-8749,TX/PV/OS/JO/AD/SS/FG/PI/
Betty Ford Center at Eisenhower,,,39000 Bob Hope Drive,,Rancho Mirage,CA,92270,(760)773-4100 Hotline: (800)854-9211,TX/PV/OS/DT/OR/IO/ID/IR/OH/PI/
Pine Ridge Treatment Center,,,71650 Sahara Road,Sahara Plaza Suite I,Rancho Mirage,CA,92270,(760)836-3441,TX/PV/OS/OD/IO/SS/SG/CJ/
Tehama County Health Agency,Drug and Alcohol Division,,447 Walnut Street,,Red Bluff,CA,96080,(530)527-7893 Hotline: (530)527-5637,TX/PV/OS/OR/AD/DD/HV/PW/SS/
Cornerstone Recovery Systems,,,13144 Bear Mountain Road,,Redding,CA,96003,(530)275-0906,TX/PV/OS/OR/RR/SS/TC/PI/
Empire Recovery Center,,,1237 California Street,,Redding,CA,96001,(530)243-7470,TX/PV/OS/DT/OR/RD/RR/HV/PW/SS/CO/CJ/FG/
Guardian Rehabilitation,Northstate Recovery System,,2801 Eureka Way,,Redding,CA,96001,,TX/OS/DT/IO/ID/AD/DD/GH/OH/MC/MD/PI/
Remi Vista Inc,,,3191 Chum Creek Road,,Redding,CA,96002,(530)224-7160,TX/PV/OS/RR/AD/SS/FG/I'/
Shasta County Alcohol/Drug Program,Perinatal Project,,2770 Pioneer Drive,Suite 240,Redding,CA,96001,(530)225-5244 Hotline: (530)225-5252,TX/OS/
Shasta County Alcohol/Drug Program,,,2770 Pioneer Drive,Suite 200,Redding,CA,96001-0184,(530)225-5240 Hotline: (530)225-5252,TX/PV/OS/OR/IO/AD/DD/SS/MD/
Shasta Options,,,2530 Larkspur Lane,,Redding,CA,96002,(530)224-5469,TX/PV/OS/OR/SS/
Shasta Sierra Work Furlough Inc,,,1727 South Street,,Redding,CA,96001,(530)241-4073,TX/PV/OR/CJ/
Substance Abuse Growth Recovery and,Noble House,,15799 Nauvoo Trail,,Redding,CA,96001,(916)246-4242,TX/OS/RR/SS/TC/
Jackson/Bibby Awareness Group,DUI Services,,1200 Arizona Street,Suite B-10,Redlands,CA,92374,(909)792-6925,TX/OS/OR/CJ/
Loma Linda University,Behavioral Medicine Center,,1710 Barton Road,,Redlands,CA,92373,,TX/PV/OS/DT/OR/JO/ID/IR/AD/DD/HV/PW/SS/PH/OH/HH/CM/CO/SG/SC/
Redlands Drug Court,,,802 West Colton Avenue,Suite C,Redlands,CA,92374,(909)335-2989,TX/PV/OS/IO/HV/PW/SS/CO/CJ/MD/FG/
Redlands/Yucaipa Guidance Clinic,Association Inc,I 323 West Colton A venue,Suite 200,,Redlands,CA,92374,(909)792-5552,TX/PV/OS/OR/IO/AD/DD/SS/MD/
Avalon Family Counseling Services,,,9 I 5 Middle Field Road,Suite 4,Redwood City,CA,94063,(650)364-0552,TX/OS/OR/DD/SS/MC/PI/
Daytop Village Inc,Adolescent,,631 Woodside Road,,Redwood City,CA,94061,(650)367-9030,TX/OS/RR/AD/SS/TC/
El Centro de Libertad,The Freedom Center,,650 Main Street,Suite 600,Redwood City,CA,94063,(415)599-9955,TX/PV/OS/OR/AD/DD/HV/SS/
Professional Treatment Foundation,Redwood City Treatment Clinic,,500 Arguello Street,,Redwood City,CA,94063,,TX/ML/PV/OS/DT/OD/OR/IO/HV/SS/MD/
Sequoia Alcohol and Drug Recovery Ctr,,,622 Ruby Street,,Redwood City,CA,94062,(650)364-5504,TX/PV/OS/DT/OD/OR/IO/RD/RR/DD/SS/SG/PI/
Service League of San Mateo County,Hope House,,3789 Hoover Street,,Redwood City,CA,94063,(650)363-8735,TX/PV/OS/RR/SS/
Consolidated Tribal Health Project Inc,,,6991 North State Street,,Redwood Valley,CA,95470,(707)485-5115,TX/PV/OS/OR/IO/AD/DD/HV/PW/SS/MC/MD/FG/PI/
Fully Alive Center,,,18645 Sherman Way,Suite 114,Reseda,CA,91335,(818)345-6305,TX/PV/OS/OR/RR/DD/SS/CO/
Kaiser Permanente,Chemical Dependency Recovery Program,,18040 Sherman Way,,Reseda,CA,91335,(818)758-1200 Hotline: (800)900-3277,TX/PV/OS/DT/OD/OR/IO/AD/DD/SS/
Safety Education Center,,,18700 Sherman Way,Suite 118,Reseda,CA,91335,(818)708-1198,TX/PV/OS/OR/IO/SS/
Western Pacific Med Corp,Western Pacific Valley Medical Clinic,,18437 Saticoy Street,,Reseda,CA,91335,(818)705-5561,TX/ML/OS/DT/OD/OR/IO/HV/PW/SS/OH/MD/
San Bernardino County Office of,Alcohol and Drug Progs Treatment Scrvs,,850 East Foothill Boulevard,Suite E,Rialto,CA,92376,(909)387-7677 Hotline: (800)331-3237,TX/PV/OS/OR/AD/DD/SS/CM/MD/
Addiction Research/Treatment,CAL Detox/Richmond,,1313 Cutting Boulevard,,Richmond,CA,94804,(510)232-0874,TX/ML/PV/OS/DT/OD/DD/HV/PW/SS/MD/
Born Free/West,,,I 00 38th Street,Rooms l 605 and 1608,Richmond,CA,94804,(510)374-3122 Hotline: (800)846-1652,TX/PV/OS/OR/PW/SS/MD/
Contra Costa County Supervised Trt and,Recovery Program (STAR),,205 41st Street,,Richmond,CA,94805,(510)374-3341,TX/PV/OS/OR/DD/HV/PW/SS/
Criminal Justice Service,West Location,,205 41 st Street,,Richmond,CA,94805,(925)427-8183,TX/OS/OR/ISS/
Neighborhood House of North Richmond,Hollomon/Fauerso New Way Center,,208 23rd Street,,Richmond,CA,94804,(510)233-1270,TX/PV/OS/DT/RD/RR/HV/SS/FG/
Rectory Womens Recovery Center,CJ Hawkins House,,1515 24th Street,,Richmond,CA,94804,(510)236-3l39,TX/OR/SS/
Sojourne Community Counseling Center,,,3029 MacDonald A venue,,Richmond,CA,94804-3010,(510)374-38l3 Hotline: (800)846-1652,TX/PV/OS/OR/IO/AD/DD/HV/SS/CO/SC/CJ/MD/
Ujirna Family Recovery Services,Ujima West Intensive Day Treatment,,3939 Bissell Street,,Richmond,CA,94805,(510)215-2280,TX/OS/IO/PW/SS/
West GAADDS,,,205 41st Street,,Richmond,CA,94805,(510)235-7221,TX/PV/OS/IO/SS/
College Health IPA,Ridgecrest Unit,,1400 North Norma Street,Suite 13,Ridgecrest,CA,93555,(760)375-4756 Hotline: (888)343-4756,TX/PV/OS/IO/DD/PW/SS/CM/MD/
Traffic and Alcohol Awareness,School of Kem (T AASK),,443 West Church Street,,Ridgecrest,CA,93555,(661)832-3283,TX/OR/
Rio Vista Care,,,125 Sacramento Street,,Rio Vista,CA,94571,(707)374-5243,TX/PV/OS/DT/OD/OR/AD/SS/
10 Acre Ranch Inc,,,6067 Beach Street,,Riverside,CA,92509,(909)681-8096 Hotline: (800)266-7044,TX/PV/OS/DT/RD/RR/SS/
Born Free,,,8310 Baxter Way,,Riverside,CA,92504,(909)687-9922,TX/PV/OS/RR/PW/SS/TC/
Knollwood Psychiatric and,Chemical Dependency Center,,5900 Brockton A venue,,Riverside,CA,92506,(909)275-8400,TX/OS/DT/IO/ID/IR/DD/PH/OH/CM/MC/FG/PI/
My Family Recovery Center,A Womens Place/ A WP,,4295 Brockton A venue,,Riverside,CA,92501,(909)341-3786,TX/OS/RR/DD/HV/PW/SS/TC/
My Family Recovery Center,,,17270 Roosevelt Street,,Riverside,CA,92508,(909)780-2541,TX/OS/RR/DD/HV/PW/SS/FG/
My Family Recovery for Women,,,7211 Magnolia A venue,,Riverside,CA,92504,(909)683-4315,TX/OS/IO/DD/HV/PW/SS/FG/
Pine Ridge Treatment Center,,,5995 Brockton Avenue,Suite B,Riverside,CA,92506,(909)784-3050,TX/OS/OR/IO/SS/
Riverside County Substance Abuse Prog,Alcohol,,1777 Atlanta A venue,Suite G-1,Riverside,CA,92507,(909)778-3500 Hotlines: (800)499-3008 (909)778-2226,TX/PV/OS/OR/IO/AD/DD/HV/PW/SS/MD/FG
Riverside Recovery Resources,,,3757 Elizabeth Street,,Riverside,CA,92506,(909)788-8211 Hotline: (800)801-4673,TX/PV/OS/OR/SS/
Sammon House,,,1420 Orange Street,,Riverside,CA,92501,(909)682-6631 Hotline: (888)732-6837,TX/PV/OS/DT/RD/RR/DD/SS/TC/
Western Clinical Health Service (WCHS),Inland Health Servs (IHS)/Riverside,,1021 West La Cadena Drive,,Riverside,CA,92501,(909)784-8010,TX/ML/OS/DT/OD/OR/SS/MD/
Whiteside Manor,Alcoholic Recovery Home,,2743 Orange Street,,Riverside,CA,92501,(909)686-9454 Hotline: (888)732-6837,TX/OS/DT/RD/RR/DD/HV/SS/TC/FG/PI/
Whiteside Manor,,,5935 Challen Street,,Riverside,CA,92501,(909)343-9485 Hotline: (909)778-9626,TX/OS/RR/DD/SS/TC/
Youth Service Center of Riverside,,,3847 Terracina Drive,,Riverside,CA,92506,(909)683-5193,TX/PV/OS/OR/IO/AD/SS/
Rocklin Community Counseling Center,,,5175 Pacific Street,Suite D,Rocklin,CA,95677,(916)315-0468,TX/PV/OS/OD/OR/IO/AD/DD/SS/CO/SG/CJ/MD/
Family Care Center,Substance Abuse Program,,4022 North Rosemead Boulevard,,Rosemead,CA,91770,(626)287-3475,TX/PV/OS/DT/OD/OR/IO/SS/MD/
Adolescent Intercept,Professional Recovery Services,,220 Douglas Boulevard,,Roseville,CA,95678,(916)786-2864,TX/PV/OS/OR/AD/SS/SG/PI/
Aegis Medical Systems,Roseville,,360 Sunrise Boulevard,,Roseville,CA,95678,(916)774-6647,TX/ML/DT/OD/OR/SS/SG/MD/
Amicus Counseling Services,,,3017 Douglas Boulevard,,Roseville,CA,95661,(916)774-7555,TX/PV/OS/OR/SS/SG/
Charter Behavioral Health System of,Northern California/Roseville,,101 Cirby Hills Drive,,Roseville,CA,95678,(916)969-3333 Hotlines: (916)969-3333 (800)648-5400,TX/PV/OS/DT/IO/ID/IR/AD/DD/SS/PH/MC/FG/PI/
Sierra Council on Alcohol and Drug Dep,Roseville Service Center,1-A Sierragate Plaza,Suite 110,,Roseville,CA,95678,(916)782-3737,TX/OS/OR/SS/MD/
Sierra Family Services/Roseville,,,424 Vernon Street,,Roseville,CA,95678,(916)783-5207 Hotline: (916)783-9995,TX/PV/OS/OR/IO/AD/DD/PW/SS/MD/
Pine Ridge Treatment Center,,,2727 Highland Drive,,Running Springs,CA,92382,(909)867-7027,TX/OS/DT/RD/RR/SS/
American Indian Subst Abuse Program,Turquoise Indian Lodge,,2727 P Street,,Sacramento,CA,95816,(916)456-3487,TX/PV/OS/RR/DD/PW/SS/TC/CJ/
Another Choice Another Chance,,,5524 Assembly Court,Suite 27,Sacramento,CA,95823,(916)429-7977,TX/PV/OS/OR/IO/AD/SS/SC/CJ/
BHC Sierra Vista Hospital,,,8001 Bruceville Road,,Sacramento,CA,95823,(916)423-2000,TX/PV/OS/DT/OR/IO/ID/IR/AD/DD/PH/MC/FGPI/
Bi Valley Medical Clinic,Norwood,,310 Harris A venue,Suite A,Sacramento,CA,95838,(916)649-6793,TX/ML/DT/OD/OR/DD/HV/PW/SS/MD/
Bi Valley Medical Clinic,,,2100 Capitol Avenue,,Sacramento,CA,95816,(916)442-4985,TX/ML/OS/DT/OD/OR/IO/DD/HV/PW/SS/MD/
CA Hispanic Commission Ale/Drug Abuse,Amigas Recovery Home,,101 Southlite Circle,,Sacramento,CA,95831,(916)421-5594,TX/OS/RR/SS/TC/
Center for AIDS Research,Education and Services (CARES),,1500 21st Street,,Sacramento,CA,95814,(916)443-3299,TX/OS/OD/OR/IO/DD/HV/SS/
Center for Behavioral Health Inc,,,7225 East Southgate Drive,Suite D,Sacramento,CA,95823,(916)394-1000,TX/ML/OS/DT/OD/OR/SS/OH/MD/
Change,,,2701 Cottage Way,Suite 34,Sacramento,CA,95825-1223,(916)489-3552,TX/PV/OS/IO/SS/
Chemical Dependency Center for Women,Options for Recovery/Passages,,7000 Franklin Boulevard,Suite 110,Sacramento,CA,95823,(916)395-3552,TX/PV/OS/OR/IO/PW/SS/
Chemical Dependency Center for Women,,,1507 21st Street,Suite 100,Sacramento,CA,95814,(916)448-2951,TX/PV/OS/OR/IO/AD/DD/HV/PW/SS/MD/
Del Paso Heights Neighborhood,"Sacrament,o Cnty Ale and Drug Bureau",,3970 Research Drive,,Sacramento,CA,95838,(916)874-9754,TX/PV/OS/OR/CH/
Facts,,,2726 Rio Linda Boulevard,,Sacramento,CA,95815,(916)929-2105 Hotline: (916)929-2105,TX/PV/OS/IO/SS/SG/
Gateway Foundation,Gateway Recovery House,,4049 Miller Way,,Sacramento,CA,95817,(916)451-9312,TX/OSRR/SS/
Getting Sober Staying Sober,A Hand Up,,2942 La Solidad Way,,Sacramento,CA,95817,(916)454-2767,TX/OS/RR/SS/
Kaiser Permanente Medical Center,Chemical Dependency Program,,6600 Bruceville Road,,Sacramento,CA,95823,(916)688-2064,TX/PV/OS/DT/OD/OR/IO/AD/DD/PW/SS/GH/PI/
Mexican American Alcoholism Program,(MAAP) Mi Casa Recovery Home,,2515 48th A venue,,Sacramento,CA,95822,(916)394-2328,TX/PV/OS/OR/IO/RR/HV/PW/SS/
National Council on Ale and Drug Dep,Sacramento County Affiliate,,1300 Ethan Way,Suite 250,Sacramento,CA,95825,Hotline: (916)922-9217,TX/PV/OS/OR/AD/SS/OH/SC/CJ/
Oak Park Multi Service Center,Alcohol and Drug Bureau,,3415 Martin Luther King Jr Boulevard,,Sacramento,CA,95817,(916)874-9754,TX/PV/OS/OR/CH/
River City Recovery Center,,,E Street Unit,2218 E Street,Sacramento,CA,95816,(916)442-3979,TX/OS/IO/RR/SS/FG/
River City Recovery Center,,,G Street Unit,2217 G Street,Sacramento,CA,95816,(916)442-3979,TX/RR/SS/
Sacramento Black Alcoholism Ctr (SBAC),,,2425 Alhambra Boulevard,Suite F,Sacramento,CA,95817,(916)454-4242,TX/PV/OS/IO/AD/DD/HV/PW/SS/MD/
Sacramento County Probation,Drug Court,,2140 Stockton Boulevard,,Sacramento,CA,95817,(916)875-1194,TX/OS/IO/SS/
Sacramento Urban Indian Health,Leo Camp Alcohol Program,,2020 J Street,,Sacramento,CA,95814,(916)441-1095,TX/PV/OS/OR/AD/DD/SS/FG/
Salvation Anny,Adult Rehabilitation Center,,1615 D Street,,Sacramento,CA,95814,(916)441-5267,TX/OS/RR/SS/
The Effort,Detoxification Program,,7586 Stockton Boulevard,,Sacramento,CA,95816,(916)691-3417,TX/OS/DT/RD/SS/PI/
The Effort Alternative House,Residential,,1550 Juliesse Avenue,,Sacramento,CA,95815,(916)921-6598 Hotlines: (916)325-5556 (916)921-6598,TX/PV/OS/RR/SS/OH/TC/CJ/PI/
The Effort Counseling Center,,,1820 J Street,,Sacramento,CA,95816,(916)444-6294,TX/PV/OS/OR/IO/SS/FG/PI/
Volunteers of America,Options for Recovery,,1001 Grand A venue,,Sacramento,CA,95838,(916)929-1951,TX/OS/RR/DD/HV/PW/SS/
Volunteers of America,Yale Mother/Infant Program,,1009 Yale Street,,Sacramento,CA,95818,(916)448-6593,TX/OS/RR/DD/HV/PW/SS/MD/
Community Human Services,Methadone Clinic,,1101-F North Main Street,,Salinas,CA,93906,(831)424-4828 Hotline: (831)373-4773,TX/ML/OS/DT/OD/OR/HV/PW/SS/MD/
Community Human Services,Proyecto Unidad,,209 Pajaro Street,Suite B,Salinas,CA,93901,(831)769-9815 Hotline: (831)373-4775,TX/PV/OS/OR/IO/AD/DD/SS/CM/SC/
Door to Hope,Womens Recovery Center,,165 Clay Street,,Salinas,CA,93901,(831)422-6226,TX/OS/RR/SS/
Genie del Sol,Community Recovery Center,,5 Williams Road,,Salinas,CA,93905,(831)753-5150,TX/PV/OS/OR/SS/
Monterey County Health Department,Perinatal Recovery Services,,209 Pajaro Street,Suite A,Salinas,CA,93906,(831)753-6001,TX/OS/IO/HV/PW/SS/SG/MD/
Sun Street Centers,Residential Recovery Program,,8 Sun Street,,Salinas,CA,93901,(831)753-5145,TX/PV/OS/DT/RD/RR/SS/PI/
Valley Health Associates,,,622 East Alisa! Street,Suite 6,Salinas,CA,93905,(831)424-6655,TX/ML/OS/DT/OD/OR/IO/SS/MD/FG/PI/
Calaveras County,Alcohol and Drug Abuse Program,,891 Mountain Ranch Road,Government Center Department 64-66,San Andreas,CA,95249,(209)754-6555,TX/PV/OS/OR/IO/AD/DD/SS/
Sunny Hills Childrcns Services,,,300 Sunny Hills Drive,Building E,San Anselmo,CA,94960,(415)457-3200,TX/PV/OS/RR/AD/DD/SS/TC/
Casa de Ayuda,,,7255 Garden Drive,,San Bernardino,CA,92404,(909)885-8316,TX/PV/OS/RR/SS/CJ/
Casa de Ayuda I,,,7274 Garden Drive,,San Bernardino,CA,92404,(909)886-7006,TX/PV/OS/RR/SS/
Casa de San Bernardino,,,735 North D Street,,San Bernardino,CA,92401,(909)381-5507 Hotline: (800)262-2463,TX/OS/OR/SS/
Center for Community Counseling and,Education/ Agape House,,1643 East Highland Avenue,Suite C,San Bernardino,CA,92404,(909)388-1466'' Hotline: (800)331-3237,TX/PV/OS/IO/SS/CO/
Drug Court of San Bernardino,,,595 North Arrowhead Avenue,Suite A,San Bernardino,CA,92401,(909)381-6333,TX/OR/IO/SS/MD/
Hase and Associates Systems,,,353 West 6th Street,,San Bernardino,CA,92401,(909)888-0149,TX/PV/OS/OR/IO/AD/SS/CM/CO/SC/
Industry Comm Interface Enterprises,(ICI) Enterprises,,265 East Mill Street,Suite I,San Bernardino,CA,92408,(909)885-6065,TX/OS/OR/DD/SS/
Inland AIDS Project,San Bernardino,,186 East Highland A venue,,San Bernardino,CA,92405,(909)784-2437,TX/PV/OS/OR/IO/HV/CM/
Inland Behavioral Services,,,1963 North E Street,,San Bernardino,CA,92405,(909)881-6146,TX/PV/OS/IO/AD/DD/HV/PW/SS/CM/
Mental Health Systems,Pegasus DUI San Bernardino,,2310 North Sierra Way,,San Bernardino,CA,92405,(909)882-3043,TX/PV/OS/OR/SC/
Mental Health Systems/PRIDE,Probationers Rec Thru lnterv/Drug Educ,,595 North Arrowhead A venue,Suite B,San Bernardino,CA,92401,(909)381-8151,TX/IO/RR/SS/MD/
New House,Mens Program,,840 North Arrowhead A venue,,San Bernardino,CA,92401,(909)889-4330 Hotlines: (909)889-4330 (909)381-0866,TX/OS/RR/SS/FG/
New House/Women With Children Under,Five Years and Pregnant Women,,856 North Arrowhead Avenue,,San Bernardino,CA,92401,(909)889-4330 Hotlines: (909)889-4330 (909)381-0866,TX/OS/RR/PW/SS/
Pine Ridge Outpatient Center,,,1881 Commerce Center East,Suite 108,San Bernardino,CA,92408,(909)383-8803,TX/PV/OS/OR/DD/SS/
San Bernardino County,Dept of Public Health/San Bernardino,,799 East Rialto A venue,,San Bernardino,CA,92415-0011,(909)387-6206,TX/PV/OS/OR/DD/HV/SS/FG/
Veterans Alcoholic Rehab Prog (VARP),Gibson House for Men,,1100 North D Street,,San Bernardino,CA,92410,(909)884-0840,TX/OS/RR/SS/TC/
Veterans Alcoholic Rehab Prog (VARP),Gibson Recovery Home for Women,,1135 North D Street,,San Bernardino,CA,92410,(909)888-6956,TX/OS/RR/SS/TC/
Veterans Alcoholic Rehab Program,Harris House,,907 West Rialto Avenue,,San Bernardino,CA,92410,(909)885-8804,TX/OS/RR/SS/TC/
Casa Aztlan,,,3080 Longview Drive,,San Bruno,CA,94066,(650)355-7573,TX/OS/OR/IO/RR/SS/
First Chance,,,335 Quarry Road,,San Carlos,CA,94070,(650)595-8165,TX/PV/OS/DT/OD/SS/CJ/
Mainstream Support Group,Recovery Home,,607 A venida Las Flores,,San Clemente,CA,92672,(949)366-9210 Hotline: (800)299-4909,TX/PV/OS/OR/IO/RR/SS/TC/CJ/
Pacific Hills Treatment Center,,,217 and 219 A venida Monterey,,San Clemente,CA,92672,(949)369-2915 Hotline: (800)662-2873,TX/OS/RR/DD/SS/TC/PI/
Advanced Health Care,,,3703 Camino del Rio South,Suite 200,San Diego,CA,92108,(619)281-6414,TX/PV/OS/OR/IO/DD/PW/SS/CM/SG/CJ/MC/MD/FGPI/
Behavioral Health Group,Frontier ADTC,,10435 Chubb Lane,,San Diego,CA,92101-3152,(619)231-8904,TX/PV/OS/OR/AD/DD/SC/MD/
Charter Behavioral Health System of,San Diego/North LLC,,11878 A venue of Industry,,San Diego,CA,92128,(858)487-3200,TX/OS/DT/OR/IO/ID/DD/PH/MC/FG/PI/
Cobar House,,,4318 Meade A venue,,San Diego,CA,92116,(619)528-0999,TX/PV/OS/DT/RD/RR/DD/HV/SS/TC/CJ/
Community Connection Resource Center,Solutions Outpatient Program,,4080 Centre Street,Suite 207,San Diego,CA,92103,(619)291-7900,TX/OS/OR/IO/SS/
Comprehensive Health Center,Project Hope,,1760 Euclid Avenue,,San Diego,CA,92105,(619)527-0141,TX/PV/OS/IO/PW/SS/
Crash,Golden Hill House,,2410 E Street,,San Diego,CA,92102,(619)239-9691,TX/OS/RR/DD/HV/SS/TC/
Crash,Options for Recovery Central,,5605 El Cajon Boulevard,,San Diego,CA,92115,,TX/PV/OS/IO/PW/SS/MD/
Crash,Short Term/RDF,,4161 Marlborough Avenue,,San Diego,CA,92105,(619)239-9691,TX/RR/SS/TC/
Crash,South City Regional Center,,220 North Euclid Avenue,Suite 120 and 130,San Diego,CA,92114-3618,(619)263-6663,TX/OS/OR/IO/AD/SS/
Crash Short Term II,,,4890 67th Street,,San Diego,CA,92115,(619)239-9691 Hotline: (619)233-8054,TX/OS/RR/HV/SS/TC/
Crossroads Foundation,,,3594 4th A venue,,San Diego,CA,92103,(619)296-1151,TX/PV/OS/RR/DD/HV/PW/SS/
Episcopal Community Services (ECS),Mid City Regional Recovery Center,,2855 El Cajon Boulevard,,San Diego,CA,92104,(619)282-3322,TX/PV/OS/OR/IO/AD/DD/HV/PW/SS/CO/
Ethridge Center Inc,,,2230 Logan A venue,,San Diego,CA,92113,(619)231-6361,TX/PV/OS/RR/SS/CO/
Family Center for Substance,,,1959 Grand A venue,,San Diego,CA,92109-4511,(858)908-7610,TX/OS/OR/AD/SG/
Freedom House Community Connection,Resource Center,,43 I 8 Louisiana Street,,San Diego,CA,92104,,TX/OS/OR/RR/SS/TC/CJ/
HHS South Bay Drug Court,Treatment and Testing Program,,1515 Palm Avenue,Suite A,San Diego,CA,92101,(619)429-4117,TX/PV/OS/OR/IO/SS/FG/
House of Metamorphosis,Parolee Partnership Program,,412 30th Street,,San Diego,CA,92102,(619)236-9492 Hotline: (619)236-9492,TX/PV/OS/RR/HV/CJ/
House of Metamorphosis,Residential,,2970 Market Street,,San Diego,CA,92102,(619)236-9492 Hotline:,TX/PV/OS/RR/SS/TC/
Isis Center,,,892 27th Street,,San Diego,CA,92154,(619)575-4687,TX/PV/OS/RR/DD/SS/CM/
Kaiser Permanente Medical Group,Chemical Dependency Recovery Program,,3420 Kenyon Street,,San Diego,CA,92110-5009,(619)221-6550,"TX/PV/OS/DT/OD/OR/IQ/,A/DDD/SS/PI/"
Kearny Mesa Regional Recovery Center,,,7601 Convoy Court,,San Diego,CA,92111,(858)292-5670,TX/PV/OS/OR/IO/AD/SS/
MAAC Project Recovery Home,Casa de Milagros,,1127 South 38th Street,,San Diego,CA,92113,(619)262-4002,TX/OS/RR/SS/PI/
Mental Health Systems,Harmony Womens Recovery Center,,6150 Mission Gorge Road,Suite 116,San Diego,CA,92120,(619)282-7644,TX/PV/OS/OR/IO/AD/DD/HV/PW/SS/CJ/
Mental Health Systems,Mid Coast Counseling and Recovery Ctr,,4926 Savannah Street,Suite 175,San Diego,CA,92110-3825,(619)276-1207,TX/PV/OS/OR/IO/AD/DD/PW/SS/CJ/
Mental Health Systems,Probationers in Recovery/Metro,,6153 Fairmont A venue,Suite 102,San Diego,CA,92120,(619)281-1292 Hotline: (800)479-3339,TX/OS/OR/IO/SS/FG/
Mesa Vista Hospital,Chemical Dependency Program,,7850 Vista Hill A venue,,San Diego,CA,92123,(858)694-8300 Hotline: (800)734-3477,TX/OS/DT/IO/ID/IR/DD/PH/MC/MD/PI/
New Hope Center,,,4324 34th Street,,San Diego,CA,92104,(619)280-7500,TX/PV/OS/OR/DD/SG/
Partners in Prevention Education and,Recovery,,3274 Rosecrans Street,,San Diego,CA,92110,(619)222-1714,TX/PV/OS/OR/AD/SS/OH/CJ/
Pathfinders of San Diego,Recovery Home,,2980 Cedar Street,,San Diego,CA,92102,(619)239-7370,TX/OS/RR/SS/HH/FG/
Rand Recovery Resources,,,2206 Balboa A venue,,San Diego,CA,92109,(858)274-6642 Hotline: (800)375-7263,TX/PV/OS/OR/IO/RD/RR/DD/SS/HH/MC/FG/PI
San Diego Center for Psychotherapy,,,600 B Street,Suite 1420,San Diego,CA,92101,(619)234-8139,TX/OS/OR/AD/DD/SG/MC/MD/PI/
San Diego Community Treatment Center,,,502 10th A venue,,San Diego,CA,92101,(619)239-7181,TX/PV/OS/DT/RD/SS/
San Diego Health Alliance,West Office,,7020 Friars Road,,San Diego,CA,92108,(619)718-9890,TX/ML/DT/OD/OR/IO/SS/MD/
San Diego Treatment Services,Home A venue Clinic,,3940 Home A venue,,San Diego,CA,92105,(619)262-8000,TX/ML/PV/OS/DT/OD/OR/DD/SS/GH/SG/MD/FG
San Diego Youth and Community Services,Teen Options,,3660 Fairmount A venue,,San Diego,CA,92105,(619)521-2250 Hotline: (619)239-4688,TX/PV/OS/OR/IO/AD/SS/CO/
Scripps Clinic,Chemical Dependency Treatment Program,,4320 La Jolla Village Drive,Suite 140,San Diego,CA,92122-1204,(858)622-0394,TX/OS/DT/OD/OR/IO/DD/CM/MC/PI/
Stepping Stone Inc,Long Term Rehabilitation,,3767 Central Avenue,,San Diego,CA,92105,(619)584-4010 Hotline: (619)295-3995,TX/RR/DD/HV/SS/OH/
Stepping Stone of San Diego Inc,Nonresidential,,3425 5th A venue,,San Diego,CA,92103,(619)295-3995,TX/OS/IO/HV/SS/
Substance Abuse Counseling Center,Director of Marine Community Service,MCAS Miramar,,,San Diego,CA,92145-2008,,TX/PV/OS/IO/SS/FG/
Substance Abuse Rehab Department,Naval Station,,3075 Corbina Alley,Building 268,San Diego,CA,92136-5127,(619)556-7633,TX/PV/OS/OR/IO/SS/FG/
The Griffin and Wong Institute for,Education and Training,,2870 4th A venue,Suite 100,San Diego,CA,92103,(619)294-9852,TX/PV/OS/OR/CM/PI/
The Way Back,,,2516 A Street,,San Diego,CA,92102,(619)235-0592,TX/OS/RR/DD/HH/
Turning Point Home of San Diego,,,1315 25th Street,,San Diego,CA,92102,(619)233-0067,TX/OS/RR/SS/
Twelfth Step House,Heartland House,,5855 Streamview Drive,,San Diego,CA,92105,(619)287-5460,TX/OS/RR/SS/
US Marine Corps,Substance Abuse Counseling Center,Marine Corps Recruit Depot,Building 6-E,,San Diego,CA,92140,(619)524-1912,TX/PV/OS/IO/SS/
Union of Pan Asian Communities,Pan Asian Alcohol/Drug Treatment Prog,,3288 El Cajon Boulevard,Suite 13,San Diego,CA,92104,(619)521-5720,TX/OS/OR/IO/AD/DD/PW/SS/CO/MD/
Venture Day MHS Inc,,,6460 Boulder Lake A venue,,San Diego,CA,92119-3154,(619)698-9117,TX/PV/OS/OR/AD/SS/CM/MD/PI/
Veterans Affairs Medical Center,Alcohol and Drug Treatment Program,,3350 La Jolla Village Drive,Suite 116-A,San Diego,CA,92161,,TX/PV/OS/DT/OD/OR/IO/IR/DD/HV/GH/FG/
Vista Pacifica,,,7989 Linda Vista Road,,San Diego,CA,92111,(858)576-1200 Hotline: (800)734-3477,TX/PV/OS/DT/IO/ID/IR/OH/PI/
Volunteers of America,Alcoholism and Drug Services Center,,1111 Island A venue,,San Diego,CA,92101,(619)232-5171,TX/OS/DT/RD/RR/DD/SS/TC/
Volunteers of America,Alcoholism and Drug Services Center,,741 I Ith Avenue,,San Diego,CA,92101,(619)232-5171,TX/OS/RR/SS/TC/
Northeast Valley Health Corporation,Community Prevention/Recovery Program,,1053 North Maclay A venue,,San Fernando,CA,91340,(818)361-1211,TX/PV/OS/OR/SS/OH/
Addiction Rescarch/freatment CAL,Detox Market Clinic,,1111 Market Street,I st Floor,San Francisco,CA,94103,(415)863-3883,TX/ML/OS/DT/OD/OR/SS/MD/
Addiction Research/freatment CAL,Detox/ Administration,,1111 Market Street,,San Francisco,CA,94133,(415)552-7914,TX/ML/DT/OD/OR/HV/PW/SS/MD/PI/
Alcoholics Rehabilitation Association,First Step Home,,I 035 Haight Street,,San Francisco,CA,94117,(415)863-3661,TX/PV/RR/HH/
Asian American Recovery Services Inc,Residential,,2024 Hayes Street,,San Francisco,CA,94117,(415)750-5111,TX/PV/OS/RR/SS/TC/
Baker Places,Acceptance Place,,673 San Jose A venue,,San Francisco,CA,94110,(415)695-1708,TX/OS/RR/DD/HV/SS/
Baker Places,Ferguson Place,,1249 Scott Street,,San Francisco,CA,94115,(415)922-9104,TX/OS/RR/DD/HV/SS/FG/
Bay Area Service Network Residential,of Haight Ashbury Clinics,,111 Taylor Street,Suite 301,San Francisco,CA,94102,(415)487-5626 Hotline: (415)487-5626,TX/PV/OS/RR/SS/
Bayview Hunters Point Foundation,Alice Griffith Treatment Center,,43 Nichols Street,,San Francisco,CA,94124,(415)822-2477,TX/PV/OS/OR/DD/SS/
Bayview Hunters Point Foundation,Substance Abuse Programs,,1625 Carroll Street,,San Francisco,CA,94124,,TX/ML/PV/OS/DT/OD/OR/IO/DD/SS/MD/
Bayview Hunters Point Foundation,Youth Services,,5015 3rd Street,,San Francisco,CA,94124,(415)822-1585,TX/PV/OS/IO/AD/SS/CH/
Center on Juvenile and Crim Justice,Supportive Living Program,,1671 25th Avenue,,San Francisco,CA,94122,(415)621-5661,TX/PV/OS/RR/SS/
Epiphany Center Outpatient Treatment,,,100 Masonic A venue,,San Francisco,CA,94118,(415)567-9121,TX/OS/IO/DD/HV/PW/SS/
Fort Help,Methadone Program,,495 3rd Street,,San Francisco,CA,94107,(415)777-9953 Hotline: (415)777-9953,TX/ML/PV/OS/OR/HV/PW/SS/
Freedom From Alcohol and Drugs,Unit H,,1362 and 1366 48th A venue,,San Francisco,CA,94122,(415)665-8077 Hotline: (415)665-9323,TX/PV/OS/RR/DD/HV/SS/TC/
Freedom From Alcohol and Drugs,Unit Ill,,1569-1569A and 15698 48th Avenue,,San Francisco,CA,94122,(415)665-8077 Hotline: (415)665-9323,TX/OS/RR/SS/TC/
Freedom From Alcohol and Drugs,,,1353 48th A venue,,San Francisco,CA,94122,(415)665-8077 Hotline: (415)665-8077,TX/PV/OS/RR/SS/
Friendship House Association of,American Indians,,80 Julian A venue,,San Francisco,CA,94103,(415)431-6323,TX/PV/OS/RR/SS/FG/
Golden Gate for Seniors,,,637 South Yan Ness Avenue,,San Francisco,CA,94110,(415)626-7553,TX/PV/OS/RR/DD/SS/TC/
Good Shepherd Grace Center,,,250 Amherst Street,,San Francisco,CA,94134,(415)586-2822,TX/RR/SS/
Haight Ashbury Free Clinics,Alcohol Treatment Services,,425 Divisadero Street,Suite 201,San Francisco,CA,94117,(415)487-5634,TX/PV/OS/OR/DD/SS/
Haight Ashbury Free Clinics,Bill Pone Memorial Unit,,1696 Haight Street,,San Francisco,CA,94117,(415)565-1927,TX/PV/OS/DT/OD/AD/SS/
Haight Ashbury Free Clinics,Black Extended Family,,330 Ellis Street,Office 104,San Francisco,CA,94102,(415)771-4909,TX/PV/OS/OR/IO/SS/
Haight Ashbury Free Clinics,Drug Detoxification Project,,529 Clayton Street,,San Francisco,CA,94117,(415)565-1909,TX/OS/DT/OD/OR/DD/HV/SS/MD/
Haight Ashbury Free Clinics,Smith House,,766 Stanyan Street,,San Francisco,CA,94117,(415)487-5622,TX/OS/IO/AD/DD/SS/CM/MD/FG/
Henry Ohlhoff House,Outpatient Program,,2423 Clement Street,,San Francisco,CA,94121,(415)221-3354,TX/PV/OS/OR/IO/AD/DD/HV/SS/MD/PI/
Henry Ohlhoff House,,,60 I Steiner Street,,San Francisco,CA,94117,(415)626-9782,TX/OS/IO/IR/RR/SS/HH/PI/
Henry Ohlhoff Outpatient Programs,,,2418 Clement Street,,San Francisco,CA,94121,(415)221-3354,TX/PV/OS/OR/IO/AD/DD/SS/MC/PI/
Iris Center,Womens Counseling and Recovery Servs,,333 Valencia Street,Suite 222,San Francisco,CA,94103,(415)864-2364,TX/PV/OS/OR/IO/DD/HV/PW/SS/FG/
Jelani House,,,160 I Quesada A venue,,San Francisco,CA,94124,(415)822-5977,TX/OS/RR/DD/HV/PW/SS/TC/
Jelani Outpatient Services,,,1588 Quesada Avenue,,San Francisco,CA,94124,(415)822-5944,TX/PV/OS/OR/IO/PW/SS/
Kaiser Permanente Hospital,Chemical Dependency Recovery Program,,1201 Fillmore Street,,San Francisco,CA,94115,(415)292-5030,TX/PV/OS/DT/OD/OR/IO/AD/DD/HV/PW/GH/
Laguna Honda Hospital,Rehabilitation Center,,375 Laguna Honda Boulevard,,San Francisco,CA,94116-1499,(415)664-1580,TX/PV/OS/ID/IR/DD/HV/OH/
Liberation House Programs,,,1724 Steiner Street,,San Francisco,CA,94115,(415)563-4357,TX/OS/RR/SS/CJ/FG/
Milestones,,,291 10th Street,,San Francisco,CA,94103,(415)522-1230,TX/PV/OS/OR/IO/RR/HV/SS/TC/
Mission Council on Alcohol Abuse for,The Spanish Speaking,,820 Valencia Street,,San Francisco,CA,94110,(415)826-6767 Hotlines: (415)826-6767 (415)826-6096,TX/PV/OS/OR/IO/DD/HV/SS/CM
Monisania West,,,205 13th Street,Suite 3300,San Francisco,CA,94103,(415)552-4660,TX/PV/OS/IO/AD/SS/
New Leaf,Substance Abuse Services,,1853 Market Street,,San Francisco,CA,94103,(415)626-7000,TX/PV/OS/OR/DD/HV/SS/MD/PI/
North of Market Senior Services,Senior Alcohol and Drug Programs,,333 Turk Street,,San Francisco,CA,94102,(415)885-2274,TX/PV/OS/OR/DD/CH/
Portero Hill Neighborhood House,ZAP Project,,953 Haro Street,,San Francisco,CA,94107,(415)826-8091,TX/PV/OS/OR/IO/AD/SS/CO/
Project Adapt,,,2020 Hayes Street,,San Francisco,CA,94117,(415)750-5111,TX/OS/IO/SS/
Saint Anthonys Foundation,Covenant House,,818 Steiner Street,,San Francisco,CA,94117,(415)241-8340,TX/RR/SS/
Saint Vincent DePaul Society of SF,Ozanam Reception Center,,1175 Howard Street,,San Francisco,CA,94103,(415)864-3057 Hotline: (415)621-6471,TX/OS/DT/RD/SS/
Salvation Anny Harborlight Center,Detox Primary Programs,,1275 Harrison Street,,San Francisco,CA,94103,(415)864-7000,TX/OS/DT/RD/RR/DD/HV/HH/CO/
San Francisco General Hospital,Stimulant Treatment Outpatient Program,,3180 18th Street,Suite 205,San Francisco,CA,94110,(415)502-5777,TX/OS/DT/OD/OR/IO/DD/HV/PW/SS/GH/MD/FG/
San Francisco General Hospital (SFGH),Opiate Trt Outpt Prog/Methadone Detox,,100 I Potrero A venue,Building 90 Ward 93,San Francisco,CA,94110,(415)206-8000,TX/ML/OS/DT/OD/OR/HV/SS/GH/
San Francisco General Hospital (SFGH),Substance Abuse Servs/Meth Maintenance,,1001 Potrero Avenue,Building 90 Ward 93,San Francisco,CA,94110,(415)206-8412,TX/ML/OS/DT/OD/OR/IO/DD/HV/SS/GH/MD/FG/
Swords to Plowshares,Veterans Rights Organization,,I 063 Market Street,,San Francisco,CA,94103,(415)247-8777,TX/PV/OS/OR/CO/MD/
Twelve Step Programs,,,4049 Judah Street,Suite B,San Francisco,CA,94122,(415)566-4357,TX/PV/OS/OR/DD/HV/SS/
Veterans Affairs Medical Center,Substance Abuse Program,,4150 Clement Street,Suite 116-E,San Francisco,CA,94121,,TX/ML/PV/OS/DT/OD/OR/IO/DD/HV/OH/
Walden House,Adolescent Program,,214 Haight Street,,San Francisco,CA,94102,(415)554-1480,TX/PV/OS/RR/AD/DD/SS/TC/SC/FG/PI/
Walden House,Adult Residential,,815 Buena Vista Street West,,San Francisco,CA,94117,(415)554-1450,TX/OS/RD/RR/DD/HV/SS/TC/CM/
Walden House,Multiservice Center,,1885 Mission Street,2nd Floor,San Francisco,CA,94103,(415)554-1130,TX/OS/OR/IO/DD/HV/SS/CM/FG/
Walden House,,,890 Hayes Street,,San Francisco,CA,94117,(415)241-5555,TX/OS/RD/RR/DD/HV/SS/TC/
Western Addition Recovery House,,,940 Haight Street,,San Francisco,CA,94117,(415)487-5647,TX/PV/OS/IO/DD/HV/PW/SS/HH/
Westside Community Mental Health Ctr,Inner City Program,,973 Market Street,Suite 300,San Francisco,CA,94103,(415)495-6071,TX/OS/JO/DD/HV/SS/
Westside Community Mental Health Ctr,Westside Methadone Treatment Program,,1153 Oak Street,,San Francisco,CA,94115,(415)353-5050,TX/ML/PV/OS/DT/OD/OR/IO/DD/HV/SS/MC/MD/PI
Westside Community Mental Health Ctr,Westside Youth Awareness Program,,1140 Oak Street,Suite IOI,San Francisco,CA,94117,(415)431-7701,TX/PV/OS/OR/AD/DD/CM/
Womens Alcoholism Center,Aviva House Recovery Home,,1724 Bryant Street,,San Francisco,CA,94110,(415)431-4404 Hotline: (415)296-9900,TX/OS/RR/DD/PW/SS/TC/MD/
Womens Alcoholism Center,Florette Pomeroy House,,2261-2263 Bryant Street,,San Francisco,CA,94110,(415)282-8901 Hotline: (415)296-9900,TX/OS/RR/DD/HV/PW/SS/TC/MD/FG/
Womens Alcoholism Center,Lee Woodward Counseling Center,,2201 Sutter Street,,San Francisco,CA,94115,(415)776-1001 Hotline:,TX/OS/OR/IO/DD/PW/SS/MD/
Womens Alcoholism Center,Mia House,,300 Holyoke Street,,San Francisco,CA,94132,(415)217-3950 Hotline: (415)296-9900,TX/OS/RR/DD/PW/SS/TC/HH/MD/
Family Counseling Services,,,314 East Mission Drive,,San Gabriel,CA,91776,(626)285-2139,TX/PV/OS/OR/IO/AD/DD/PW/SS/CM/
Fresno County Hispanic Commission on,Alcohol and Drug Abuse Services,,2640 Jensen A venue,,Sanger,CA,93657,(559)875-0249,TX/PV/OS/OR/SS/
Anderson Assoc Counseling Services,,,166 East Main Street,Suite 2,San Jacinto,CA,92583,(909)654-8947,TX/PV/OS/IO/SS/
La Vista Alcohol/Drug Recovery Center,,,2220 Girard Street,,San Jacinto,CA,92581,(909)925-8450,TX/OS/DT/RD/RR/PW/SS/
ACT Consulting Services,,,2901 Moorpark A venue,Suite 294,San Jose,CA,95128-2505,(408)248-9011,TX/IO/AD/DD/SS/SG/PI/
ARH Recovery Homes,House on The Hill,,9505 Malech Road,,San Jose,CA,95138,(408)463-0942,TX/OS/RR/DD/PW/SS/TC/PI/
ARH Recovery Homes,Treatment Options,,2345 and 2355 Mather Drive,,San Jose,CA,95116,(408)926-2666,TX/OS/RR/SS/TC/CJ/
ARH Recovery Homes Inc,Mariposa Lodge,,9500 Malech Road,,San Jose,CA,95151,(408)463-0131,TX/OS/DT/RD/RR/DD/HV/PW/SS/
Adult and Child Guidance Center,Cornadres Program,,380 North I st Street,Suite 200,San Jose,CA,95112,(408)288-6200,TX/PV/OS/OR/AD/HV/SS/CM/CO/MD/
Adult and Child Guidance Center,Compadres Program,,950 West Julian Street,,San Jose,CA,95126,(408)292-9353,TX/PV/OS/OR/AD/HV/SS/CM/CO/
Alert Driving Inc (ADI),Advanced Drug Diversion Institute,,3150 Almaden Expressway,Suite 145,San Jose,CA,95118,(408)445-0491,TX/PV/OS/OR/DD/HV/SS/
Alexian Associates Family,Psychology and Counseling,,3 110 Provo Court,Suite A,San Jose,CA,95127-1034,(408)272-4321,TX/PV/OS/OR/AD/SG/
Asian American Recovery Services,,,1370 Tully Road,Suite 501 and 502,San Jose,CA,95122,(408)271-3900,TX/PV/OS/OR/IO/AD/SS/
Asian Americans for,Community Involvement,,2400 Moorpark A venue,Suite 300,San Jose,CA,95128-2680,(408)975-2730,TX/PV/OS/OR/AD/DD/CM/SC/CJ/
Benny McKeown Center,,,1281 Fleming A venue,,San Jose,CA,95127,(408)259-6565,TX/OS/RR/DD/HV/SS/
Blossoms Perinatal Center,Gardner Family,,3030 Alum Rock Avenue,,San Jose,CA,95127,(408)254-3396,TX/PV/OS/IO/PW/SS/FG/
Central Treatment and Recovery Center,,,976 Lenzen Avenue,First Floor,San Jose,CA,95126,(408)299-7280 Hotline: (800)488-9919,TX/OS/OR/DD/SS/MD/
Central Valley Methadone Clinic,,,2425 Enborg Lane,,San Jose,CA,95128,(408)885-5400 Hotline: (800)488-9919,TX/ML/PV/OS/DT/OD/OR/IO/DD/HV/PW/SS/MD/
Charter Behavioral Health System of,San Jose,,455 Silicon Valley Boulevard,,San Jose,CA,95138,(408)224-2020,TX/PV/OS/DT/OR/IO/ID/AD/DD/PH/MC/MD/PI/
Columbia Good Samaritan Hospital,Recovery Center,,2425 Samaritan Drive,,San Jose,CA,95124,(408)559-2000,TX/OS/DT/OR/IO/ID/DD/GH/PI/
Combined Addicts and Professionals,Services (CAPS) Residential Unit,,398 South 12th Street,,San Jose,CA,95112,(408)294-5425,TX/OS/RR/PW/SS/TC/
Combined Addicts and Professionals,Services (CAPS)/Outpatient Program,,693 South 2nd Street,,San Jose,CA,95112,(408)995-3820,TX/OS/OR/SS/
Drug Abuse Treatment,,,2220 Moorpark A venue,,San Jose,CA,95128,(408)885-5400,TX/ML/OS/DT/OD/OR/PW/SS/MD/
East Valley Treatment and Recovery,,,1675 Burdette Drive,Suite B,San Jose,CA,95121,(408)270-2587 Hotline: (800)488-9919,TX/OR/DD/SS/MD/
Economic and Social Opportunities Inc,Rehab Health Services,,1445-1447 Oakland Road,,San Jose,CA,95112,(408)289-1070,TX/PV/OS/OR/AD/HV/SS/
Fortunes Inn,ARH Recovery Homes,,52 South 12th Street,,San Jose,CA,95112,(408)293-6372,TX/PV/OS/RR/HV/SS/TC/HH/CJ/
Horizon Services,Horizon South,,650 South Bascom Avenue,,San Jose,CA,95128,(408)283-8555 Hotline: (408)283-8555,TX/OS/DT/RD/RR/DD/SS/
Indian Health Center of,Santa Clara Valley Inc,,1333 Meridan A venue,,San Jose,CA,95125,(408)445-3400,TX/PV/OS/OR/AD/DD/PW/CH/
National Traffic Safety Institute,,,275 North 4th Street,2nd Floor,San Jose,CA,95112,(408)297-7200,TX/PV/OS/OR/SS/
Office of Children Adolescent and,Family Services (OCAFS)/Foothill,,230 Pala A venue,,San Jose,CA,95127,(408)299-2304,TX/PV/OS/OR/AD/DD/SS/SC/MD/
Pate House Recovery Home,,,35 South 12th Street,,San Jose,CA,95112,(408)295-4143,TX/PV/OS/OR/IO/RR/DD/SS/OH/TC/
Pathway House,,,102 South I Ith Street,,San Jose,CA,95112,(408)244-1834,TX/OS/RR/SS/TC/FG/
Proyecto Primavera,Garner Family Care Corporation,,614 Tully Road,,San Jose,CA,95111,(408)977-1591 Hotline: (800)488-9919,TX/PV/OS/OR/SS/CO/
Support Systems Homes Inc,Support Systems Homes III,,1032 Thornton Way,,San Jose,CA,95128,(408)370-9688,TX/OS/OR/IO/RR/SS/HH/CJ/
Willow Home,,,808 Palm Street,,San Jose,CA,95110,(408)294-5072,TX/PV/OS/IO/RR/DD/SS/TC/CJ/
San Leandro,,,15400 Foothill Boulevard,,San Leandro,CA,94578,(510)357-4202,TX/ML/DT/OD/OR/PW/SS/MD/
Horizon Community Center,,,1403 164th Avenue,,San Leandro,CA,94578,(510)481-3491 Hotline: (510)481-3491,TX/PV/OS/OR/IO/DD/SS/
Telecarc Vida Nuvca,,,15750 Foothill Boulevard,,San Leandro,CA,94578-1012,(510)357-7198,TX/PV/OS/DT/RD/DD/SS/OH/PI/
Cottage Care Outpatient Center of,San Luis Obispo,,555 Chorro Street,Suite D-2,San Luis Obispo,CA,93405,(805)541-9113,TX/OS/OD/OR/IO/AD/SS/MC/PI/
Life Steps,Drug Alcohol Free Living Center,,1217 Mill Street,,San Luis Obispo,CA,93401,(805)545-5870,TX/PV/OS/RR/PW/SS/
San Luis Obispo County,Drug and Alcohol Services,,1102 Laurel Lane,,San Luis Obispo,CA,93401,(805)781-4275,TX/PV/OS/DT/OD/OR/IO/AD/DD/HV/PW/SS/MC/MD/
Mental Health Systems,Teen Recovery Center/North,,150 Valprcda Road,Suite 104,San Marcos,CA,92069,(760)744-3672,TX/PV/OS/OR/IO/AD/SS/
Occupational Health Services,,,1637 Capalina Road,,San Marcos,CA,92069,,TX/PV/OS/OR/CJ/
San Diego Health Alliance,North Office,,1560 Capalina Street,Suite A,San Marcos,CA,92069,(760)744-2104,TX/OS/DT/OD/OR/SS/
Santa Clara Bureau of Alcohol and,Drug Programs/South County Meth Clinic,,80 West Highland Avenue,,San Martin,CA,95046,(408)683-4053 Hotline: (800)488-9919,TX/ML/OS/DT/OD/OR/SS/MD/
Palm Avenue Detox,,,225 I Palm A venue,,San Mateo,CA,94403,(650)345-8265,TX/OS/DT/RD/RR/SS/
Project Ninety,,,15 9th Avenue,,San Mateo,CA,94401,(650)579-7881,TX/OS/OR/RR/AD/DD/HV/SS/FG/PI/
Solidarity Family Center,,,1668 South Norfolk Street,,San Mateo,CA,94403,(650)341-3803,TX/PV/OS/OR/SS/TC/HH/
Solidarity Fellowship,Mission House,,1679 South Norfolk Street,,San Mateo,CA,94402,(650)341-3803,TX/PV/OS/OR/IO/RR/SS/TC/
Ujima Family Recovery Services,The Rectory,,1901 Church Lane,,San Pablo,CA,94806,(510)236-3134,TX/OS/RR/PW/SS/
Beacon House,Lighthouse,,130 West 10th Street,,San Pedro,CA,90731,(310)514-4940,TX/RR/SS/
Beacon House Association,,,I 003 South Beacon Street,,San Pedro,CA,90731,,TX/OS/RR/SS/
Beacon House Association of San Pedro,Channel View House,,124 West I Ith Street,,San Pedro,CA,90731,(310)514-4940,TX/PV/OS/RR/SS/
Beacon House Association of San Pedro,Palos Verdes House,,1012 South Palos Verdes Street,,San Pedro,CA,90731,(310)514-4940,TX/OS/RR/SS/
Fred Brown Recovery Services,,,13th Street House,1235 West 13th Street,San Pedro,CA,90731,(310)519-8723 Hotlincs: (310)519-1117,TX/RR/DD/SS/TC/
Fred Brown Recovery Services,,,19th Street Services,856 West 19th Street,San Pedro,CA,90731,(310)519-8723,TX/PV/DT/OD/RD/RR/DD/SS/TC/SG/CJ/
Fred Brown Recovery Services,Womens House,,270 West 14th Street,,San Pedro,CA,90731,(310)519-8723 Hotlines: (310)519-1117 (310)519-8723,TX/PV/OS/OR/IO/RR/DD/SS/TC/CJ/
Fred Browns Recovery Services,Mesa House,,349 West 14th Street,,San Pedro,CA,90731,(310)519-8723,TX/PV/OS/RR/SS/PI/
House of Hope Foundation,,,235 West 9th Street,,San Pedro,CA,90731,(310)831-9411,TX/PV/OS/RR/SS/TC/
Joint Efforts Inc,Outpatient Services,,505 South Pacific A venue,Suite 205,San Pedro,CA,90731,(310)831-2358,TX/PV/OS/OR/AD/DD/HV/PW/SS/CO/FG/
San Pedro Peninsula Hospital,Chemical Dependency Treatment Center,,1386 West 7th Street,,San Pedro,CA,90732,(310)514-5300,TX/PV/OS/DT/OR/IO/ID/IR/DD/SS/GH/HH/
Bay Area Community Resource,Marin County Drinking Driver Program,,I I 8 Alto Street,,San Rafael,CA,94901,(415)453-9980,TX/OS/OR/SS/CJ/
Center Point,Lifelink Perinatal Services,,1477 Lincoln A venue,,San Rafael,CA,94901,(415)454-9444,TX/OS/RR/HV/PW/SS/TC/
Center Point,Nonresidential Services,,160 I 2nd Street,Suite 104,San Rafael,CA,94901,(415)456-6655,TX/OS/OR/IO/HV/SS/
Center Point,The Manor,,603 D Street,,San Rafael,CA,94901,(415)456-6655,TX/OS/RR/HV/SS/TC/
Henry Ohlhoff Outpatient Programs,,,526 3rd Street,,San Rafael,CA,94901,(415)385-0382,TX/PV/OS/OR/IO/AD/SS/PI/
Kaiser Permanente Medical Group,Chemical Dependency Services,,820 Las Gallinas A venue,,San Rafael,CA,94903,(415)444-3531,TX/PV/OS/DT/OD/OR/IO/ID/AD/DD/SS/PI/
Marin Services for Men,,,424 Mission A venue,,San Rafael,CA,94901,(415)485-6736,TX/PV/OS/OR/RR/HH/
Marin Treatment Center,Outpatient Services,,1466 Lincoln Avenue,,San Rafael,CA,94901,(415)457-3755,TX/ML/PV/OS/DT/OD/OR/IO/HV/SS/MC/MD
New Bridge Foundation of San Ramon,,,125 Ryan Industrial Court,Suite 202,San Ramon,CA,94583,(925)838-9900,TX/PV/OS/OR/IO/AD/SS/FG/PI/
San Ramon Regional Medical Center,New Beginnings,,6001 Norris Canyon Road,,San Ramon,CA,94583,(925)275-8292 Hotline: (925)275-8292,TX/PV/OS/DT/OR/IO/ID/IR/DD/GH/MC/FG/PI/
Addiction Alternatives,,,1851 East 1st Street,Suite 840,Santa Ana,CA,92705,,TX/PV/OS/OR/SG/
California Treatment Services,Third Street Clinic,,717 East 3rd Street,,Santa Ana,CA,92701,(714)542-3581,TX/ML/OS/DT/OD/SS/MD/
Cornerstone Adult Outpatient,,,2130 East 4th Street,Suite 160,Santa Ana,CA,92705-3827,(714)547-4300,TX/PV/OS/OR/IO/RD/RR/SS/CJ/
Orange County Health Care Agency,BHC Narcotic Treatment Program,,1725 West 17th Street,Room 146-B,Santa Ana,CA,92701,(714)834-8600,TX/MU/OR/HV/PW/SS/MC/MD/PI/
Orange County Health Service Agency,Orange County Drug Court,,1200 North Main Street,Suite 630,Santa Ana,CA,92701,(714)568-4279,TX/OS/OR/IO/CJ/
Phoenix House,Adult and Adolescent Programs,,1207 East Fruit Street,,Santa Ana,CA,92701,Hotlines: (800)262-2463 (800)274-7479,TX/PV/OS/OR/IO/RR/DD/HV/SS/TC/CJ/FG/
Santa Ana Alcohol and Drug Abuse Servs,,,1200 North Main Street,Suite 100-B,Santa Ana,CA,92701,(714)568-4165 Hotline: (714)568-4165,TX/PV/OS/OR/IO/AD/DD/HV/PW/SS/
Straight Talk,Gerry House,,1225 West 6th Street,,Santa Ana,CA,92703,(714)972-1402,TX/RR/DD/HV/PW/SS/
Straight Talk,Gerry House West,,217 North Cooper Street,,Santa Ana,CA,92703,(714)554-2292,TX/PV/OS/RR/DD/HV/SS/TC/SC/CJ/FG/
Villa Center,,,910 North French Street,,Santa Ana,CA,92701,(714)541-2732,TX/OS/RR/SS/
Aegis Medical Systems,Santa Barbara,,217 Camino de! Remedio Street,,Santa Barbara,CA,93110,(805)964-4795,TX/ML/OS/DT/OD/OR/SS/MD/
American Indian Health Services,,,4141 State Street,Suite B-6,Santa Barbara,CA,93110,(805)681-7356,TX/PV/OS/OR/DD/HV/CH/FG/
Community Counseling Center,,,923 Olive Street,Suite 1,Santa Barbara,CA,93101,(805)962-3363,TX/OR/AD/HV/
Council on Alcoholism and Drug Abuse,,,232 East Canon Perdido Street,,Santa Barbara,CA,93102,(805)963-1433,TX/PV/OS/OD/OR/IO/AD/DD/HV/PW/SS/CJ/MD/PI/
Drug Abuse Preventive Center,,,24 West Arrellaga Street,,Santa Barbara,CA,93101,(805)965-6591,TX/PV/OS/RR/SS/
Gay and Lesbian Resource Center,Counseling and Recovery Services,,126 East Haley Street,Suite A-11,Santa Barbara,CA,93101,(805)963-3636,TX/OS/OR/HV/CO/
Sansum/Santa Barbara Med Foundation,Clinic/Foundation For Recovery,,215 Pesetas Lane,,Santa Barbara,CA,93110,(805)681-7517,TX/OS/DT/OD/IO/ID/DD/SS/OH/SG/
Santa Barbara Cottage Hospital,,,419 Pueblo Street,,Santa Barbara,CA,93102,(805)569-7815 Hotline: (805)569-8339,TX/OS/DT/OD/OR/IO/ID/IR/SS/GH/CJ/MC/MD/PI/
Santa Barbara Council on,Ale and Drug Abuse/Project Recovery,,133 East Haley Street,,Santa Barbara,CA,93101,(805)963-1433,TX/PV/OS/DT/OD/IO/AD/DD/HV/PW/SS/MD/
Santa Barbara County Sheriff,Custody Department,,4436 Calle Real Street,,Santa Barbara,CA,93110,(805)681-4245,TX/OS/RR/CJ/
Santa Barbara Rescue Mission,Bethel House,,535 East Yanonali Street,,Santa Barbara,CA,93103,(805)966-1316,TX/OS/RR/SS/TC/CO/
Zona Seca,Alcohol and DA Counseling Agency,,26 West Figueroa Street,,Santa Barbara,CA,93101-3104,(805)963-8961,TX/PV/OS/OR/IO/AD/DD/SS/CJ/MC/MD/
Pathway Society,,,1659 Scott Boulevard,Suite 30,Santa Clara,CA,95050,(408)244-1834 Hotline: (408)998-5191,TX/PV/OS/OR/AD/DD/SS/HH/CM/CO/PI/
Community Support Services,,,290 Pioneer Street,,Santa Cruz,CA,95060,(831)459-0444,TX/OS/OR/IO/DD/CM/MD/
Janus of Santa Cruz,,,200 7th A venue,Suite 150,Santa Cruz,CA,95062,(831)462-1060 Hotline: (831)462-1770,TX/PV/OS/DT/OR/IO/RD/RR/DD/HV/PW/SS/PI/
Narconon International,Narconon of Northern California,,8699 Empire Grade Road,,Santa Cruz,CA,95060,(831)423-6903,TX/PV/OS/DT/IO/RD/RR/SS/TC/SC/CJ/PI/
New Life Community Services Inc,,,707 Fair A venue,,Santa Cruz,CA,95060,(831)427-1007 Hotlines: (831)427-1007 (831)458-1668,TX/PV/OS/OR/IO/RR/DD/SS/
Santa Cruz Community Counseling Center,Alto Counseling Center/North,,271 Water Street,,Santa Cruz,CA,95060,(831)423-2003,TX/PV/OS/OR/DD/SS/
Santa Cruz Community Counseling Center,Sunflower House,,125 Rigg Street,,Santa Cruz,CA,95060,(831)761-5422,TX/RR/DD/HV/SS/TC/FG/
Santa Cruz Community Counseling Center,Youth Services North County,,709 Mission Street,,Santa Cruz,CA,95060,(831)425-0772 Hotlines: (831)425-0771 (831)728-2226,TX/PV/OS/OR/IO/AD/DD/SS/SC/MD/
Sobriety Works,,,1051 41st Avenue,,Santa Cruz,CA,95062-4400,(831)476-1747,TX/OS/IO/SS/PI/
Triad Santa Cruz Clinic,Outpatient Methadone Maintenance,I 000-A Emeline A venue,,,Santa Cruz,CA,95060,(831)425-0112,TX/ML/PV/OS/DT/OD/OR/AD/DD/HV/PW/SS/MD/
Womens Crisis Support,Shelter Services,,1658 Soquel Drive,Suite A,Santa Cruz,CA,95065,(831)477-4244 Hotline: (831)429-1477,TX/PV/OS/OR/PW/SS/CO/
Aegis Medical Systems Inc,Santa Maria Unit,,115 East Fesler Street,,Santa Maria,CA,93454,(805)922-6597,TX/ML/OS/DT/OD/OR/SS/MC/MD/
Central Coast Headway,Drug and Alcohol Awareness Program,,318 West Carmen Lane,,Santa Maria,CA,93454,(805)922-2106,TX/PV/OS/OR/IO/DD/SS/MD/FG/
Charles Golodner Counseling Center,,,301 South Miller Street,Suite 205,Santa Maria,CA,93454,(805)349-2255,TX/OS/OR/SS/SG/FG/PI/
Cottage Care Outpatient Center of,Santa Maria,,20 I South Miller Street,Suite 105,Santa Maria,CA,93454,(805)922-5764,TX/OS/OR/IO/DD/SS/CO/CJ/
Family Life Counseling Services,,,301 South Miller Street,Suite 103,Santa Maria,CA,93454,,TX/PV/OS/OR/AD/DD/HV/PW/SS/CM/PI/
Good Samaritan Shelter,Recovery Point,,406 South Pine Street,,Santa Maria,CA,93454,(805)928-6242,TX/OS/DT/OD/IO/RD/PW/SS/CO/MD/
Alcoholism Council West Area,High Gain Project,,1424 4th Street,Suite 205,Santa Monica,CA,90401,(310)451-5881 Hotline: (310)451-5881,TX/PV/OS/OR/SS/
Clare Drug Court Program,,,I 002 Pico Boulevard,,Santa Monica,CA,90404,(310)314-6244,TX/OS/IO/SS/
Clare Foundation,Adult Recovery Home,,1871 9th Street,,Santa Monica,CA,90404,(310)314-6238,TX/OS/RR/SS/FG/
Clare Foundation,Santa Monica Recovery/Detox Center,,907 West Pico Boulevard,,Santa Monica,CA,90404,(310)314-6215 Hotline: (310)314-6215,TX/OS/DT/RD/RR/SS/
Clare Foundation,Signs of Recovery Program,,I 023 Pico Boulevard,,Santa Monica,CA,90405,(310)450-4184 Hotline: (310)450-4164,TX/PV/OS/RR/HV/PW/SS/
Saint Johns Hospital and Health Center,Chemical Dependency Center,,1328 22nd Street,,Santa Monica,CA,90404,(310)829-8905,TX/PV/OS/DT/ID/IR/DD/HV/PW/GH/
Santa Monica Bay Area,Drug Abuse Council/New Start,,2714 Pico Boulevard,Suite 210,Santa Momca,CA,90405,(310)452-0717,TX/ML/PV/DT/OD/OR/IO/IR/AD/SS/OH/PI/
Community Health Projects,Community Health Projects Santa Paula,,625 East Main Street,,Santa Paula,CA,93060,(805)525-4669,TX/ML/OS/DT/OD/IO/SS/MD/
Rainbow Recovery Youth Center,,,15005 Faulkner Road,,Santa Paula,CA,93060,(805)933-9064 Hotline: (805)933-9064,TX/PV/OS/RR/AD/DD/HV/SS/TC/CM/CO/SC/CJ/
Santa Clara Valley Ale Services United,Outpatient,,951 East Main Street,,Santa Paula,CA,93060,(805)525-9392,TX/PV/OS/OR/IO/AD/DD/SS/FG/
Santa Clara Valley Ale Services United,Recovery Home/Casa Un Paso Adelante,,222 8th Street,,Santa Paula,CA,93060,(805)525-8089,TX/OS/RR/DD/SS/FG/
Alcohol and Drug and Tobacco Serv Div,Ruth Place,IO 18 Ruth Place,,,Santa Rosa,CA,95401,(707)524-7450 Hotline: (707)524-7450,TX/OS/RR/SS/
Alcohol and Tobacco Services Division,Drinking Driver Program,,1300 Coddingtown Center,,Santa Rosa,CA,95401,(707)524-7450 Hotline: (707)524-7450,TX/OS/OR/SS/
California Human Development Corp,Athena House,,1539 Humboldt Street,,Santa Rosa,CA,95404,(707)526-3150,TX/OS/OR/RR/SS/
Campobello Chemical Dependency,Recovery Center,,3400 Guerneville Road,,Santa Rosa,CA,95401,(707)579-4066 Hotline: (800)805-1833,TX/PV/OS/DT/OD/OR/IO/RD/RR/SS/PI/
Casa Calmecac,,,857 Dutton A venue,,Santa Rosa,CA,95407,(707)573-1590 Hotline: (707)573-1590,TX/RR/SS/TC/
Drink/Link Moderation Programs,Products and Services,,,,Santa Rosa,CA,95402,(707)539-5465,TX/PV/OS/OR/SG/
Drug Abuse Alternatives Center,Outpatient Treatment,,2403 Professional Drive,,Santa Rosa,CA,95403,(707)544-3295,TX/PV/OS/OR/IO/AD/DD/SS/MD/PI/
Drug Abuse Alternatives Center,Perinatal Day Treatment,,2403 Professional Drive,,Santa Rosa,CA,95403,(707)544-3295,TX/OS/IO/AD/PW/SS/
Drug Abuse Alternatives Center,Redwood Empire Addictions Prog (REAP),,2403 Professional Drive,Suite 103,Santa Rosa,CA,95403,(707)526-2999,TX/ML/PV/OS/DT/OD/OR/IO/SS/MD/
Drug Abuse Alternatives Center,Turning Point,,2403 Professional Drive,Suite IOI,Santa Rosa,CA,95403,Hotline: (707)539-8868,TX/OS/RR/HV/SS/TC/FG/
Lower Lake Transitional Living Center,,,2403 Professional Drive,Suite 101,Santa Rosa,CA,95403,(707)526-2999,TX/OS/OR/IO/PW/SS/
R House,Oak Park Facility,,5136 Oak Park Way,,Santa Rosa,CA,95409,(707)539-2948,TX/OS/RR/AD/SS/TC/
Santa Rosa Treatment Program,,,190 I Cleveland A venue,Suite B,Santa Rosa,CA,95403,(707)576-0818,TX/ML/PV/OS/DT/OD/OR/IO/SS/MD/
Sonoma Cnty Ale/Drug/Tobacco Servs Div,Unity House,,920 West 8th Street,,Santa Rosa,CA,95401,(707)524-7450 Hotline: (707)524-7450,TX/OS/RR/SS/
Sonoma Cnty Dept of Health Services,Alcohol/Drug and Tobacco Services Div,,2759 Bennett Valley Road,,Santa Rosa,CA,95404,(707)524-7450 Hotline: (707)524-7450,TX/OS/DT/OR/RD/RR/AD/DD/SS/CJ/MD/
Sonoma County I ndian Health Project,Behavioral Health Department,,791 Lombardi Court,Suite I OI,Santa Rosa,CA,95407,(707)544-4056 Hotline: (707)544-4056,TX/PV/OS/DT/OD/OR/IO/ID//AD/DD/HV/PW/SS/
Villa Lodge,,,3640 Stony Point Road,,Santa Rosa,CA,95407,(707)584-0324,TX/OS/RR/HH/
Womens Recovery Services,A Unique Place,,98-140 Hendley Street,,Santa Rosa,CA,95401,(707)527-0412,TX/OS/OR/RR/AD/PW/SS/
Santa Ynez Tribal Health Clinic,Substance Abuse Services,,3410 East Highway 246,,Santa Ynez,CA,93460,(805)688-7070,TX/PV/OS/DT/OD/OR/IO/SS/CM/CH/MC/MD/FGPI/
Live Again Recovery Home,,,38215 North San Francisquito Canyon Rd,,Saugus,CA,91350,(661)270-0025,TX/RR/HV/SS/
Bay Area Community Resources,Marin City Project,,740 Drake Avenue,,Sausalito,CA,94965,(415)339-2850,TX/PV/OS/OR/
Camp Recovery Centers,,,3192 Glen Canyon Road,,Scotts Valley,CA,95066,(831)438-1868,TX/PV/OS/DT/IO/IDIRRD/RR/AD/DD/HV/SS/OH/HH/PI/
Triad Community Services,Outpt Drug and Alcohol Treatment Prog,,5271 Scotts Valley Drive,Suite 200,Scotts Valley,CA,95066,,TX/PV/OS/OR/IO/AD/DD/SS/SC/FG/PI/
Community Human Services,Genesis Residential Center,I 152 Sonoma A venue,,,Seaside,CA,93955,(831)899-2436 Hotline:,TX/PV/OS/DT/RD/RR/HV/PW/SS/TC/
Traffic and Alcohol Awareness,School of Kem (TAASK),,511 Central Valley Highway,,Shafter,CA,93263,(661)832-3283,TX/OR/
Lifechanges Counseling Center,,,37 Auburn Street,Suite 5,Sierra Madre,CA,91024,(818)355-2321 Hotlines: (626)932-4264 (626)932-4246,TX/PV/OS/DT/OD/OR/IO/AD/DD/HV/PW/SS/SG/
Aegis Medical Systems,,,2943 Sycamore Drive,Room I,Simi Valley,CA,93065,(805)522-1844,TX/ML/DT/OD/OR/SS/MD/
Rainbow Recovery Centers II,,,3165 Tapo Canyon Road,,Simi Valley,CA,93063,(805)583-3988 Hotline: (805)583-3988,TX/PV/OS/RR/DD/HV/PW/SS/TC/CM/CO/CJ/
Ventura County Dept of Behavioral,Health Simi Valley Center,,4322 Eileen Street,,Simi Valley,CA,93063,(805)584-4878,TX/PV/OS/OR/AD/DD/SS/
Rim Family Services,,,28545 Highway 18,,Skyforest,CA,92385,(909)336-1800,TX/PV/OS/OR/IO/AD/DD/HV/SS/CM/CJ/MD/
Tuolume County Alcohol and Drug Servs,,,1280 I Cabezut Road,,Sonora,CA,95370,(209)533-3553,TX/PV/OS/OR/IO/AD/DD/PW/SS/CM/
Southern California,Alcohol and Drug,,8627 California Avenue,,South Gate,CA,90280,(323)357-6100 Hotline: (562)923-4545,TX/OS/IO/SS/FG/
South Coast Medical Center,Genesis Chemical Dependency Services,,31872 Coast Highway,,South Laguna Beach,CA,92677,(949)499-7150 Hotlines: (949)499-7150 (949)499-7552,TX/PV/OS/DT/IO/ID/IR/DD/SS/GH/MC/FG/PI
Sierra Recovery Center,Macinaw,,931 Macinaw Road,,South Lake Tahoe,CA,96150,(530)541-5440 Hotlines: (530)541-5440 (530)541-5190,TX/PV/OS/RD/RR/PW/SS/MD/PI/
Sierra Recovery Center,Reaves,,2677 Reaves Street,,South Lake Tahoe,CA,96150,(530)541-5440 Hotlines: (530)541-5440 (530)541-5190,TX/PV/OS/DT/RD/RR/SS/CJ/FG/PI/
Sierra Recovery Center,972-B Tallac A venue,,,,South Lake Tahoe,CA,96150,(530)541-5190 Hotlines: (530)541-5190 (530)541-5440,TX/PV/OS/OR/IO/SS/CJ/MD/FG/PI/
Tahoe Turning Point,Juvenile Residential Trt Ctr/Tehema St,,562 Tehema Street,,South Lake Tahoe,CA,96151,(530)541-4594,TX/OS/DT/OR/RD/RR/AD/DD/SS/TC/
Tahoe Turning Point/Heavenly,Treatment Center TEHMEMA,,,,South Lake Tahoe,CA,96151,(530)541-1200,TX/PV/OS/RR/AD/OH/
Tahoe Youth and Family Services,,,1021 Fremont A venue,,South Lake Tahoe,CA,96150,(530)541-2445 Hotline: (530)541-8500,TX/PV/OS/OR/IO/AD/CO/MD/
Chemical Dependency Service,Kaiser Permanente Medical Center,,1200 El Camino Real,,South San Francisco,CA,94080,(415)742-2518,TX/PV/OS/OD/OR/IO/AD/DD/PW/SS/GH/
First Chance Program,,,383 East Grand A venue,,South San Francisco,CA,94080,(650)952-3304,TX/PV/OS/DT/OD/RD/SS/CJ/
Sitike Counseling Center,,,306 Spruce A venue,,South San Francisco,CA,94080-2741,(650)589-9305,TX/OS/OR/IO/PW/SS/
Womens Recovery Association,Hillside House,,18 Leo Circle,,South San Francisco,CA,94080,(650)348-6603,TX/OS/OR/RR/HV/PW/SS/
Stanton Detox,Division Roque Center Inc,,10936 Dale Street,,Stanton,CA,90680,(714)229-9105 Hotline: (714)229-9105,DT/RD/SS/
Western Pacific Stanton Medical Clinic,,,10751 Dale Street,,Stanton,CA,90680,(714)821-5311,TX/ML/DT/OD/HV/PW/SS/
Aegis Medical Systems Inc,,,8626 Lower Sacramento Road,Suite 41,Stockton,CA,95210,(209)478-2487,TX/ML/DT/OD/OR/IO/SS/MD/
Focus,,,322 North California Street,,Stockton,CA,95202,(209)468-3695 Hotline: (209)468-6880,TX/OS/OR/IO/DD/PW/SS/FG/
Jesus Saves Ministries,,,438 South Sutter Street,,Stockton,CA,95203,(209)463-4979 Hotline: (209)463-4979,TX/PV/OS/IO/AD/DD/SS/CO/MD/
Maynards Chemical Dep Recovery Center,,,4550 North Pershing Street,Suite 3,Stockton,CA,95207,(800)228-8208 Hotline: (800)228-8208,TX/PV/OS/IO/SS/
Narrow Gate Counseling Consortium,,,930 North Hunter Street,,Stockton,CA,95269,(209)465-3171,TX/PV/OS/OR/IO/AD/DD/HV/SS/SG/
Salvation Army,Adult Rehabilitation Center,,1247 South Wilson Way,,Stockton,CA,95205,(209)466-3871,TX/OS/RR/SS/CO/
San Joaquin County,Aurora Street Clinic,,620 North Aurora Street,Suite 1,Stockton,CA,95202,(209)468-8220,TX/ML/OS/OR/PW/SS/MD/
San Joaquin County,Chemical Dependency Counseling Center,,620 North Aurora Street,Suite 2,Stockton,CA,95202,(209)468-3720,TX/OS/OR/DD/SS/
San Joaquin County Alcohol/Drug Servs,Family Ties,,322 North California Street,,Stockton,CA,95202,(209)468-3695 Hotline: (209)468-6848,TX/RR/PW/SS/OH/
St Josephs Behavioral Health Center,,,2510 North California Street,,Stockton,CA,95204,(209)948-2100 Hotlines:,TX/PV/OS/DT/OR/IO/ID/IR/DD/SS/PH/MC/PI/
Starting Point,,,701 East Park Street,,Stockton,CA,95202,(209)468-8021,TX/OS/DT/IO/RD/RR/DD/HV/SS/OH/
Xenia,Ark Residential Treatment Center,,1609 North Wilson Way,,Stockton,CA,95205,(209)466-1516,TX/OS/RR/DD/HV/SS/TC/HH/SG/
Quest Counseling,,,3959 Laurel Canyon Boulevard,Suite C,Studio City,CA,91604,(323)664-5000 Hotline: (323)664-5000,TX/PV/OS/OR/DD/HV/SS/
People in Progress,Sun Valley Community Rehab Center,,8140 Sunland Boulevard,,Sun Valley,CA,91352,(818)768-7494 Hotline: (800)957-6237,TX/PV/OS/OR/RR/SS/TC/
Lassen County Alcohol and Drug Program,Promises Perinatal Program,,701-373 Johnstonville Road,,Susanville,CA,96130,(530)257-2157 Hotline: (530)257-5004,TX/PV/OS/DT/OD/OR/IO/PW/SS/
Lassen County Alcohol and Drug Program,,,476 Alexander Avenue,,Susanville,CA,96130,(530)251-8112 Hotline: (530)257-5004,TX/PV/OS/DT/OD/OR/IO/RD/RR/AD/DD/SS/FG/
Lassen Indian Health Center,Substance Abuse Services,,795 Joaquin Street,,Susanville,CA,96130,(530)257-2542,TX/PV/OS/OR/RR/AD/DD/SS/SC/
Industry Community Interface,(ICI) Enterprises,,13741 Foothill Boulevard,Suite 110,Sylmar,CA,91342,(818)364-9426,TX/OS/OR/DD/SS/
MaClay House Inc,,,13370 Sayre Street,,Sylmar,CA,91342,(818)362-5615,TX/PV/OS/RR/SS/FG/I
Oasis Womens Recovering Community,,,13832 Polk Street,,Sylmar,CA,91342,(818)362-0986,TX/PV/OS/RR/SS/TC/PI/
Phoenix Houses of Los Angeles,,,11600 Eldridge Avenue,,Sylmar,CA,91342,(818)896-1121 Hotline: (800)378-4437,TX/PV/OS/RR/AD/HV/SS/TC/SC/FG/
Shepherds Recovery,,,13466 Hubbard Street,,Sylmar,CA,91342,(818)833-9704,TX/OS/RR/SS/TC/CO/CJ/
Bakersfield Memorial Hospital,Alta Vista CORP,,401 Finley Drive,,Taft,CA,93268,,TX/PV/OS/DT/OD/OR/IO/ID/IR/AD/DD/SS/PH/MC/PI/
Traffic and Alcohol Awareness,School of Kem (T AASK),Taft College WESTEC,210 East Center Street,,Taft,CA,93268,(661)832-3283,TX/OR/
Sierra Family Services/Tahoe,,,2690 Lake Forest Road,Suite 202,Tahoe City,CA,96145,(916)581-4054,TX/PV/OS/OR/AD/DD/SS/
